Facility Number,Facility Name,HMIS,Province,District,Division,LOCATION,Sub-Location,Facility Type,Agency,Latitude,Longitude
29,PORT VICTORIA SUB-DISTRICT HOSP,2266,WESTERN,BUSIA,BUDALANGI,BUNYALA WEST,BUKANI,1,MOH,0.097198,33.975805
30,RUKALA DISP,2250,WESTERN,BUSIA,BUDALANGI,BUNYALA SOUTH,RUKALA,4,MOH,0.056622,33.992112
22,UGINA DISP,1433,NYANZA,SUBA,MFANGANO,MFANGANO SOUTH,WAKULA SOUTH,4,MOH,-0.49123,34.00212
12,MAGETA DISP,165,NYANZA,BONDO,USIGU,MAGETA ISLAND,MAHANGABONDO,4,MOH,-0.1325,34.0103
12,HAKATI DISP,1508,WESTERN,BUSIA,BUDALANGI,BUNYALA NORTH,MUNDERE,4,MOH,0.137745,34.011425
25,WAKULA DISP,1376,NYANZA,SUBA,MFANGANO,MFANGANO WEST,WAKULA NORTH,4,MOH,-0.44123,34.01232
7,BUSEMBE DISP,2480,WESTERN,BUSIA,FUNYULA,BWIRI,BUSEMBE,4,MOH,0.184948,34.016435
31,SIO PORT H C,2262,WESTERN,BUSIA,FUNYULA,NANGUBA,BUJWANGA,3,MOH,0.22515,34.021322
18,MADUWA DISP,2247,WESTERN,BUSIA,BUDALANGI,BUNYALA SOUTH,OBARO,4,MOH,-0.00561,34.0223
16,SOKLO DISP,4489,NYANZA,SUBA,MFANGANO,MFANGANO WEST,SOKLO SOUTH,4,MOH,-0.46231,34.02231
6,GOT AGULU HEALTH CENTRE,1346,NYANZA,BONDO,USIGU,WEST YIMBO,GOT AGULU,3,MOH,-0.0341,34.0248
43,BUDALANGI DISP,0,WESTERN,BUSIA,BUDALANGI,BUNYALA EAST,BUDALANGI,4,MOH,0.130355,34.027765
21,MUKHOBOBLA H C,2260,WESTERN,BUSIA,BUDALANGI,BUNYALA CENTRAL,MAGOMBE WEST,3,MOH,0.081572,34.029852
13,SENA HEALTH CENTRE,1429,NYANZA,SUBA,MFANGANO,MFANGANO EAST,WAKINGA,3,MOH,-0.4679,34.0621
2,AGENGA DISP,2244,WESTERN,BUSIA,FUNYULA,AGENGA,AGENGA,4,MOH,0.252663,34.070668
3,KISEGI SUB-DISTRICT HOSPITAL,357,NYANZA,SUBA,GWASSI,GWASSI NORTH,UTERERE,1,MOH,-0.63123,34.08234
30,MUHURU HEALTH CENTRE,1454,NYANZA,MIGORI,MUHURU,WEST MUHURU,KITHII,3,MOH,-0.997569,34.084083
27,NANGINA DISP,2249,WESTERN,BUSIA,FUNYULA,NANGOSIA,BUKHULUNGU,4,MOH,0.27726,34.098623
28,USIGU DISP,1365,NYANZA,BONDO,USIGU,CENTRAL YIMBO,USIGU,4,MOH,-0.0568,34.0994
21,NYAMBARE DISP,4495,NYANZA,SIAYA,URANGA,USONGA,NYADORERA 'A',4,MOH,0.133418,34.102043
8,BUSIA DISTRICT HOSPITAL,2264,WESTERN,BUSIA,TOWNSHIP,TOWNSHIP,MJINI CENTRAL,1,MOH,0.460407,34.104497
27,ULUNGO DISP,4480,NYANZA,BONDO,USIGU,NORTH YIMBO,BAR KANYANGO,4,MOH,0.01815,34.10807
3,BUDUTA DISP,2243,WESTERN,BUSIA,FUNYULA,AGENGA,AJIBO,4,MOH,0.22236,34.109533
26,NAMBUKU DISP,2248,WESTERN,BUSIA,FUNYULA,NAMBUKU,LUGALA,4,MOH,0.318277,34.110365
35,SIFUYO DISP,4256,NYANZA,SIAYA,UKWALA,WEST UGENYA,SIFUYO WEST,4,MOH,0.1639,34.1165
22,MUNDONGO DISPENSARY,0,WESTERN,BUSIA,MATAYOS,BUKHAYO WEST,MUNDIKA,4,MOH,0.380793,34.121233
16,ALUPE LEPROSY HOSPITAL,2263,WESTERN,TESO,CHAKOL,ANGOROM,ALUPE,8,MOH,0.48561,34.1218
7,GOT MATAR DISP,1347,NYANZA,BONDO,USIGU,NORTH YIMBO,NYAMONYE,4,MOH,-0.0309,34.1315
23,NAMBALE H C,2261,WESTERN,BUSIA,FUNYULA,ODIADO,ODIADO,3,MOH,0.27348,34.14324
6,MAGUNGA HEALTH CENTRE,1402,NYANZA,SUBA,GWASSI,GWASSI CENTRAL,MAGUNGA,3,MOH,-0.69086,34.1474
21,KARUNGU HEALTH CENTRE,1443,NYANZA,MIGORI,KARUNGU,WEST KARUNGU,SORI,3,MOH,-0.841291,34.1565
7,HAWINGA DISP,1348,NYANZA,SIAYA,URANGA,S.W.ALEGO,KABURA-UHUYI,4,MOH,0.1344,34.1624
50,RIAT DISP,4317,NYANZA,MIGORI,KARUNGU,WEST KARUNGU,SORI,4,MOH,-0.797676,34.1645
20,MATAYO'S H C,2258,WESTERN,BUSIA,MATAYOS,NANGOMA,MUYAFWA,3,MOH,0.365967,34.165233
15,SINDO RHDC  AGG. SUBA DISTRICT HOSPITAL,1474,NYANZA,SUBA,CENTRAL,KAKSINGRI WEST,RANGWA EAST,1,MOH,-0.541249,34.1658
29,UYAWI DISP,1366,NYANZA,BONDO,BONDO,CENTRAL SAKWA,UYAWI,4,MOH,-0.16139,34.16597
19,KANYOUR DISP,0,NYANZA,MIGORI,NYATIKE,CENTRAL KADEM,KARAPOLO,4,MOH,-0.904643,34.1706
20,"TOM MBOYA MEMORIAL DISTRICT HOSP, MBITA",1467,NYANZA,SUBA,MBITA,RUSINGA WEST,KASWANGA,1,MOH,-0.40123,34.17231
10,KAPIYO DISP,4250,NYANZA,BONDO,BONDO,S.W. SAKWA,UTONGA,4,MOH,-0.08601,34.17491
30,RATUORO DISP,2464,NYANZA,SIAYA,BORO,S.CENTRAL ALEGO,KADENGE,4,MOH,0.03116,34.178541
42,UKWALA HEALTH CENTRE,1373,NYANZA,SIAYA,UKWALA,UKWALA,DOHO-EAST,3,MOH,0.2078,34.1808
62,WATH ONGER DISP,1436,NYANZA,MIGORI,NYATIKE,SOUTH KADEM,W. KANYARWANDA,4,MOH,-0.956398,34.1859
32,RWAMBWA H C,1360,NYANZA,SIAYA,UKWALA,UKWALA,DOHO-EAST,3,MOH,0.196039,34.188548
27,RABAR DISP,1358,NYANZA,SIAYA,URANGA,WEST ALEGO,KOMENYA KOWALA,4,MOH,0.152112,34.190021
6,BUMULA 'A' HEALTH CENTRE,0,WESTERN,BUSIA,BUTULA,BUMALA,BUKHAKHALA,3,MOH,0.30231,34.1914
43,OTHOTHRAKUOM DISP,3575,NYANZA,MIGORI,NYATIKE,SOUTH KADEM,C. KANYARWANDA,4,MOH,-0.995204,34.1944
9,BUSIBWABU DISPENSARY,0,WESTERN,BUSIA,MATAYOS,BUSIBWABO,NAKHAKINA,4,MOH,0.41086,34.201223
7,MBITA HEALTH CENTRE,1450,NYANZA,SUBA,MBITA,GEMBE WEST,MBITA TOWNSHIP,3,MOH,-0.467294,34.2043
4,BORO DISP,1345,NYANZA,SIAYA,BORO,CENTRAL ALEGO,OJWANDO 'A',4,MOH,0.0671,34.2052
8,KADENGE RATUORO DISP,4245,NYANZA,SIAYA,BORO,S.CENTRAL ALEGO,OBAMBO,4,MOH,0.0375,34.2103
2,KIGWA DISP,4123,NYANZA,SUBA,GWASSI,GWASSI EAST,KIBWER,4,MOH,-0.63123,34.21112
37,OLASI DISP,4543,NYANZA,MIGORI,NYATIKE,KALER,OLASI,4,MOH,-1.08044,34.2112
11,LUKOLIS DISP,2246,WESTERN,TESO,AMUKURA,AREMIT,ODIOYI,4,MOH,0.602941,34.226504
6,BWARE DISP,1391,NYANZA,MIGORI,NYATIKE,NORTH KADEM,MAGUNGU,4,MOH,-0.866402,34.2302
10,NYS DISP,1418,NYANZA,SUBA,CENTRAL,RUMA,NYADENDA,4,MOH,-0.62321,34.24123
12,LIGEGA DISP,2468,NYANZA,SIAYA,UKWALA,N.EAST UGENYA,LIGEGA,4,MOH,0.2119,34.244
13,OBEKAI DISP,3272,WESTERN,TESO,AMUKURA,KALIWA,KALIWATESO,4,MOH,0.508603,34.246637
1,AGENGA SUB-HEALTH CENTRE,1378,NYANZA,MIGORI,NYATIKE,CENTRAL KADEM,E. KANYUOR,3,MOH,-0.935185,34.2474
8,NYADENDA DISP,1121,NYANZA,SUBA,CENTRAL,RUMA,NYADENDA,4,MOH,-0.58124,34.25123
12,PONGE DISP,3938,NYANZA,SUBA,MBITA,GEMBE CENTRAL,KAMRERI WEST,4,MOH,-0.54123,34.25231
3,GOT KOJOWI H C,385,NYANZA,HOMA BAY,NYARONGI,EAST KWAMBWAI,KAWANGA,3,MOH,-0.752199,34.2553
8,KAGWA DISP,2649,NYANZA,BONDO,MADIANY,WEST UYOMA,KAGWABONDO,4,MOH,-0.22851,34.25665
15,KHUNYANGU H C,2256,WESTERN,BUSIA,BUTULA,MARACHI CENTRAL,KINGANDOLE,3,MOH,0.33769,34.25793
21,NYARONGI DISP,686,NYANZA,HOMA BAY,NYARONGI,WEST KWAMBWAI,KASIRIME,4,MOH,-0.75899,34.26434
3,AMBIRA DISP,1344,NYANZA,SIAYA,UGUNJA,CENTRAL UGENYA,AMBIRA,4,MOH,0.1894,34.2644
32,NDIWA DISP,1408,NYANZA,MIGORI,NYATIKE,NORTH KADEM,BALA,4,MOH,-0.884373,34.2712
4,BONDO DISTRICT HOSPITAL,1367,NYANZA,BONDO,BONDO,BONDO TOWNSHIP,NYAWITABONDO,1,MOH,-0.09021,34.2745
15,MANYUANDA HEALTH CENTRE,1350,NYANZA,BONDO,MADIANY,WEST UYOMA,KOKWIRI,3,MOH,-0.25252,34.27609
2,ANYUONGI DISP,0,NYANZA,BONDO,BONDO,SOUTH SAKWA,EAST MIGWENA,4,MOH,-0.17618,34.27613
17,MISORI DISP,4251,NYANZA,BONDO,MADIANY,WEST UYOMA,NYABERABONDO,4,MOH,-0.31856,34.278
2,AMUKURA H C,0,WESTERN,TESO,AMUKURA,AMUKURA,AMUKURA,3,MOH,0.569002,34.283452
34,SIAYA DISTRICT HOSPITAL,1379,NYANZA,SIAYA,KAREMO,TOWNSHIP,MULAHA,1,MOH,0.063129,34.2839
5,GOBEI DISP,2467,NYANZA,BONDO,BONDO,BONDO TOWNSHIP,NYAWITABONDO,4,MOH,-0.09021,34.2905
16,MASALA DISP,3839,NYANZA,BONDO,MADIANY,CENTRAL UYOMA,MASALA,4,MOH,-0.20811,34.292727
20,NYAGOKO DISP,35,NYANZA,BONDO,RARIEDA,SOUTH ASEMBO,NYAGOKO,4,MOH,-0.17535,34.29557
19,MALANGA DISP,2946,WESTERN,BUSIA,BUTULA,ELUGULU,MUKHWESOBUSIA,4,MOH,0.403823,34.296672
25,MACALDER HEALTH CENTRE,1447,NYANZA,MIGORI,NYATIKE,SOUTH EAST KADEM,NYATIKE,3,MOH,-0.969037,34.2996
9,LAMBWE FOREST DISP,1399,NYANZA,HOMA BAY,NDHIWA,WEST KANYAMWA,KAYAMBO,4,MOH,-0.67757,34.307
18,NAYA DISP,1353,NYANZA,BONDO,MADIANY,SOUTH UYOMA,NAYA,4,MOH,-0.36255,34.3121
11,BWALIRO DISPENSARY,0,WESTERN,BUSIA,BUTULA,ELUGULU,BWALIRO,4,MOH,0.378245,34.316199
4,KITARE HEALTH CENTRE,1397,NYANZA,SUBA,MBITA,GEMBE EAST,KAYANJA,3,MOH,-0.48212,34.32213
39,ONGITO  DISP,4815,NYANZA,MIGORI,NYATIKE,SOUTH EAST KADEM,OWICHMIGORI,4,MOH,-0.9324,34.3223
11,MADIANY HEALTH CENTRE,1368,NYANZA,BONDO,MADIANY,EAST UYOMA,WEST KATWENG'A,3,MOH,-0.28134,34.3224
41,TING'WANG'I DISP,1363,NYANZA,SIAYA,KAREMO,SOUTH ALEGO,BAR DING,4,MOH,0.0141,34.3286
17,NDHIWA H C,1455,NYANZA,HOMA BAY,NDHIWA,WEST KANYAMWA,KWAMO,3,MOH,-0.732657,34.3322
12,MODING HEALTH CENTRE,2259,WESTERN,TESO,ANGURAI,MODING,ADUMAI,3,MOH,0.761435,34.334208
1,AKCHELIST GSU CAMP DISP,4263,WESTERN,TESO,ANGURAI,KAKAPEL,KAKAPEL,4,MOH,0.684173,34.335414
13,MAHAYA DISP,0,NYANZA,BONDO,RARIEDA,WEST  ASEMBO,MAHAYA,4,MOH,-0.16223,34.34066
11,KOGELO DISP,2466,NYANZA,SIAYA,KAREMO,S.E.ALEGO,NYANGOMA,4,MOH,-0.0145,34.3429
8,KOCHOLIA HEALTH CENTRE,2257,WESTERN,TESO,AMAGORO,KOCHOLIA,KOCHOLIA,3,MOH,0.620794,34.346269
17,MADENDE DISP,2944,WESTERN,BUSIA,NAMBALE,BUKHAYO EAST,MUNGATSI,4,MOH,0.47665,34.346518
11,OGONGO HEALTH CENTRE,1420,NYANZA,SUBA,LAMBWE,LAMBWE WEST,OGONGO,3,MOH,-0.58123,34.35123
42,OTHORO DISP,1294,NYANZA,MIGORI,URIRI,WEST KANYAMKAGO,KAJULU II,4,MOH,-0.9423,34.3521
16,LUPINDA HEALTH CENTRE,0,WESTERN,BUSIA,NAMBALE,BUKHAYO NORTH,LUPIDA,3,MOH,0.577132,34.352575
30,RAPETH DISP,4465,NYANZA,HOMA BAY,NYARONGI,CENTRAL KANYIDOTO,SOUTH KAGANDA,4,MOH,-0.76837,34.35348
5,BUMALA ' B ' H C,2254,WESTERN,BUSIA,BUTULA,ELUKHARI,BUKATI,3,MOH,0.35675,34.3574
13,IGARA DISP,2945,WESTERN,BUSIA,NAMBALE,WALATSI,KHWIRALE,4,MOH,0.532938,34.363148
36,SIGOMER HEALTH CENTRE,1372,NYANZA,SIAYA,UGUNJA,EAST UHOLO,SIGOMRE,3,MOH,0.1963,34.3645
4,ANGURAI H C,2253,WESTERN,TESO,ANGURAI,ANGURAI,CHELELEMUK,3,MOH,0.707111,34.364965
26,OYARO DISP,3578,NYANZA,HOMA BAY,NDHIWA,WEST KANYAMWA,KAYAMBO,4,MOH,-0.72574,34.36588
52,SIBUOCHE DISP,4488,NYANZA,MIGORI,URIRI,WEST KANYAMKAGO,KAJULU II,4,MOH,-0.969737,34.3673
34,NYAMARAGA DISP,4487,NYANZA,MIGORI,SUBA WEST,SUNA WASIMBETE,NYAMARAGA,4,MOH,-1.1323,34.3712
37,SIKALAME DISP,1361,NYANZA,SIAYA,UKWALA,EAST UGENYA,KATHIENO 'C',4,MOH,0.2965,34.3714
24,USAO DISP,6145,NYANZA,SUBA,MBITA,GEMBE EAST,USAO,4,MOH,-0.460573,34.3754
22,ONGIELO DISP,1357,NYANZA,BONDO,RARIEDA,EAST ASEMBO,OMIA MALO,4,MOH,-0.16875,34.377777
40,TINGARE DISP,1362,NYANZA,SIAYA,UGUNJA,NORTH UHOLO,TINGARE EAST,4,MOH,0.2588,34.3857
17,NDERE HEALTH CENTRE,1369,NYANZA,SIAYA,YALA,NORTH GEM,NDERE,3,MOH,0.1385,34.3857
14,KHAYO DISP,4474,WESTERN,BUSIA,NAMBALE,BUKHAYO EAST,MADIBO,4,MOH,0.51051,34.388972
12,MALELA DISP,1100,NYANZA,HOMA BAY,NDHIWA,NORTH KANYAMWA,KAKAETA,4,MOH,-0.58486,34.39193
49,LOKICHOGIO DISTRICT HOSPITAL,0,RIFT VALLEY,TURKANA,LOKICHOGGIO,MOGILA,MOGILA,1,MOH,4.18101,34.3924
20,LUNGANYIRO DISP,3859,WESTERN,BUTERE/MUMIAS,MATUNGU,KOYONZO,LUNG'ANYIRO,4,MOH,0.432603,34.3924
5,DIENYA DISP,2463,NYANZA,SIAYA,WAGAI,WEST GEM,DIENYA W,4,MOH,0.0008,34.3969
23,SARADIDI HEALTH CENTRE,1385,NYANZA,BONDO,RARIEDA,CENTRAL ASEMBO,MEMBA,3,MOH,-0.11288,34.39692
6,BUNGATSI HEALTH CENTRE,2305,WESTERN,BUTERE/MUMIAS,MUMIAS,ETENJE,BUNGASI,3,MOH,0.199465,34.399191
38,SIREMBE HEALTH CENTRE,0,NYANZA,SIAYA,WAGAI,N.WEST GEM,SIREMBE,3,MOH,0.095027,34.4
21,KIMAETI DISP,3118,WESTERN,BUNGOMA,BUMULA,KIMAETI,MYANGA/SYOMBE,4,MOH,0.603723,34.4069
19,NJEJRA HEALTH CENTRE,0,NYANZA,SIAYA,WAGAI,WEST GEM,DIENYA W,3,MOH,-0.001698,34.4071
1,ABIDHA HC,1343,NYANZA,BONDO,RARIEDA,EAST ASEMBO,OMIA MWALO,3,MOH,-0.15902,34.41064
20,NYAGOND HEALTH CENTRE,0,NYANZA,SIAYA,WAGAI,N.EAST GEM,WAGAI,3,MOH,0.050708,34.4149
56,TAMLEGA DISP,3122,WESTERN,BUNGOMA,MALAKISI,MALAKISI,TAMULEGA,4,MOH,0.713581,34.417107
41,OSOGO DISP,3574,NYANZA,MIGORI,URIRI,WEST KANYAMKAGO,KAJULU I,4,MOH,-0.977739,34.4206
35,MALAKISI HEALTH CENTRE,2231,WESTERN,BUNGOMA,MALAKISI,MALAKISI,MWALIE,3,MOH,0.682338,34.420863
9,KALUO DISP,2465,NYANZA,SIAYA,UGUNJA,SOUTH UGENYA,YIRO EAST,4,MOH,0.1609,34.4214
6,GOGO HEALTH CENTRE,0,NYANZA,SIAYA,YALA,NORTH GEM,LUNDHA,3,MOH,0.093434,34.4248
22,OBER KABUOCH DISP,4361,NYANZA,HOMA BAY,RIANA,WEST KABUOCH,KACHIENG WEST,4,MOH,-0.75021,34.4258
13,MALANGA HEALTH CENTRE,1349,NYANZA,SIAYA,YALA,NORTH GEM,MALANGASIAYA,3,MOH,0.1334,34.4295
2,CHEPKUBE DISP,4386,WESTERN,MOUNT ELGON,CHEPTAIS,CHEPKUBE,CHEPKUBE,4,MOH,0.839649,34.4353
1,BUGUMBE HEALTH CENTRE,1390,NYANZA,KURIA,MABERA,TAGARE,MABERA,3,MOH,-1.16137,34.4367
26,OPICHE HEALTH CENTRE,0,NYANZA,SIAYA,YALA,NORTH GEM,MALANGASIAYA,3,MOH,0.120028,34.4372
4,BUMULA HEALTH CENTRE,2476,WESTERN,BUNGOMA,BUMULA,BUMULA,LUNAO,3,MOH,0.572483,34.4379
29,KOROSIANDET DISP,3121,WESTERN,BUNGOMA,MALAKISI,NAMUBILA,MACHAKHA,4,MOH,0.744456,34.4391
43,URENGA DISP,1364,NYANZA,SIAYA,WAGAI,N.EAST GEM,URIRI,4,MOH,0.0161,34.4397
22,NDURU KADERO DISP,85,NYANZA,KISUMU,KOMBEWA,S.C. SEME,WEST KANYADWERA,4,MOH,-0.076558,34.4409
1,AKADO DISP,0,NYANZA,KISUMU,KOMBEWA,S.W. SEME,WEST KADINGA,4,MOH,-0.141642,34.4409
31,RERU DISP,3568,NYANZA,KISUMU,KOMBEWA,WEST SEME,WEST RERU,4,MOH,-0.095945,34.4436
31,RERA HEALTH CENTRE,1359,NYANZA,SIAYA,WAGAI,SOUTH GEM,RERA,3,MOH,-0.005207,34.448
5,BUKAYA HEALTH CENTRE,3273,WESTERN,BUTERE/MUMIAS,MUMIAS,ETENJE,ESHIKALAME,3,MOH,0.26004,34.449418
24,MANYALA SUB-DISTRICT HOSPITAL,2325,WESTERN,BUTERE/MUMIAS,BUTERE,MANYALA,ESHIENJERA,1,MOH,0.160402,34.45262
23,NYANGWE HEALTH CENTRE,0,NYANZA,SIAYA,YALA,CENTRAL GEM,KAGILO,3,MOH,0.073523,34.454
10,KODIAGA HEALTH CENTRE,1291,NYANZA,SIAYA,YALA,NORTH GEM,MALIERA,3,MOH,0.106619,34.4566
5,HOMA BAY DISTRICT HOSPITAL,1470,NYANZA,HOMA BAY,ASEGO,HOMA BAY TOWN,TOWNHOMABAY,1,MOH,-0.52474,34.4599
3,CHEPTAIS HEALTH CENTRE,2224,WESTERN,MOUNT ELGON,CHEPTAIS,CHEPTAIS,NGACHI,3,MOH,0.818449,34.4608
9,HOMA LIME H C,1441,NYANZA,RACHUONYO,WEST KARACHUONYO,KANAM A,KOWOUR,3,MOH,-0.414279,34.462036
27,PALA H C,1426,NYANZA,HOMA BAY,RIANA,SOUTH KABUOCH,KAGURIA KAMENYA,3,MOH,-0.82374,34.464
7,ISIBANIA RURAL DEMONSTRATION CENTRE,1473,NYANZA,KURIA,MABERA,BUGEMBE SOUTH,ISIBANIA,3,MOH,-1.202746,34.464607
25,OMBO KACHIENG DISP,3417,NYANZA,HOMA BAY,RIANA,WEST KABUOCH,KACHIENG EAST,4,MOH,-0.73978,34.4653
1,AKALA DISP,1341,NYANZA,SIAYA,WAGAI,SOUTH GEM,KAMBARE,4,MOH,-0.0349,34.4672
29,MIGORI DISTRICT HOSPITAL,1451,NYANZA,MIGORI,SUBA EAST,SUNA RAGANA,MARINDI,1,MOH,-1.06321,34.4694
20,NYANGOGE DISP,1417,NYANZA,KURIA,MASABA,BUGEMBE EAST,NYANGOGEKURIA,4,MOH,-1.16047,34.4726
26,MUHAKA DISP,3829,WESTERN,BUTERE/MUMIAS,KHWISERO,WEST KISA,MUHAKA,4,MOH,0.128712,34.476095
25,MATUNGU H C,2327,WESTERN,BUTERE/MUMIAS,MATUNGU,MATUNGU,MAYONI,3,MOH,0.387188,34.476283
18,KHWISERO H C,2318,WESTERN,BUTERE/MUMIAS,KHWISERO,WEST KISA,MUHAKA,3,MOH,0.11,34.48
10,EMUHAKA DISP,6140,WESTERN,BUTERE/MUMIAS,KHWISERO,WEST KISA,MUHAKA,4,MOH,0.133411,34.4801
29,MUMIAS DISP,2288,WESTERN,BUTERE/MUMIAS,MUMIAS,NABONGO,MATAWA,4,MOH,0.334477,34.48058
25,OGERO HEALTH CENTRE,0,NYANZA,SIAYA,WAGAI,SOUTH GEM,GOMBE,3,MOH,0.005518,34.4828
3,BULONDO DISP,2211,WESTERN,BUNGOMA,BUMULA,S.BUKUSU,LUMBOKA,4,MOH,0.497461,34.4841
23,OBERA HEALTH CENTRE,0,NYANZA,HOMA BAY,RIANA,WEST KABUOCH,KACHIENG EAST,3,MOH,-0.69451,34.4844
24,NYAWARA HEALTH CENTRE,1386,NYANZA,SIAYA,YALA,CENTRAL GEM,NYAWARA,3,MOH,0.09451,34.4888
46,RABONDO DISP,1427,NYANZA,MIGORI,AWENDO,WEST SAKWA,RABONDO,4,MOH,-0.8424,34.4925
7,BUTERE DISTRICT HOSPITAL,2306,WESTERN,BUTERE/MUMIAS,BUTERE,TOWNSHIP,SHIREMBE,1,MOH,0.208536,34.493471
0,TULKUT DISP,0,WESTERN,MOUNT ELGON,CHEPTAIS,SASURI,SASURI,4,MOH,0.815401,34.494183
28,RAMULA HEALTH CENTRE,1387,NYANZA,SIAYA,WAGAI,SOUTH GEM,GOMBE,3,MOH,-0.0175,34.4988
7,CHEBUKUTUMI DISP,0,WESTERN,BUNGOMA,SIRISIA,SIRISIA,S.KULISIRU,4,MOH,0.70983,34.4991
41,SHIKUNGA DISP,3827,WESTERN,BUTERE/MUMIAS,BUTERE,TOWNSHIP,SHIROTSA,4,MOH,0.21743,34.499125
33,NYAKURU DISP,1414,NYANZA,MIGORI,AWENDO,NORTH SAKWA,KAKMASIA,4,MOH,-0.8,34.5
60,URIRI SUB-HEALTH CENTRE,1434,NYANZA,MIGORI,URIRI,CENTRAL KANYAMKAGO,KAWERE IIB,3,MOH,-0.942382,34.5051
15,KOMBEWA RHTC,1338,NYANZA,KISUMU,KOMBEWA,S.C. SEME,UPPER KOMBEWA,3,MOH,-0.097329,34.5053
14,MARINDI DISP,1404,NYANZA,HOMA BAY,ASEGO,EAST KANYADA,KALANYA KANYANGO,4,MOH,-0.663833,34.5061
5,BODI DISP,1275,NYANZA,KISUMU,KOMBEWA,S.W. SEME,SOUTH ALUNGO,4,MOH,-0.155489,34.5087
23,KWOYO KODALO HEALTH CENTRE,3856,NYANZA,MIGORI,AWENDO,NORTH SAKWA,KAKMASIA,3,MOH,-0.776614,34.5088
50,SIRISIA HEALTH CENTRE,2235,WESTERN,BUNGOMA,SIRISIA,SIRISIA,N. KULISIRU,3,MOH,0.753888,34.509054
17,KANYAMGONY DISP,0,NYANZA,MIGORI,AWENDO,WEST SAKWA,KANYAMGONY,4,MOH,-0.834326,34.5118
10,MAGINA H C,1401,NYANZA,HOMA BAY,RIANA,CENTRAL KABUOCH,KAWERE/KAWUOR,3,MOH,-0.69035,34.5158
4,CHESIKAKI DISP,3832,WESTERN,MOUNT ELGON,CHEPTAIS,CHESIKAK,CHESIKAK,4,MOH,0.799793,34.5159
44,OYANI DISP,1424,NYANZA,MIGORI,URIRI,SOUTH KANYAMKAGO,BWARE,4,MOH,-1.00547,34.5168
19,NYAMETABURO DISP,4278,NYANZA,KURIA,KEHANCHA,BUKIRA WEST,NYAMATABURO,4,MOH,-1.234433,34.517256
7,KANYAMKAGO OBER DISP,3331,NYANZA,HOMA BAY,RIANA,CENTRAL KABUOCH,KAWERE/KAWUOR,4,MOH,-0.69557,34.51781
3,AWENDO HEALTH CENTRE,1440,NYANZA,MIGORI,AWENDO,CENTRAL SAKWA,KOMBOK,3,MOH,-0.897013,34.5238
13,KABULA DISP,0,WESTERN,BUNGOMA,BUMULA,KABULA,EAST MATEKA,4,MOH,0.474377,34.5257
19,NYAGORO H C,1412,NYANZA,HOMA BAY,RANGWE,EAST KOCHIA,KORAYO,3,MOH,-0.507608,34.5293
11,KANDIEGE H C,1396,NYANZA,RACHUONYO,WEST KARACHUONYO,KOYUGI,KAMUGA 2,3,MOH,-0.45638,34.5297
8,GOT OYARO DISP,1393,NYANZA,RACHUONYO,WEST KARACHUONYO,KOKOTH KATENG,KAKOKO,4,MOH,-0.38942,34.532
14,MASABA HEALTH CENTRE,1405,NYANZA,KURIA,MASABA,BUGEMBE NORTH,MASABAKURIA,3,MOH,-1.11731,34.5322
7,DEDE DISP,1392,NYANZA,MIGORI,AWENDO,WEST SAKWA,KANYAMGONY,4,MOH,-0.814374,34.5331
33,ROTA DISP,1309,NYANZA,KISUMU,MASENO,OTWENYA,NORTH RATA,4,MOH,-0.033521,34.5332
14,MARENYO DISP,1351,NYANZA,SIAYA,YALA,YALA TOWNSHIP,MARENYO,4,MOH,0.062,34.5345
21,LUSHEYA DISP,3657,WESTERN,BUTERE/MUMIAS,MUMIAS,SHIBINGA,LUSHEYA,4,MOH,0.304527,34.536064
44,YALA SUB-DISTRICT HOSPITAL,1384,NYANZA,SIAYA,YALA,YALA TOWNSHIP,SAURI,1,MOH,0.101019,34.5375
16,MIDHINE DISP,3813,NYANZA,SIAYA,YALA,YALA TOWNSHIP,MARENYO,4,MOH,0.0589,34.5427
16,KANYAGWALA DISP,0,NYANZA,MIGORI,AWENDO,CENTRAL SAKWA,KANYAGWALA,4,MOH,-0.849252,34.5437
26,MARIWA HEALTH CENTRE,1448,NYANZA,MIGORI,AWENDO,SOUTH SAKWA,WAUNDHA,3,MOH,-0.958705,34.5469
16,KHALABA HEALTH CENTRE,3274,WESTERN,BUTERE/MUMIAS,MATUNGU,MATUNGU,KHALABABM,3,MOH,0.427352,34.548307
5,BUNGOMA DISTRICT HOSPITAL,2237,WESTERN,BUNGOMA,KANDUYI,TOWNSHIP,TOWNSHIPKANDUYI,1,MOH,0.572,34.557
18,KAVUJAI DISP,0,WESTERN,BUNGOMA,CENTRAL,KABUCHAI,KISIWA,4,MOH,0.643617,34.5576
11,KOMBE DISP,4277,NYANZA,KURIA,MASABA,KOMBE,KOMBEKURIA,4,MOH,-1.10582,34.558607
12,KABUCHAI HEALTH CENTRE,2226,WESTERN,BUNGOMA,CENTRAL,KABUCHAI,KISIWA,3,MOH,0.646573,34.560124
6,BUNGOMA GK PRISON DISP,4237,WESTERN,BUNGOMA,KANDUYI,TOWNSHIP,KHALABABUNGOMA,4,MOH,0.560941,34.5626
38,WAGWE H C,1435,NYANZA,RACHUONYO,WEST KARACHUONYO,KANJIRA,KADIK,4,MOH,-0.34503,34.5651
22,KUJA DISP,1398,NYANZA,MIGORI,AWENDO,NORTH SAKWA,KANYASREGA,4,MOH,-0.816578,34.5661
9,ELWASAMBI DISP,4391,WESTERN,BUTERE/MUMIAS,MUMIAS,SHIBINGA,LUBINU,4,MOH,0.288933,34.56794
31,OTARO DISP,0,NYANZA,RACHUONYO,WEST KARACHUONYO,KANYIPIR,KOWILI I & II,4,MOH,-0.445946,34.5685
43,SHIRAHA HEALTH CENTRE,2352,WESTERN,BUTERE/MUMIAS,BUTERE,NORTH MARAMA,SHIRAHA,3,MOH,0.19674,34.570745
40,ONGO SUB HEALTH CENTRE,1421,NYANZA,MIGORI,RONGO,EAST KAMAGAMBO,KAMBIJA,3,MOH,-0.6623,34.5712
10,EKWANDA HEALTH CENTRE,3824,WESTERN,VIHIGA,LUANDA,S.W BUNYORE,MWITUBWI,3,MOH,0.014044,34.571276
23,MANGUNGU DISP,4217,WESTERN,BUTERE/MUMIAS,MUMIAS,SHIBINGA,MUNG'ANG'A,4,MOH,0.347913,34.576239
11,CHWELE HEALTH CENTRE,2225,WESTERN,BUNGOMA,CHWELE,CHWELE,CHWELE,3,MOH,0.734351,34.57788
22,KIMALEWA HEALTH CENTRE,2229,WESTERN,BUNGOMA,CHWELE,MUKUYUNI,MUKUYUNIBUNGOMA,3,MOH,0.771002,34.5788
20,MIRANGA DISP,1321,NYANZA,KISUMU,MASENO,OTWENYA,EAST KOLUNJE,4,MOH,-0.059824,34.579
18,IPALI HEALTH CENTRE,2317,WESTERN,VIHIGA,LUANDA,WEST BUNYORE,ITUMBU,3,MOH,0.0502,34.58082
18,NDIRU H C,1456,NYANZA,HOMA BAY,RANGWE,WEST KAGAN,KANYIRIEMA,3,MOH,-0.50254,34.5812
17,KHAUNGA DISP,0,WESTERN,BUTERE/MUMIAS,MUMIAS,SHIBINGA,KHAUNGA,4,MOH,0.376866,34.584065
10,KOPSIRO DISP,2427,WESTERN,MOUNT ELGON,KOPSIRO,CHEPYUK,CHEPYUK,4,MOH,0.824948,34.587068
35,OGWEDHI DISP,1851,NYANZA,MIGORI,SUBA EAST,SUNA RABUOR,KWA,4,MOH,-1.0671,34.5914
28,RANGWE HC,1428,NYANZA,HOMA BAY,RANGWE,GEM CENTRAL,KAJULU,3,MOH,-0.615395,34.5988
1,ADIEDO H C,1389,NYANZA,RACHUONYO,EAST KARACHUONYO,KANYALUO WEST,KOBILA,3,MOH,-0.420942,34.6015
51,RONGO HEALTH CENTRE,1463,NYANZA,MIGORI,RONGO,CENTRAL KAMAGAMBO,KABUORO,3,MOH,-0.744324,34.6021
21,TARAGANYA DISP,1432,NYANZA,KURIA,KEHANCHA,BUKIRA EAST,TARANGANYA,4,MOH,-1.23596,34.6024
5,KAPKATENY DISP,4385,WESTERN,MOUNT ELGON,KOPSIRO,KAPKATENY,TOYWONDET,4,MOH,0.812513,34.6033
34,SIRIBA DISP,1311,NYANZA,KISUMU,MASENO,N.W. KISUMU,SUNGA,4,MOH,0.005144,34.6043
32,MUNGANGA DISP,3091,WESTERN,BUTERE/MUMIAS,MUMIAS,SHIBINGA,MAKUNGA,4,MOH,0.3,34.61
3,BUDONGA DISP,4466,WESTERN,KAKAMEGA,NAVAKHOLO,BUNYALA WEST,BUDONGA,4,MOH,0.398045,34.61019
13,ENANGA HEALTH CENTRE,0,WESTERN,BUTERE/MUMIAS,KHWISERO,KISA SOUTH,EMALINDI,3,MOH,0.125715,34.610657
18,KANYIMACH SUB-HEALTH CENTRE,0,NYANZA,MIGORI,AWENDO,EAST SAKWA,KOGELO SOUTH,3,MOH,-0.968655,34.6113
2,CHINATO DISP,3895,NYANZA,KURIA,KEGONGA,NYABASI WEST,NYABIKONGORI,4,MOH,-1.2885,34.6137
22,MAKUNGA RHDC,2358,WESTERN,BUTERE/MUMIAS,MUMIAS,SHIBINGA,ISONGO,3,MOH,0.31,34.62
4,BUKURA RHDC,2304,WESTERN,KAKAMEGA,LURAMBI,BUKURA,EMUKAYA,3,MOH,0.219185,34.620511
24,LYANAGINGA HEALTH CENTRE,2322,WESTERN,VIHIGA,EMUHAYA,WEKHOMO,EBUHANDO,3,MOH,0.010225,34.621767
11,EMUHAYA HEALTH CENTRE,2309,WESTERN,VIHIGA,EMUHAYA,WEKHOMO,IBOONA,3,MOH,0.037943,34.626321
51,SINGO DISP,2338,WESTERN,KAKAMEGA,NAVAKHOLO,BUNYALA WEST,LUSUMU,4,MOH,0.365303,34.6269
16,NDURU HEALTH CENTRE,1271,NYANZA,GUCHA,NYAMARAMBE,S. MUGIRANGO CENTRAL,BOMONYAMA,3,MOH,-0.80782,34.62814
15,MOTICHO DISP,3287,NYANZA,GUCHA,ETAGO,GETENGA,NYABERAGUCHA,4,MOH,-0.886617,34.6315
13,KENDU SUB-DISTRICT HOSPITAL,1445,NYANZA,RACHUONYO,EAST KARACHUONYO,NORTH EAST KARACHUON,KONYANGO MAJIERI,1,MOH,-0.36046,34.6335
9,KEHANCHA DISTRICT HOSPITAL,1444,NYANZA,KURIA,KEGONGA,MAETA,NYAITARA,1,MOH,-1.1765,34.6338
9,EBUSIRATSI HEALTH CENTRE,2308,WESTERN,VIHIGA,EMUHAYA,NORTH BUNYORE,EBUSIRATSI,3,MOH,0.079485,34.634512
14,ESHINUTSA DISP,0,WESTERN,BUTERE/MUMIAS,KHWISERO,EAST KISA,EMASATSI,4,MOH,0.15045,34.634582
0,SACHO DISP,0,WESTERN,MOUNT ELGON,KAPSOKWONY,KAMUNERU,SACHO,4,MOH,0.804985,34.634813
28,OLANDO DISP,1174,NYANZA,RACHUONYO,EAST KARACHUONYO,KANYALUO SOUTH,KAMENYA CENTRAL,4,MOH,-0.46574,34.635
27,KHARANDA DISP,3830,WESTERN,KAKAMEGA,NAVAKHOLO,BUNYALA WEST,SIDIKHO,4,MOH,0.441685,34.636808
22,NYATIKE DISP,3381,NYANZA,GUCHA,NYAMARAMBE,S. MUGIRANGO CHACHE,BOMONYARA,4,MOH,-0.74203,34.63857
0,KAMUNERU DISP,4662,WESTERN,MOUNT ELGON,KAPSOKWONY,KAMUNERU,KAMUNERU,4,MOH,0.82842,34.640021
8,KEGONGA HEALTH CENTRE,1476,NYANZA,KURIA,KEGONGA,NYABASI EAST,KEGONGA,3,MOH,-1.24622,34.6495
18,ESHIKHUYU DISP,0,WESTERN,KAKAMEGA,LURAMBI,BUTSOTSO SOUTH,ESHIBULI,4,MOH,0.264745,34.655744
4,GETONGOROMA DISP,3828,NYANZA,KURIA,KEGONGA,NGURUNA,GETONGOROMA,4,MOH,-1.29771,34.6558
79,MUSITINYI DISP,4640,WESTERN,VIHIGA,EMUHAYA,EAST BUNYORE,EBUBAYI,4,MOH,0.056713,34.656238
27,OGEN DISP,3774,NYANZA,KISUMU,WINAM,S.W KISUMU,OJOLLA,4,MOH,-0.079079,34.656448
38,MECHIMERU HC,2232,WESTERN,BUNGOMA,KANDUYI,E.BUKUSU,E. SANGALO,3,MOH,0.502077,34.6584
4,ETAGO DISP,1232,NYANZA,GUCHA,ETAGO,GETENGA,NYARAMBAGUCHA,4,MOH,-0.902367,34.6593
23,LIKINDU DISP,4004,WESTERN,VIHIGA,VIHIGA,MUNGOMA,VIGULU,4,MOH,0.017027,34.659398
2,BOKOLI HEALTH CENTRE,2222,WESTERN,BUNGOMA,WEBUYE,BOKOLI,BOKOLI,3,MOH,0.721372,34.663
51,SITUKHO DISP,0,WESTERN,BUNGOMA,WEBUYE,SITIKHO,SITIKHO,4,MOH,0.474377,34.663
30,RIANA HEALTH CENTRE,1262,NYANZA,KISII CENTRAL,SUNEKA,RIANA,NYAMWARI,3,MOH,-0.6556,34.6631
13,ESIARAMBATSI H C,2311,WESTERN,VIHIGA,EMUHAYA,N.E BUNYORE,EBUSILOLI,3,MOH,0.080783,34.667144
1,BOIGE DISP,4490,NYANZA,GUCHA,NYAMARAMBE,NYAKEMBENE,NYAKORERE,4,MOH,-0.83089,34.66809
25,NYANZA PROVINCIAL GENERAL HOSP,1328,NYANZA,KISUMU,WINAM,S.W KISUMU,OJOLLA,2,MOH,-0.0919,34.6732
13,KUGITIMO DISP,4591,NYANZA,KURIA,KEGONGA,NYABASI NORTH,KUGITIMO,4,MOH,-1.23217,34.678717
7,IYABE SUB HEALTH CENTRE,1236,NYANZA,KISII CENTRAL,SUNEKA,IYABE,BOMOKORA,3,MOH,-0.691033,34.6799
81,NANDAYA DISP,4642,WESTERN,VIHIGA,SABATIA,CHAVAKALI,VIYALO,4,MOH,0.1,34.68
28,KILINGILI HEALTH CENTRE,2319,WESTERN,KAKAMEGA,IKOLOMANI,SHIKUMU,KALUNI,3,MOH,0.142198,34.681513
39,NAVAKHOLO HEALTH CENTRE,2330,WESTERN,KAKAMEGA,NAVAKHOLO,NAMBACHA,NAMBACHA,3,MOH,0.413859,34.68262
13,MISESI DISP,3770,NYANZA,GUCHA,OGEMBO,MAJOGE CHACHE,MISESI,4,MOH,-0.74101,34.68447
16,NTIMARU HEALTH CENTRE,1409,NYANZA,KURIA,NTIMARU,BWIREGE WEST,NTIMARU,3,MOH,-1.34212,34.686
28,KONGOLI DISP,0,WESTERN,BUNGOMA,WEBUYE,SITIKHO,KHALUMULI,4,MOH,0.557478,34.6896
25,NYANGIELA DISP,4497,NYANZA,RACHUONYO,KASIPUL,KONUONGA,KOTIENO-KONUONGA,4,MOH,-0.550179,34.6906
53,SIVILIE DISP,2298,WESTERN,KAKAMEGA,NAVAKHOLO,BUNYALA EAST,SIVILIE,4,MOH,0.469585,34.696675
23,NYAMAGUNDO DISP,3008,NYANZA,KISII CENTRAL,SUNEKA,BOMARIBA,BOROKO,4,MOH,-0.6367,34.7013
12,ENZARO HEALTH CENTRE,3264,WESTERN,VIHIGA,VIHIGA,SOUTH MARAGOLI,IDELERI,3,MOH,0.001352,34.702388
49,SHISESO HEALTH CENTRE,2337,WESTERN,KAKAMEGA,IKOLOMANI,SHISERE,SHISESO,3,MOH,0.231314,34.703531
39,MILO DISP,3831,WESTERN,BUNGOMA,WEBUYE,WEBUYE,MATULO,4,MOH,0.605954,34.7046
16,MASONGO DISP,4804,NYANZA,KISII CENTRAL,SUNEKA,BOMORENDA,BOMAKOMBI,4,MOH,-0.714917,34.7091
44,KODIAGA GK PRISON HEALTH CENTRE,0,NYANZA,KISUMU,WINAM,CENTRAL KISUMU,KORANDO A,9,MOH,-0.058556,34.7095
20,KEGONDI HEALTH CENTRE,4476,WESTERN,VIHIGA,SABATIA,WEST MARAGOLI,HAMUYUNDI,3,MOH,0.13,34.71
5,GWITEMBE DISP,4284,NYANZA,KURIA,NTIMARU,BWIREGE EAST,GWITEMBE,4,MOH,-1.371042,34.710446
29,RANGANGA  DISP,1250,NYANZA,KISII CENTRAL,MOSOCHO,ETORA,RAGANGA,4,MOH,-0.598785,34.7119
23,KIMILILI SUB-DISTRICT HOSPITAL,2230,WESTERN,BUNGOMA,KIMILILI,KIMILILI,TOWNSHIPKIMILILI,1,MOH,0.788988,34.712779
38,VIHIGA HEALTH CENTRE,2341,WESTERN,VIHIGA,VIHIGA,CENTRAL MARAGOLI,EMANDA,3,MOH,0.038865,34.714689
23,NYAHERA HC,1322,NYANZA,KISUMU,WINAM,NORTH KISUMU,NYAHERA,3,MOH,-0.031469,34.714786
6,KAPSOKWONY DISTRICT HOSP,2227,WESTERN,MOUNT ELGON,KAPSOKWONY,KAPSOKWONY,BUGAA,1,MOH,0.846079,34.7148
32,RIOTANCHI HEALTH CENTRE,3017,NYANZA,KISII CENTRAL,SUNEKA,BOMORENDA,BONYAORO,3,MOH,-0.70485,34.7163
17,KOSELE DISP,4599,NYANZA,RACHUONYO,EAST KARACHUONYO,RAMBIRA,KARABONDI,4,MOH,-0.379317,34.717615
17,MATONGO DISP,4805,NYANZA,KISII CENTRAL,SUNEKA,BOMARIBA,BOROKO,4,MOH,-0.6285,34.7202
3,EBEREGE DISP,0,NYANZA,GUCHA,KENYENYA,MAGENCHE,MOKUBO,4,MOH,-0.9121,34.72132
27,MBALE RHTC,2359,WESTERN,VIHIGA,VIHIGA,WAMULUMA,MBIHI,3,MOH,0.080026,34.722102
43,SHIBWE HEALTH CENTRE,2310,WESTERN,KAKAMEGA,IKOLOMANI,SHIRUMBA,SHIVAGALA,3,MOH,0.205768,34.723052
10,MAGENCHE DISP,1242,NYANZA,GUCHA,KENYENYA,MAGENCHE,MAGENCHE,4,MOH,-0.94649,34.72318
41,SAVANE DISP,4219,WESTERN,KAKAMEGA,IKOLOMANI,SHIRUMBA,SHITOLI,4,MOH,0.17,34.723815
23,OGEMBO DISTRICT HOSPITAL,1261,NYANZA,GUCHA,OGEMBO,MAJOGE CHACHE,NYANSAKIA,1,MOH,-0.793983,34.725517
35,TIGOI HEALTH CENTRE,2339,WESTERN,VIHIGA,TIRIKI WEST,JEPKOYAI,TIGOI,3,MOH,0.005912,34.725541
33,MUKHONJE H C,0,WESTERN,KAKAMEGA,SHINYALU,ILESI,MUKHONJE,3,MOH,0.250844,34.7271
6,KENYENYA HC,1238,NYANZA,GUCHA,KENYENYA,MAJOGE MASABA,KENYENYA,3,MOH,-0.886333,34.7289
7,BUSHIRI RHDC,2357,WESTERN,KAKAMEGA,LURAMBI,BUTSOTSO NORTH,INGOTSE,3,MOH,0.366132,34.729199
33,OYUGIS DISTRICT HOSPITAL,1457,NYANZA,RACHUONYO,KASIPUL,WEST KAMAGAK,KAMUMA,1,MOH,-0.4921,34.7295
37,VIHIGA DISTRICT HOSPITAL,1697,WESTERN,VIHIGA,VIHIGA,WAMULUMA,KEGOYE,1,MOH,0.08365,34.72989
7,ENOOSAEN HEALTH CENTRE,3226,RIFT VALLEY,TRANS MARA,KEIYAN,ENOSAEN,MAPASHI,3,MOH,-0.997755,34.7358
13,EGUHU HC,0,WESTERN,KAKAMEGA,IKOLOMANI,IGUHU,MAKHOKHO,3,MOH,0.168335,34.7433
20,IGUHU HEALTH CENTRE,2315,WESTERN,KAKAMEGA,IKOLOMANI,IGUHU,MAKHOKHO,3,MOH,0.163363,34.74599
24,NYALENDA SUB-HEALTH CENTRE,3566,NYANZA,KISUMU,WINAM,WEST KOLWA,NYALENDA 'B',3,MOH,-0.136876,34.7475
21,NYANSAKIA DISP,3571,NYANZA,GUCHA,SAMETA,BASSI CHACHE,BOGETAORIO,4,MOH,-0.75958,34.74936
5,CHEPCHOINA DISP,1840,RIFT VALLEY,TRANS-NZOIA,ENDEBESS,CHEPCHOINA,KAPTEGA,4,MOH,1.21123,34.7512
11,CHOMBELI DISP.,3662,WESTERN,KAKAMEGA,KABRAS,SHIRUGU,SAMITSI,4,MOH,0.456206,34.751505
41,SHANKOE DISP,0,RIFT VALLEY,TRANS MARA,KILGORIS,SHANKOE,OLEREKO,4,MOH,-0.958372,34.7549
23,KAPSENGER DISP,4418,RIFT VALLEY,NANDI,ALDAI,TERIK,KAPSENGERENANDI,4,MOH,-0.01034,34.757311
38,VICTORIA HOSPITAL,1331,NYANZA,KISUMU,WINAM,WEST KOLWA,NYALENDA 'B',1,MOH,-0.117106,34.7576
59,WEBUYE DISTRICT HOSPITAL,2240,WESTERN,BUNGOMA,WEBUYE,WEBUYE,MARAKA,1,MOH,0.5971,34.7585
25,KAKAMEGA PROVINCIAL GENERAL,2344,WESTERN,KAKAMEGA,MUNICIPALITY,BUKHUNGU,SHIRERE,2,MOH,0.27498,34.758806
37,SINO DISP,1430,NYANZA,RACHUONYO,KASIPUL,EAST KAMAGAK,SINO KAGOLA,4,MOH,-0.43757,34.7592
14,KISUMU DISTRICT HOSPITAL,1330,NYANZA,KISUMU,WINAM,TOWNSHIP,SOUTHERN,1,MOH,-0.105021,34.7606
1,ANGATA BARRIKOI  HC,1794,RIFT VALLEY,TRANS MARA,LOLGORIAN,ANGATA,ANGATA,3,MOH,-1.3724,34.7608
60,APPROVED SCHOOL DISP,2268,WESTERN,KAKAMEGA,MUNICIPALITY,BUKHUNGU,MAHIAKALO,9,MOH,0.292924,34.76145
33,SIEKA DISP,1253,NYANZA,KISII CENTRAL,MARANI,MWAKIBAGENDI,ONYWERE,4,MOH,-0.570317,34.7628
0,KABOYWO DISP,4661,WESTERN,MOUNT ELGON,KAPTAMA,CHEMOGE,CHEMOGE,4,MOH,0.844912,34.762855
60,WEBUYE HEALTH CENTRE,2475,WESTERN,BUNGOMA,WEBUYE,WEBUYE,TOWNSHIPWEBUYE,3,MOH,0.603646,34.7669
4,BUGINA HEALTH CENTRE,0,WESTERN,VIHIGA,SABATIA,BUSALI WEST,BUGINA,3,MOH,0.148995,34.76777
48,SHIKENDU DISP,0,WESTERN,BUNGOMA,KIMILILI,MAENI,SIKHENDI,4,MOH,0.765231,34.7681
19,MIRIU H C,1452,NYANZA,RACHUONYO,EAST KARACHUONYO,WANG'CHIENG,KOBALA,3,MOH,-0.33976,34.7682
14,KOBUYA DISP,4504,NYANZA,RACHUONYO,EAST KARACHUONYO,KOBUYA,KOBUYA WEST,4,MOH,-0.37,34.77
12,KISII DISTRICT HOSPITAL,1265,NYANZA,KISII CENTRAL,TOWNSHIP,TOWNSHIP,TOWNSHIPKISII,1,MOH,-0.66815,34.7704
16,KAIBEI DISP,4413,RIFT VALLEY,TRANS-NZOIA,ENDEBESS,KAIBEI,MUBERE,4,MOH,1.11423,34.7721
8,KIONYO DISP,3570,NYANZA,GUCHA,NYAMACHE,BASSI MASIGE EAST,TURWA,4,MOH,-0.814067,34.7763
1,ERAMBA DISP,3767,NYANZA,KISII CENTRAL,MARANI,MWAGICHANA,KIOMONCHA,4,MOH,-0.546833,34.7801
15,GIVUDIMBULI HEALTH CENTRE,2313,WESTERN,VIHIGA,SABATIA,WODANGA,MAMBAI,3,MOH,0.088137,34.780698
11,KIOGORO SUB-HEALTH CENTRE,1240,NYANZA,KISII CENTRAL,KEUMBU,KIOGORO,BORONYI,3,MOH,-0.718833,34.7811
46,KENYERERE  DISP,4762,NYANZA,GUCHA,SAMETA,MOKWERERO,KENYERERE,4,MOH,-0.782267,34.7811
5,IRANDA SUB- HEALTH CENTRE,1235,NYANZA,KISII CENTRAL,MOSOCHO,NYAKOE,IRANDA,3,MOH,-0.62433,34.7812
34,MAKHONGE DISP,3557,WESTERN,BUNGOMA,KIMILILI,KAMUKUYWA,MAKHONGE,4,MOH,0.832174,34.7865
31,SABATIA HEALTH CENTRE,2331,WESTERN,VIHIGA,SABATIA,WODANGA,VOKOLI,3,MOH,0.120764,34.787248
44,SHIHOME DISP,3279,WESTERN,KAKAMEGA,KABRAS,KABRAS SOUTH,SHIANDAKK,4,MOH,0.391383,34.792092
9,MAGENA DISP,1241,NYANZA,GUCHA,KENYENYA,MAJOGE BORABU,KIANGO,4,MOH,-0.90464,34.7966
13,MARANI HEALTH CENTRE,1270,NYANZA,KISII CENTRAL,MARANI,MWAGICHANA,IGEMO,3,MOH,-0.575467,34.7982
31,NKARARO HEALTH CENTRE,4286,RIFT VALLEY,TRANS MARA,KEIYAN,NKARARO,NKARARO,3,MOH,-1.10106,34.7988
47,SHIKUSI DISP,4647,WESTERN,KAKAMEGA,SHINYALU,KHAYEGA,LUGOSE,4,MOH,0.203714,34.79913
39,MT. ELGON DISP,1854,RIFT VALLEY,TRANS-NZOIA,ENDEBESS,ENDEBESS,CHORLIM,4,MOH,1.0522,34.8011
17,HAMISI HEALTH CENTRE,2314,WESTERN,VIHIGA,TIRIKI WEST,GISAMBAI,GAVUDUNYI,3,MOH,0.073514,34.802064
15,KOKWONYO DISP,4501,NYANZA,RACHUONYO,KASIPUL,KOKWANYO,KOKWANYO EAST,4,MOH,-0.424202,34.804778
24,LOLGORIEN  SUB DISTRICT HOSPITAL,1829,RIFT VALLEY,TRANS MARA,LOLGORIAN,MOYOI,LOLGORIAN,1,MOH,-1.22817,34.8062
21,NYAGUTA DISP,4491,NYANZA,KISII CENTRAL,KEUMBU,KIOGORO,NYAGUTA,4,MOH,-0.7401,34.8068
22,NYAKWANA DISP,3297,NYANZA,KISII CENTRAL,KEUMBU,KIOGORO,MATUMWA,4,MOH,-0.75678,34.807
8,MATETE H C,2326,WESTERN,LUGARI/MALAVA,MATETE,CHEVAYWA,KIVAYWA,3,MOH,0.566488,34.807431
9,GOT NYABONDO DISP,4492,NYANZA,KISUMU,WINAM,EAST KAJULU,GOT NYABONDO,4,MOH,0.009604,34.810577
46,SHIKUSA PRISON HEALTH CENTRE,2295,WESTERN,KAKAMEGA,ILEHO,KAMBIRI,LUBAO,3,MOH,0.318571,34.812412
12,GITWAMBA DISP,3496,RIFT VALLEY,TRANS-NZOIA,SABOTI,SABOTI,SABOTI,4,MOH,0.94214,34.8212
36,MALOMONY DISP,0,WESTERN,BUNGOMA,NDIVISI,LUKUSI,LUTACHO,4,MOH,0.69598,34.8223
32,LUKUSI DISP,0,WESTERN,BUNGOMA,NDIVISI,LUKUSI,MISIMO,4,MOH,0.655584,34.8223
7,GOT BER DISP,4503,NYANZA,RACHUONYO,KABONDO,RAMBA,KODUMO WEST,4,MOH,-0.419823,34.823568
25,KAPTUMEK DISP,2062,RIFT VALLEY,NANDI,ALDAI,MARABA,KAPTUMEK,4,MOH,-0.01964,34.8252
42,SHAMAKHUBU HEALTH CENTRE,2335,WESTERN,KAKAMEGA,SHINYALU,SHIBUYE,VIRHEMBE,3,MOH,0.26468,34.827883
19,NYAMACHE HEALTH CENTRE,1259,NYANZA,GUCHA,NYAMACHE,BASSI CENTRAL,NYOERA,3,MOH,-0.85352,34.82805
5,GESABAKWA DISP,3768,NYANZA,GUCHA,NYACHEKI,BASSI BOGETAORIO,NYANGUSO,4,MOH,-0.89926,34.82809
2,BANJA HEALTH CENTRE,2303,WESTERN,VIHIGA,TIRIKI WEST,BANJA,GASIANGA,3,MOH,0.044384,34.8298
33,SHAMAKHOKHO DISP,2334,WESTERN,VIHIGA,TIRIKI EAST,SHAMAKHOKO,JIVOLOLI,4,MOH,0.11385,34.83064
27,OBER DISP,1419,NYANZA,RACHUONYO,KASIPUL,KOJWACH,KOJWACH KAMIORO,4,MOH,-0.47143,34.8352
26,MAGOMBO SUB-HEALTH CENTRE,1493,NYANZA,KISII NORTH,MANGA,KEMERA,KEMERA,3,MOH,-0.66654,34.8361
17,KARIMA DISP,2216,WESTERN,BUNGOMA,TONGAREN,MBAKALO,MBAKALO,4,MOH,0.736377,34.8396
2,ANDIGO OPANGA DISP,1272,NYANZA,NYANDO,UPPER NYAKACH,THURDIBUORO,ANDING'O OPANGA,4,MOH,-0.362403,34.8405
8,KEGOGI DISP,1237,NYANZA,KISII CENTRAL,MARANI,KEGOGI,NGOKORO,4,MOH,-0.54225,34.841
46,LOKIAMA DISP,0,RIFT VALLEY,TURKANA,LOIMA,LOKIRIAMA,LOKIRIAMA,4,MOH,2.73124,34.84123
50,SHIVANGA DISP,4227,WESTERN,KAKAMEGA,KABRAS,SHIVANGA,SHIVANGA,4,MOH,0.532177,34.846428
9,KEUMBU SUB DISTRICT HOSPITAL,1257,NYANZA,KISII CENTRAL,KEUMBU,KEUMBU,NYAMWARE,1,MOH,-0.731217,34.8467
4,IBENO HEALTH CENTRE,1254,NYANZA,KISII CENTRAL,KEUMBU,IBENO,KABOSI,3,MOH,-0.77724,34.85208
15,WEONIA DISP,0,RIFT VALLEY,TRANS-NZOIA,KIMININI,KIMININI,NABISWA,4,MOH,0.88412,34.8521
14,KERINKANI DISP,0,RIFT VALLEY,TRANS MARA,LOLGORIAN,OLORIEN,KERINKANNE,4,MOH,-1.33878,34.8527
32,SEREM HEALTH CENTRE,2333,WESTERN,VIHIGA,TIRIKI EAST,SHAMAKHOKO,SEREM,3,MOH,0.080128,34.852747
48,SABOTI HEALTH CENTRE,1858,RIFT VALLEY,TRANS-NZOIA,SABOTI,SABOTI,SABOTI,3,MOH,0.976288,34.8531
32,MALAVA H C,2324,WESTERN,KAKAMEGA,KABRAS,KABRAS EAST,MUSINGU,3,MOH,0.448675,34.853944
15,KUSA HEALTH CENTRE,1293,NYANZA,NYANDO,UPPER NYAKACH,THURDIBUORO,WEST KOGUTA,3,MOH,-0.331291,34.854
10,ENDEBESS H C,1841,RIFT VALLEY,TRANS-NZOIA,ENDEBESS,ENDEBESS,ENDEBESS,3,MOH,1.07188,34.8543
35,TARACHA DISP,4801,NYANZA,KISII CENTRAL,KEUMBU,KEUMBU,TARACHA,4,MOH,-0.756467,34.8565
53,SEREM DISP NANDI,2079,RIFT VALLEY,NANDI,ALDAI,MUGEN,TIBINGOT,4,MOH,0.064964,34.8589
6,ISECHA DISP,1486,NYANZA,KISII CENTRAL,MARANI,NGENYI,GESANGERO,4,MOH,-0.571717,34.8628
48,TOMBE DISP,1500,NYANZA,KISII NORTH,MANGA,CENTRAL KITUTU,KIOGUTWA,4,MOH,-0.65114,34.8656
24,KAKAMEGA FOREST DISP,2280,WESTERN,KAKAMEGA,SHINYALU,SHIBUYE,VIRHEMBE,4,MOH,0.235798,34.867553
10,HONGO NGOSA DISP,3567,NYANZA,KISUMU,KADIBO,BWANDA,LOWER BWANDA,4,MOH,-0.250225,34.868784
29,MANGA HEALTH CENTRE,1505,NYANZA,KISII NORTH,MANGA,CENTRAL KITUTU,NYAKONGONYAMIRA,3,MOH,-0.63574,34.8729
29,KEMELOI H C,2091,RIFT VALLEY,NANDI,ALDAI,MUGEN,KAPKEMICH,3,MOH,0.06013,34.8735
42,OGANGO DISP,900,NYANZA,KISII NORTH,NYAMIRA,KEERA,CHARACHANI,4,MOH,-0.53398,34.8736
17,NYACHEKI HEALTH CENTRE,1246,NYANZA,GUCHA,NYACHEKI,BASSI BORABU,ISENA,3,MOH,-0.89071,34.8772
10,KABONDO H C,1394,NYANZA,RACHUONYO,KABONDO,RAMULA,UPPER KODHOCH,3,MOH,-0.40823,34.8781
38,NAMAGARA DISP,3661,WESTERN,KAKAMEGA,KABRAS,SHIVANGA,FUVUYE,4,MOH,0.504234,34.878518
16,KILGORIS DIST HOSP/TRANSMARA DIST HOSP,1828,RIFT VALLEY,TRANS MARA,KILGORIS,OLOLCHANI,KILGORIS,1,MOH,-1.00212,34.8789
51,LOKIRIAM DISP,3999,RIFT VALLEY,TURKANA,LOIMA,LOKIRIAMA,LOKIRIAMA,4,MOH,2.79123,34.88124
56,LOKUDULEE DISP,2153,RIFT VALLEY,TURKANA,KAKUMA,PELEKECH,NAMON,4,MOH,3.95486,34.8816
10,KIAMOKOMA DISP,1239,NYANZA,KISII CENTRAL,MASABA,NYARIBARI CENTRAL,CHIRONGE,4,MOH,-0.828667,34.8826
33,SANGOROTA DISP,1310,NYANZA,NYANDO,UPPER NYAKACH,THURDIBUORO,UPPER KADIANG'A,4,MOH,-0.344224,34.888952
9,ETONO DISP,1480,NYANZA,KISII NORTH,NYAMIRA,KEERA,TIMI,4,MOH,-0.55875,34.8897
45,NAITIRI HEALTH CENTRE,2233,WESTERN,BUNGOMA,TONGAREN,NAITIRI,MILIMA,3,MOH,0.756302,34.890797
40,NYANGENA DISP,1497,NYANZA,KISII NORTH,NYAMIRA,KEERA,TIMI,4,MOH,-0.57549,34.891
47,TINGA SUB-HEALTH CENTRE,1511,NYANZA,KISII NORTH,NYAMIRA,BOSAMARO CHACHE,IKOBE,3,MOH,-0.60026,34.893
0,OSUPUKO DISP,0,RIFT VALLEY,TRANS MARA,KILGORIS,OSUPUKO,OSUPUKO,4,MOH,-0.939,34.893
13,CHEPSAITA DISP PROPOSED,4875,RIFT VALLEY,UASIN GISHU,TURBO,NGENYILEL,CHEPSAITA,4,MOH,0.571652,34.8947
26,NYASORE DISP,4502,NYANZA,RACHUONYO,KABONDO,KOWOUR,KOWIDI,4,MOH,-0.434471,34.895159
12,GETARE DISP,1482,NYANZA,KISII NORTH,NYAMIRA,KEERA,NYAMERU,4,MOH,-0.55072,34.899
45,MARABA DISP,2073,RIFT VALLEY,NANDI,ALDAI,MARABA,TIRIKWO,4,MOH,0.00738,34.8999
7,BUNDE DISPENSARY,1277,NYANZA,NYANDO,NYANDO,KAKOLA,KAKOLA-AHERO,4,MOH,-0.20166,34.9037
23,NYAMARIMBA DISP,1299,NYANZA,NYANDO,UPPER NYAKACH,S. W NYAKACH,WEST KADIANG'A,4,MOH,-0.36828,34.9046
0,IBACHO HEALTH CENTRE,0,NYANZA,KISII CENTRAL,MASABA,NYARIBARI CENTRAL,IBACHO,3,MOH,-0.805683,34.9046
1,CHEKALINI DISP,4208,WESTERN,LUGARI/MALAVA,LUGARI,CHEKALINI,MUSEMBE,4,MOH,0.618574,34.904817
5,LUGARI FOREST DISP,2281,WESTERN,LUGARI/MALAVA,LUGARI,LUGARI,LUGARI,4,MOH,0.663278,34.906928
35,NYAMAIYA SUB-HEALTH CENTRE,1507,NYANZA,KISII NORTH,NYAMIRA,W. MUGIRANGO,BOKIAMBORI,3,MOH,-0.48712,34.9084
14,IGENA-ITAMBE DISP,1485,NYANZA,KISII NORTH,NYAMIRA,BOSAMARO CHACHE,BIGEGENYAMIRA,4,MOH,-0.62972,34.9084
3,GESUSU SUB DISTRICT HOSPITAL,3769,NYANZA,KISII CENTRAL,MASABA,NYARIBARI MASABA,GESUSU,1,MOH,-0.8712,34.9087
26,KAMBIRI H C,3278,WESTERN,KAKAMEGA,ILEHO,KAMBIRI,BULOVI,3,MOH,0.374147,34.911005
34,SHIRU DISP,1698,WESTERN,VIHIGA,TIRIKI EAST,SHAVIRINGA,SHIRU,4,MOH,0.161669,34.911632
22,KANYARKWAT DISP,2184,RIFT VALLEY,WEST POKOT,KONGELAI,KANYARKWAT,ADURKOIT,4,MOH,1.31746,34.9172
18,KAPKOI DISP,3865,RIFT VALLEY,TRANS-NZOIA,KWANZA,KAPOMBOI,KAPKOITNZOIA,4,MOH,1.22635,34.918
20,KEROKA HEALTH CENTRE,1256,NYANZA,KISII NORTH,RIGOMA,EAST KITUTU,NYANKOBA,3,MOH,-0.7509,34.9191
6,BONDE DISP,1276,NYANZA,NYANDO,LOWER NYAKACH,NYALUNYA,N. KABODHO,4,MOH,-0.314807,34.919277
39,KIBOS PRISON DISP,1287,NYANZA,NYANDO,MIWANI,OMBEYI,AHERO IRRIG. SCHEME,9,MOH,-0.161658,34.9197
19,ESHSHURU DISP,4467,WESTERN,KAKAMEGA,SHINYALU,MURHANDA,KAKAMEGA FOREST,4,MOH,0.27,34.92
29,NGANAIYO DISP,0,RIFT VALLEY,TRANS MARA,KILGORIS,OLOMISMIS,OLOMISMIS,4,MOH,-1.039574,34.920893
33,KWANZA HEALTH CENTRE,1866,RIFT VALLEY,TRANS-NZOIA,KWANZA,KAPOMBOI,KAPOMBOI,3,MOH,1.15508,34.9209
1,AHERO HOSPITAL,1316,NYANZA,NYANDO,NYANDO,KAKOLA,TURANYANDO,1,MOH,-0.165363,34.9234
30,KOBOS DISP,3866,RIFT VALLEY,TRANS-NZOIA,KWANZA,KAPOMBOI,KOBOS,4,MOH,1.099,34.9263
28,OBOCH DISP,1302,NYANZA,NYANDO,UPPER NYAKACH,OBOCH,KAJIMBO,4,MOH,-0.380376,34.9297
30,PAP ONDITI HOSP,1324,NYANZA,NYANDO,LOWER NYAKACH,PAP ONDITI,KABODHO EAST,1,MOH,-0.313172,34.9355
39,KOBUJOI FOREST DISP,2069,RIFT VALLEY,NANDI,ALDAI,CHEBILAT,KIPTARUSWO,4,MOH,0.06592,34.9359
15,MASIMBA HEALTH CENTRE,1258,NYANZA,KISII CENTRAL,MASABA,NYARIBARI MASABA,KEREMA,3,MOH,-0.858733,34.9404
37,NYAMIRA DISTRICT HOSPITAL,1512,NYANZA,KISII NORTH,RIGOMA,GESIMA,NYATIENO,1,MOH,-0.67554,34.9414
0,MUNYUKI DISP,0,WESTERN,LUGARI/MALAVA,LUGARI,LUMAKANDA,MUNYUKI,4,MOH,0.637446,34.942563
29,KUVASALI DISP,778,WESTERN,KAKAMEGA,KABRAS,KABRAS EAST,CHIMUCHE,4,MOH,0.421058,34.943218
50,NAUYAPONG DISP,2197,RIFT VALLEY,WEST POKOT,ALALE,LOKITANYALA,LOKITANYALA,4,MOH,2.44558,34.9433
36,NYAMAKOROTO DISP,4483,NYANZA,KISII NORTH,RIGOMA,MOCHENWA,NYAMAKOROTO,4,MOH,-0.697179,34.945104
8,ESANI SUB-HEALTH CENTRE,1503,NYANZA,KISII NORTH,RIGOMA,MOCHENWA,KARANTINI,3,MOH,-0.70872,34.9466
30,KIBWARENG DISP,0,RIFT VALLEY,NANDI,ALDAI,KIBWARENG,KIBWARENG,4,MOH,0.010753,34.9498
2,CHEPKUMIA DISP,0,RIFT VALLEY,NANDI,KAPSABET,CHEPKUMA,CHEBOITE,4,MOH,0.11292,34.9535
25,NYAMASIBI DISP,3010,NYANZA,KISII CENTRAL,MASABA,NYARIBARI MASABA,NYAMASIBI,4,MOH,-0.8213,34.9552
32,OTHORO H C,1370,NYANZA,RACHUONYO,KABONDO,WANG'CHIENG,KAKANGUTU EAST,3,MOH,-0.429427,34.9579
25,MEGUARA DISP-ROMOSHA,0,RIFT VALLEY,TRANS MARA,PIRRAR,MEGWARA,ROMOSHA,4,MOH,-0.914285,34.958038
62,LOPUR DISP,2148,RIFT VALLEY,TURKANA,KAKUMA,PELEKECH,NAMON,4,MOH,3.78752,34.9586
58,TONGARENI DISP,2236,WESTERN,BUNGOMA,TONGAREN,TONGAREN,TONGAREN,4,MOH,0.788315,34.9608
3,BOSIANGO DISP,1478,NYANZA,KISII NORTH,NYAMIRA,BOSAMARO MASABA,KEGOGI,4,MOH,-0.65449,34.9633
104,KAPSITWET DISP,4438,RIFT VALLEY,TRANS-NZOIA,KWANZA,KWANZA,KAPSITWET,4,MOH,1.080684,34.96343
10,KATITO HEALTH CENTRE,1285,NYANZA,NYANDO,LOWER NYAKACH,N.E NYAKACH,AGORO WEST,3,MOH,-0.263883,34.9649
6,CHEPTERWAI DISP,2051,RIFT VALLEY,NANDI,KIPKAREN,KAPKOIMUR,KAPKOIMUR,4,MOH,0.52203,34.9656
34,SIGOTI HEALTH CENTRE,1325,NYANZA,NYANDO,UPPER NYAKACH,SIGOTI,RAMOGI,3,MOH,-0.345272,34.969642
5,EKERENYO HEALTH CENTRE,1502,NYANZA,KISII NORTH,EKERENYO,EKERENYO,BOISANGA 1,3,MOH,-0.52795,34.9707
39,NYAMUSI HEALTH CENTRE,884,NYANZA,KISII NORTH,EKERENYO,N. MUG. CHACHE,NYAKERIMO I & II,3,MOH,-0.44761,34.9727
28,RAMASHA DISP,1251,NYANZA,KISII CENTRAL,MASABA,NYARIBARI IKORONGO,METEMBEMASABA,4,MOH,-0.893483,34.9731
31,MOCHENWA DISP,4367,NYANZA,KISII NORTH,BORABU,NYASIONGO,NYANSIONGO/GESIMA,4,MOH,-0.79843,34.9747
52,NGENYILEL DISP,4866,RIFT VALLEY,UASIN GISHU,TURBO,NGENYILEL,OSORONGAI,4,MOH,0.564368,34.9748
6,LUMAKANDA DISTRICT HOSPITAL,2321,WESTERN,LUGARI/MALAVA,LUGARI,LUMAKANDA,MUNYUKI,1,MOH,0.634782,34.97615
27,MAGWAGWA DISP,1494,NYANZA,KISII NORTH,EKERENYO,N. MUG. CHACHE,EGETONTO,4,MOH,-0.46251,34.9777
38,KIPSAMOITE DISP,2093,RIFT VALLEY,NANDI,KABIYET,SANGALO,KIPSAMOITE,4,MOH,0.32675,34.9779
9,MAUTUMA HEALTH CENTRE,2328,WESTERN,LUGARI/MALAVA,LUGARI,MAUTUMA,MBAGARA,3,MOH,0.724824,34.981686
0,NYAKONGO HEALTH CENTRE,0,NYANZA,NYANDO,NYANDO,WAWIDHI,NYAKONGONYANDO,3,MOH,-0.161584,34.985492
34,SOSERA DISP,4803,NYANZA,KISII CENTRAL,MASABA,NYARIBARI IKORONGO,SOSERA,4,MOH,-0.85967,34.98721
20,KACHELIBA HEALTH CENTRE,2207,RIFT VALLEY,WEST POKOT,KACHELIBA,SUAM,NGENGECHWO,3,MOH,1.54569,34.9918
46,NDALU HEALTH CENTRE,2234,WESTERN,BUNGOMA,TONGAREN,NDALU,NDALU,3,MOH,0.843136,34.993038
53,TOP STATION DISP,2473,RIFT VALLEY,TRANS-NZOIA,CENTRAL,MUNICIPALITY,BONDENITNZOIA,4,MOH,1.03224,34.9941
17,ITIMBO DISP,3438,NYANZA,KISII NORTH,EKERENYO,EKERENYO,BOKURATI II,4,MOH,-0.560811,34.997297
11,GESIMA DISP,1481,NYANZA,KISII NORTH,RIGOMA,GESIMA,RIAMONI,4,MOH,-0.71608,34.9988
19,KAPKOLEI DISP,2058,RIFT VALLEY,NANDI,ALDAI,KAPKOLEI,KIMOLWO,4,MOH,0.01703,34.9996
4,CHEPNGOMBE HEALTH CENTRE,1501,NYANZA,KISII NORTH,BORABU,ESISE,MANGA/LIETIGO,3,MOH,-0.85534,35.0001
35,SONDU HEALTH CENTRE,1313,NYANZA,NYANDO,UPPER NYAKACH,SOUTH NYAKACH,EAST KADIANG'A,3,MOH,-0.380033,35.0012
16,KAPKANGANI H C,2057,RIFT VALLEY,NANDI,KAPSABET,KIPTUIYA,KIPTUIYA,3,MOH,0.20665,35.0062
17,MASOGO SUB-HEALTH CENTRE,1319,NYANZA,NYANDO,MIWANI,N.E KANO,KABAR EAST,3,MOH,-0.086547,35.0095
54,TULWET H C,0,RIFT VALLEY,TRANS-NZOIA,CENTRAL,WAITALUK,KAPKOI SISAL,4,MOH,0.92,35.01
1,CHEMASE H C,2086,RIFT VALLEY,NANDI,ALDAI,CHEMASE,KIBISIEM,3,MOH,-0.02479,35.0105
43,OMOSARIA DISP,3013,NYANZA,KISII NORTH,EKERENYO,N. MUG. CHACHE,MATONGONYAMIRA,4,MOH,-0.42753,35.0115
0,KABUTI-MATIRET DISP,0,RIFT VALLEY,KERICHO,SIGOWET,KAPLELARTET,TABAITA,4,MOH,-0.367254,35.012399
12,KIBOKO DISP,0,NYANZA,NYANDO,LOWER NYAKACH,N.E NYAKACH,AWACH,4,MOH,-0.286698,35.0126
35,KERINGETI DISP,2361,RIFT VALLEY,WEST POKOT,KAPENGURIA,KERINGET,CHEPTUYA,4,MOH,1.26321,35.0141
0,KAMAGEK,0,RIFT VALLEY,TRANS MARA,KIRINDONI,MURKAN,MOGONDO,4,MOH,-1.024171,35.015118
1,AMATIERIO DISP,1477,NYANZA,KISII NORTH,EKERENYO,EKERENYO,BOISANGA II,4,MOH,-0.58084,35.0169
28,KITALE DISTRICT HOSPITAL,1868,RIFT VALLEY,TRANS-NZOIA,CENTRAL,KIBOMET,BIDII,1,MOH,1.03732,35.0189
22,KIJAURI DISP,886,NYANZA,KISII NORTH,BORABU,NYASIONGO,NYANSIONGO/GESIMA,4,MOH,-0.77567,35.0216
61,SEREWO DISP,2200,RIFT VALLEY,WEST POKOT,KONGELAI,SEREWO,MTEMBUR,4,MOH,1.37801,35.0253
13,KINASIA DISP,1289,NYANZA,NYANDO,NYANDO,KIKOLO/E. KANO,KATOLO,4,MOH,-0.246469,35.027977
97,GOSETA DISP,0,RIFT VALLEY,TRANS-NZOIA,CENTRAL,KIBOMET,BIDII,4,MOH,1.04,35.03
32,MWONGORI DISP,1495,NYANZA,KISII NORTH,BORABU,MEKENENE,MATUTU,4,MOH,-0.7288,35.037
8,GELEGELE DISP,1582,RIFT VALLEY,BOMET,NDANAI,GELEGELE,GELEGELE,4,MOH,-0.872233,35.0385
41,KOMBE DISP,4312,RIFT VALLEY,NANDI,KAPSABET,KAPTEL,KOMBENANDI,4,MOH,0.24473,35.0404
74,TURBO RURAL HEALTH DEMONSTRATION CENTRE,1928,RIFT VALLEY,UASIN GISHU,TURBO,TAPSAGOI,TURBO,3,MOH,0.622182,35.0413
11,KIBIGORI DISP,1286,NYANZA,NYANDO,MUHORONI,CHEMELIL,KIBIGORI,4,MOH,-0.062695,35.0437
47,SIGOWET NYAYO HOSPITAL,1671,RIFT VALLEY,KERICHO,SIGOWET,KEBENETI,SIGOWET,1,MOH,-0.388777,35.0476
40,KONYAO DISP,2191,RIFT VALLEY,WEST POKOT,KACHELIBA,KAPCHOK,KONYAO,4,MOH,1.80374,35.0486
12,TURBO NYS DISP,2292,WESTERN,LUGARI/MALAVA,LIKUYANI,LIKUYANI,SEREGEYA,4,MOH,0.641938,35.049697
34,KIMONDI FOREST DISP,2065,RIFT VALLEY,NANDI,KAPSABET,KAPSABET,KAMOBO,4,MOH,0.18,35.05
6,CHEPTUIYET DISP,1578,RIFT VALLEY,KERICHO,SIGOWET,KEBENETI,CHEPTUIYETKERI,4,MOH,-0.478258,35.0509
3,CHEPKEMEL HEALTH CENTRE,1685,RIFT VALLEY,KERICHO,SIGOWET,KAPLELARTET,KAPLELARTET,3,MOH,-0.364316,35.0518
25,NYANGOMA HEALTH CENTRE,1301,NYANZA,NYANDO,MIWANI,NYANGOMA,WANGAYA I,3,MOH,-0.1384,35.0531
42,KOYO DISP,0,RIFT VALLEY,NANDI,KAPTUMO,KOYO,KOYO,4,MOH,0.036805,35.0542
17,KAPSOROK DISP,1599,RIFT VALLEY,KERICHO,SOIN,KAPSOROK,KAPSOROK,4,MOH,-0.295441,35.0543
38,KODICH DISP,2190,RIFT VALLEY,WEST POKOT,KACHELIBA,KODICH,KARAMERI,4,MOH,1.69102,35.0561
15,ISOGE DISP,1487,NYANZA,KISII NORTH,BORABU,NYASIONGO,ISOGE/KINENI,4,MOH,-0.78303,35.0584
11,TURBO FOREST DISP,2300,WESTERN,LUGARI/MALAVA,LIKUYANI,LIKUYANI,SEREGEYA,4,MOH,0.658582,35.060332
21,KAPSABET FOREST DISP,1882,RIFT VALLEY,NANDI,KAPSABET,KAPSABET,KAMOBO,4,MOH,0.19234,35.0608
0,ILIKERIN DISP,1801,RIFT VALLEY,TRANS MARA,KIRINDONI,MURKAN,OLKERIN,4,MOH,-1.049882,35.061875
24,KAPSISIYWA DISP,2060,RIFT VALLEY,NANDI,KAPSABET,KAPSISIYWA,TALAINANDI,4,MOH,0.312137,35.0656
20,KIRINDONI DISP,0,RIFT VALLEY,TRANS MARA,KIRINDONI,KIMINTET,KIRINDONI,4,MOH,-1.10379,35.066
0,KURONGURIK DISP,0,RIFT VALLEY,TRANS MARA,KIRINDONI,MURKAN,MOGONDO,4,MOH,-1.00781,35.066551
23,KAISAGAT DISP,2403,RIFT VALLEY,TRANS-NZOIA,KWANZA,KAISAGAT,KAISAGAT,4,MOH,1.12,35.07
0,SIMBI DISP,0,RIFT VALLEY,BURET,SOTIK,MANARET,MONIRE,4,MOH,-0.622,35.07
26,KAPTUMO H C,2090,RIFT VALLEY,NANDI,KAPTUMO,KAPTUMO,IBANJA,3,MOH,0.09013,35.0708
24,KIBENETI DISP,2715,RIFT VALLEY,KERICHO,SIGOWET,KEBENETI,KEBENETI,4,MOH,-0.44123,35.07123
10,SANGO DISP,2332,WESTERN,LUGARI/MALAVA,LIKUYANI,KONGONI,SANGO,4,MOH,0.728778,35.072747
7,KABIEMIT DISP,0,RIFT VALLEY,NANDI,KIPKAREN,KABIEMIT,KAPLEMUR,4,MOH,0.521044,35.073836
19,KIMINTET HEALTH CENTRE,3227,RIFT VALLEY,TRANS MARA,KIRINDONI,KIMINTET,KIRINDONI,3,MOH,-1.121016,35.074135
10,KAPWERIA DISP,0,RIFT VALLEY,TRANS MARA,PIRRAR,OLOLMASANI,ABOSSI,4,MOH,-0.935549,35.075519
5,EMURUA DIKIRR DISP,0,RIFT VALLEY,TRANS MARA,KIRINDONI,MURKAN,MOGONDO,4,MOH,-0.965325,35.0759
11,KIBUGAT DISP,1608,RIFT VALLEY,BURET,RORET,KIBUGAT,KIBUGAT,4,MOH,-0.59305,35.0764
9,GORGOR DISP,1584,RIFT VALLEY,BOMET,NDANAI,ABOSI,ABOSI,4,MOH,-0.896847,35.0788
0,CHEBILAT DISP,0,RIFT VALLEY,BURET,SOTIK,MANARET,CHEBILATMANARET,4,MOH,-0.68,35.08
0,SARUCHAT DISP,0,RIFT VALLEY,BOMET,SOTIK,RONGENA,KIPNGOSOS,4,MOH,-0.75,35.08
7,MABUSI H C,2323,WESTERN,LUGARI/MALAVA,LIKUYANI,NZOIA,VINYENYA,3,MOH,0.834447,35.08051
0,SOY SAMBU DISP,0,WESTERN,LUGARI/MALAVA,LIKUYANI,KONGONI,MAWE TATU,4,MOH,0.774832,35.084489
0,BUTIIK DISP,0,RIFT VALLEY,BURET,BURET,CHEPLANGET,BUTIIK,4,MOH,-0.66,35.09
46,SANGA DISPENSARY,0,RIFT VALLEY,KERICHO,SIGOWET,KIPTERE,KIPTERE,4,MOH,-0.42123,35.09123
34,KAURIONG DISP,366,RIFT VALLEY,WEST POKOT,ALALE,KASES,KAMUNAI,4,MOH,2.2014,35.0925
19,KAPLAMAI H C,0,RIFT VALLEY,TRANS-NZOIA,KAPLAMAI,KAPLAMAI,KIMOSON,3,MOH,0.995636,35.0941
20,KAPSABET DISTRICT HOSP.,2096,RIFT VALLEY,NANDI,KAPSABET,KAPSABET,TOWNSHIPKAPSABET,1,MOH,0.2028,35.0954
72,KAPSABET G K PRISON DISP,0,RIFT VALLEY,NANDI,KAPSABET,KAPSABET,TOWNSHIPKAPSABET,9,MOH,0.2028,35.0954
0,IRAA DISP,0,RIFT VALLEY,KERICHO,SIGOWET,KIPTERE,IRAA,4,MOH,-0.365365,35.095407
0,SEREGEYA DISP,0,WESTERN,LUGARI/MALAVA,LIKUYANI,LIKUYANI,SEREGEYA,4,MOH,0.681228,35.096568
27,TEBESONIK DISP,1656,RIFT VALLEY,BURET,RORET,TEBESONIK,TEBESONIK,4,MOH,-0.551385,35.0977
9,KABIYET H C,2087,RIFT VALLEY,NANDI,KAPSABET,KAMOIYWO,KAMOIYWO,3,MOH,0.38533,35.098
22,RORET HEALTH CENTRE,1669,RIFT VALLEY,BURET,RORET,KISIARA,MABASI,3,MOH,-0.499516,35.1019
8,CHEMELIL DISP,1278,NYANZA,NYANDO,MUHORONI,CHEMELIL,CHEMELIL,4,MOH,-0.096918,35.1049
27,NDANAI HEALTH CENTRE,1668,RIFT VALLEY,BOMET,NDANAI,NDANAI,CHEPKEIGEI,3,MOH,-0.829001,35.1067
54,WEYETA DISP,1864,RIFT VALLEY,TRANS-NZOIA,KAPLAMAI,SITATUNGA,SITATUNGA,4,MOH,1.078039,35.106851
4,LIKUYANI H C,2320,WESTERN,LUGARI/MALAVA,LIKUYANI,LIKUYANI,SOYLUGARI,3,MOH,0.710801,35.10693
32,KIPTERE DISP,1617,RIFT VALLEY,KERICHO,SIGOWET,KIPTERE,KIPTERE,4,MOH,-0.389825,35.107
12,KIBWASITULYO DISP,1609,RIFT VALLEY,BURET,BURET,TECHOGET,AROKYET,4,MOH,-0.614308,35.1079
32,RONGENA DISP,1641,RIFT VALLEY,BOMET,SOTIK,RONGENA,RONGENABOMET,4,MOH,-0.72411,35.1121
2,BURGEI DISP,0,RIFT VALLEY,BOMET,SOTIK,RONGENA,BURGEI,4,MOH,-0.79234,35.11234
26,SOTIK DISP,1651,RIFT VALLEY,BURET,SOTIK,CHEMAGEL,SOTIK,4,MOH,-0.69123,35.1142
24,KAPENGURIA DISTRICT HOSPITAL,2209,RIFT VALLEY,WEST POKOT,KAPENGURIA,KAPENGURIA,CHEWOYET,1,MOH,1.2335,35.1162
17,KIPTOME DISP,1619,RIFT VALLEY,BURET,BURET,CHEBOIN,CHEBOINBURET,4,MOH,-0.548834,35.1206
2,KONGONI DISP,3276,WESTERN,LUGARI/MALAVA,LIKUYANI,KONGONI,KONGONILUGARI,4,MOH,0.780116,35.125255
49,MOI'S BRIDGE DISP,3617,RIFT VALLEY,UASIN GISHU,SOY,MOI'S BRIDGE,MOI'S BRIDGEUGISHU,4,MOH,0.910735,35.1262
0,KAMAWOI DISP,0,RIFT VALLEY,KERICHO,SIGOWET,CHEMAMUL,KIPTOMEKERICHO,4,MOH,-0.389915,35.12748
0,KAPSASIAN DISP,0,RIFT VALLEY,TRANS MARA,KIRINDONI,EMARTI,KAPSASIAN,4,MOH,-0.968076,35.129671
48,SOLIAT DISP,1648,RIFT VALLEY,KERICHO,SOIN,SOLIAT,KAMASEGA,4,MOH,-0.310746,35.1308
73,REHABILITATION CENTRE  FAMILY LIFE,0,RIFT VALLEY,WEST POKOT,KAPENGURIA,KAPENGURIA,KAMATIRA,8,MOH,1.26321,35.1322
26,MOTIRET DISP,0,RIFT VALLEY,BOMET,NDANAI,KAPKELEI,MOTIRET,4,MOH,-0.80234,35.13241
9,KABIANGA SUB-HEALTH CENTRE,1686,RIFT VALLEY,KERICHO,BELGUT,KABIANGA,KABIANGAKERICHO,3,MOH,-0.441695,35.1342
5,CHEPLANGET DISP,1573,RIFT VALLEY,BURET,BURET,CHEPLANGET,CHEPLANGET,4,MOH,-0.64662,35.1342
65,SOSIAN HEALTH CENTRE,1921,RIFT VALLEY,UASIN GISHU,TURBO,SUGOI,SOSIANI,3,MOH,0.580757,35.1351
8,KALAACHA DISP,4679,RIFT VALLEY,BURET,BURET,CHEBWAGAN,CHERIBO,4,MOH,-0.609808,35.136559
0,KABOLECHO DISP,0,RIFT VALLEY,TRANS MARA,KIRINDONI,EMARTI,KAPSASIAN,4,MOH,-1.010148,35.141361
3,CHEBORGE DISP,1562,RIFT VALLEY,BURET,BURET,CHEBORGE,CHEBORGE,4,MOH,-0.576044,35.1419
3,CHEBOYO DISP,3756,RIFT VALLEY,BOMET,SIONGIROI,MOGOR,CHEBOYO,4,MOH,-0.93241,35.14243
59,SAMBUT DISP,0,RIFT VALLEY,UASIN GISHU,TURBO,KAMAGUT,LESERU,4,MOH,0.635844,35.1469
15,KAPKURES DISP,0,RIFT VALLEY,BOMET,SOTIK,KIPTULWA,KINYELWET,4,MOH,-0.772466,35.1491
49,MOSORIOT R H T C / COLLEGE DISP,2098,RIFT VALLEY,NANDI,KOSIRAI,KOSIRAI,NDAPTABWA,4,MOH,0.291822,35.15
21,KAPSARA HEALTH CENTRE,1865,RIFT VALLEY,TRANS-NZOIA,KAPLAMAI,MAKUTANO,KAPSARA,3,MOH,1.07219,35.1511
38,MOTOSIETI DISP,1853,RIFT VALLEY,TRANS-NZOIA,KAPLAMAI,MOTOSIET,MOTOSIET,4,MOH,1.02411,35.1523
6,CHEPWOSTUIYET DISP,0,RIFT VALLEY,BOMET,SIONGIROI,BINGWA,CHEPWASTUYET,4,MOH,-0.841234,35.15234
17,CHUKURA DISP,4863,RIFT VALLEY,UASIN GISHU,SOY,MOI'S BRIDGE,MATUNDAUGISHU,4,MOH,0.856108,35.1553
31,KIPSITET DISP,1615,RIFT VALLEY,KERICHO,SOIN,SOIN,KIPSITET,4,MOH,-0.224014,35.1598
11,KAITUI DISP,1588,RIFT VALLEY,KERICHO,SOIN,KAITUI,KAPTUGUMO,4,MOH,-0.286937,35.1598
8,KABIRISANG DISP,2053,RIFT VALLEY,NANDI,KILIBWONI,KABIRIRSANG,UNDERIT,4,MOH,0.173029,35.1622
18,KIPTULWA DISP,0,RIFT VALLEY,BOMET,SOTIK,KIPTULWA,KINYELWET,4,MOH,-0.781234,35.16234
16,KIPTEWIT DISP,865,RIFT VALLEY,BURET,BURET,LITEIN,LALAGIN,4,MOH,-0.557337,35.164
0,CHEMOSOT DISP,1571,RIFT VALLEY,BURET,BURET,KISIARA,RORET,4,MOH,-0.48336,35.1657
10,KABRISANG DISP,4420,RIFT VALLEY,NANDI,KILIBWONI,KABIRIRSANG,KABIRIRSANG,4,MOH,0.171938,35.167341
50,SOSIOT HEALTH CENTRE,1673,RIFT VALLEY,KERICHO,BELGUT,WALDAI,SOSIOT,3,MOH,-0.359214,35.1708
67,SOY HEALTH CENTRE,1922,RIFT VALLEY,UASIN GISHU,SOY,SOY,SOYUG,3,MOH,0.690475,35.1742
26,KAPSARET DISP,1883,RIFT VALLEY,UASIN GISHU,KAPSARET,KAPSARET,LEMOK,4,MOH,0.49231,35.1742
36,KIMWANI DISP,4419,RIFT VALLEY,NANDI,NANDI HILLS,CHEMILIL,KIMWANI,4,MOH,0.007213,35.175167
4,EMARTI HEALTH CENTRE,1797,RIFT VALLEY,TRANS MARA,KIRINDONI,EMARTI,KIRIBWET,3,MOH,-0.997695,35.1801
16,KATARET DISP,0,RIFT VALLEY,BOMET,SIONGIROI,MOGOR,KATARET,4,MOH,-0.92324,35.182354
50,NANDI HILLS SUB-DIST HOSP,2097,RIFT VALLEY,NANDI,NANDI HILLS,NANDI HILLS,KIPSAMOO,1,MOH,0.1172,35.1831
19,MUHORONI SUB-DISTRICT HOSP.,1339,NYANZA,NYANDO,MUHORONI,GOD NYITHINDO,OREGO,1,MOH,-0.154993,35.1889
0,KAPLETUNDO DISP,0,RIFT VALLEY,BURET,SOTIK,KAPLETUNDO,CHESILYOT,4,MOH,-0.65,35.19
69,TARAKWA DISP,2963,RIFT VALLEY,UASIN GISHU,SOY,KIPSOMBA,KIPSOMBA,4,MOH,0.75862,35.1929
9,KAPKATET DISTRICT HOSPITAL,6176,RIFT VALLEY,BURET,BURET,KAPKATET,ITOIK,1,MOH,-0.62738,35.19319
45,NZOIA DISP,1855,RIFT VALLEY,TRANS-NZOIA,CHERANGANY,CHERANGANY,NZOIATNZOIA,4,MOH,0.96241,35.1942
23,MAKIMENYI DISP,1625,RIFT VALLEY,BOMET,SIONGIROI,MAKIMENY,KABEMA,4,MOH,-0.83482,35.1948
32,KASEI DISP,3042,RIFT VALLEY,WEST POKOT,KASEI,KASEI,KASEI,4,MOH,2.03849,35.1959
15,KAPCHUMBA DISP,0,RIFT VALLEY,NANDI,KOSIRAI,NGECHEK,LELBOINETNANDI,4,MOH,0.287142,35.196595
0,CHEMALAL DISP,0,RIFT VALLEY,BURET,KIMULOT,KIMULOT,CHEMALAL,4,MOH,-0.52,35.2
28,KAPTELDON DISP,2966,RIFT VALLEY,UASIN GISHU,KAPSARET,KAPSARET,LEMOK,4,MOH,0.477149,35.2004
34,KOITABUROT DISP,962,RIFT VALLEY,KERICHO,SOIN,KOITABUROT,KOITABUROT,4,MOH,-0.204457,35.2006
0,SERETUT DISP,0,RIFT VALLEY,KERICHO,BELGUT,SERETUT,SERETUT,4,MOH,-0.431459,35.201057
9,CHEPARERIA HEALTH CENTRE,0,RIFT VALLEY,WEST POKOT,CHEPARERIA,KIPKOMO,CHEPARERIA,3,MOH,1.32957,35.201558
16,MAKINDU DISP,3288,NYANZA,NYANDO,MUHORONI,MUHORONI,MUHORONI EAST,4,MOH,-0.149197,35.203175
36,TAMU HEALTH CENTRE,1314,NYANZA,NYANDO,MUHORONI,TAMU,UPPER TAMU,3,MOH,-0.094844,35.2045
4,CHEBUNYO DISP,948,RIFT VALLEY,BOMET,SIONGIROI,CHEBUNYO,KAMOKIBOI,4,MOH,-0.95953,35.2106
37,SIOGIROI HEALTH CENTRE,1672,RIFT VALLEY,BOMET,SIONGIROI,SIONGIROI,SIONGIROI,3,MOH,-0.873065,35.2131
38,SOYMET DISP,0,RIFT VALLEY,BOMET,SOTIK,KIPTULWA,KIPSONOIBOMET,4,MOH,-0.71421,35.2141
13,KINYAGORO DISP,3644,RIFT VALLEY,BURET,KONOIN,CHEMELET,CHEMELET,4,MOH,-0.576262,35.21451
7,CHERANGANY DISP,4415,RIFT VALLEY,TRANS-NZOIA,CHERANGANY,CHERANGANY,NZOIATNZOIA,4,MOH,0.97916,35.2181
14,KIPSONOI HEALTH CENTRE,1616,RIFT VALLEY,BURET,SOTIK,KAMUNGEI,KENENE,3,MOH,-0.68335,35.220952
12,CHEPKOPEGH DISP,4310,RIFT VALLEY,WEST POKOT,CHEPARERIA,CHEPKOPEGH,CHEPKOPEGH,4,MOH,1.44881,35.2211
52,NGECHEK DISP,0,RIFT VALLEY,NANDI,KOSIRAI,NGECHEK,NGECHEK,4,MOH,0.304435,35.22366
31,KILIBWONY H C,2092,RIFT VALLEY,NANDI,KILIBWONI,KILIBWON,KILIBWON,3,MOH,0.21544,35.2239
37,KIPLOMBE DISP,3823,RIFT VALLEY,UASIN GISHU,SOY,KIPLOMBE,KIPLOMBEUGISHU,4,MOH,0.626596,35.223923
18,MINARA DISP,1296,NYANZA,NYANDO,MUHORONI,MUHORONI,OWAGA,4,MOH,-0.162252,35.2242
11,KABUNYERIA DISP,2055,RIFT VALLEY,NANDI,NANDI HILLS,SIRET,TAITO,4,MOH,0.09436,35.2259
20,KENEGUT SUB HEALTH CENTRE,1602,RIFT VALLEY,KERICHO,AINAMOI,KENEGUT,KENEGUT,3,MOH,-0.26568,35.2261
12,KANUSIN DISP,0,RIFT VALLEY,BOMET,SOTIK,KANUSIN,KAPSANGARU,4,MOH,-0.791999,35.2281
44,LOLMININGAI DISP,2072,RIFT VALLEY,NANDI,KILIBWONI,LOLMININGAI,LOLMININGAI,4,MOH,0.24945,35.2292
61,TAITO DISP,4417,RIFT VALLEY,NANDI,NANDI HILLS,SIRET,TAITO,4,MOH,0.087399,35.230986
57,PTOYO DISP,2198,RIFT VALLEY,WEST POKOT,CHEPARERIA,PTOYO,PTOYO,4,MOH,1.70778,35.2314
17,KIPSUTER DISP,0,RIFT VALLEY,BOMET,SIONGIROI,SIONGIROI,KIPSUTER,4,MOH,-0.92324,35.23241
33,KIMOTHON FOREST DISP,1887,RIFT VALLEY,UASIN GISHU,SOY,KIPSOMBA,KAPSANG,4,MOH,0.78463,35.236661
76,ZIWA DISP,2964,RIFT VALLEY,UASIN GISHU,SOY,ZIWA,KEROTET,4,MOH,0.865212,35.2372
12,KAKIPTUI DISP,3658,RIFT VALLEY,KERICHO,BELGUT,KAPSUSER,KAPSUSER,4,MOH,-0.37412,35.24123
30,OLBUTYO H C,1639,RIFT VALLEY,BOMET,SIONGIROI,SIONGIROI,SIONGIROI,3,MOH,-0.873524,35.24234
25,KAPSAOS DISP,3982,RIFT VALLEY,UASIN GISHU,TURBO,KAPYEMIT,KAPSAOSUGISHU,4,MOH,0.58341,35.2441
56,SIRET TEA DISP,2081,RIFT VALLEY,NANDI,NANDI HILLS,SIRET,SIRETNANDI,4,MOH,0.070201,35.245644
33,SEGUTIET DISP,1645,RIFT VALLEY,BOMET,BOMET CENTRAL,CHESOEN,KAMOGOSO,4,MOH,-0.70123,35.25123
19,KAMOI DISP,0,RIFT VALLEY,MARAKWET,KAPCHEROP,KAMOI,KAMOI,4,MOH,1.08834,35.2563
22,KABOBO HEALTH CENTRE,2347,RIFT VALLEY,UASIN GISHU,SOY,SOY,KONGASISSOY,3,MOH,0.738398,35.2638
78,ELDORET MAINTANANCE SCHOOL DISP,1877,RIFT VALLEY,UASIN GISHU,KAPSARET,PIONEER,LANGAS,9,MOH,0.50321,35.2641
68,TAMUOGH DISP,2204,RIFT VALLEY,WEST POKOT,CHEPARERIA,TAMUGH,TAMUGH,4,MOH,1.58202,35.2659
20,MOGOGOSIEK DISP,1633,RIFT VALLEY,BURET,KONOIN,MOGOGOSIEK,SASETA,4,MOH,-0.620721,35.268
40,TARAKWA DISP,1654,RIFT VALLEY,BOMET,SOTIK,MUTARAKWA,LELDAET,4,MOH,-0.75209,35.268
1,AINAMOI H C,1556,RIFT VALLEY,KERICHO,AINAMOI,AINAMOI,AINAMOIKERICHO,3,MOH,-0.29374,35.272
52,SUWERWA HEALTH CENTRE,1867,RIFT VALLEY,TRANS-NZOIA,CHERANGANY,KIPTOROR,MILIMANICHERANGANY,3,MOH,0.982474,35.2728
14,KAPKOROS HEALTH CENTRE,1665,RIFT VALLEY,BOMET,BOMET CENTRAL,SIBAIYAN,KAPKOROSBOMET,3,MOH,-0.665095,35.275022
21,KERICHO DISTRICT HOSPITAL,1680,RIFT VALLEY,KERICHO,AINAMOI,TOWNSHIP,TOWNSHIPKERICHO,1,MOH,-0.36896,35.27941
7,CHESOEN DISP,0,RIFT VALLEY,BOMET,BOMET CENTRAL,CHESOEN,CHESOEN,4,MOH,-0.70124,35.28123
31,KESSES DISP,2968,RIFT VALLEY,UASIN GISHU,KESSES,KESSES,KESSES,4,MOH,0.271595,35.2828
64,SIRIKWA DISP,3048,RIFT VALLEY,UASIN GISHU,SOY,SIRIKWA,SIRIKWAUG,4,MOH,0.86214,35.2834
18,KABICHBICH HEALTH CENTRE,2492,RIFT VALLEY,WEST POKOT,LELAN,LELAN,MBAYAI,3,MOH,1.23175,35.2845
19,ELDORET DISTRICT HOSPITAL MOI REFERRAL & TEACHING HOSPITAL,1923,RIFT VALLEY,UASIN GISHU,SOY,KIBULGENY,KAMUKUNJIUGISHU,2,MOH,0.538332,35.2886
79,ELDORET PRISON DISP,0,RIFT VALLEY,UASIN GISHU,SOY,KIBULGENY,KAMUKUNJIUGISHU,9,MOH,0.538332,35.2886
13,KAPKESOSIO DISP,1590,RIFT VALLEY,BOMET,SIGOR,KAPKESOSIO,TUMOI,4,MOH,-0.860177,35.293
22,LUGUMEK DISP,0,RIFT VALLEY,BOMET,SIGOR,LELAITICH,LUGUMEK,4,MOH,-0.999671,35.293236
0,CHEPKUNYUK DISP,0,RIFT VALLEY,KERICHO,CHILCHILA,KUNYAK,KAPKWEN,4,MOH,-0.103819,35.293499
2,CHEBANGANG HEALTH CENTRE,1663,RIFT VALLEY,BURET,KIMULOT,CHEBANGANG,CHEBANGANGBURET,3,MOH,-0.544006,35.296326
35,KUNYAK DISP,1623,RIFT VALLEY,KERICHO,CHILCHILA,KUNYAK,KAPKWEN,4,MOH,-0.128779,35.2967
7,ITARE FOREST DISP,1585,RIFT VALLEY,BURET,KIMULOT,KAPTEBENGWET,KAMAGOMON,4,MOH,-0.580631,35.2973
34,SIGOR SUB-DISTRICT HOSPITAL,1670,RIFT VALLEY,BOMET,SIGOR,SIGOR,SIGOR,1,MOH,-0.918919,35.2973
35,SIGORWET DISP,1646,RIFT VALLEY,BOMET,BOMET CENTRAL,SINGORWET,SINGORWET,4,MOH,-0.729233,35.2988
15,CHUIROT DISP,4404,RIFT VALLEY,UASIN GISHU,SOY,KIPLOMBE,KUINET,4,MOH,0.64214,35.3014
58,SOBAR RIVER DISP,2432,RIFT VALLEY,NANDI,TINDERET,KABIRER,CHERONDO,4,MOH,0.04726,35.3019
23,KAPCHEROP HEALTH CENTRE,2038,RIFT VALLEY,MARAKWET,KAPCHEROP,SENGWER,KAPCHEROP,3,MOH,1.04598,35.3104
28,KEBEN DISP,4316,RIFT VALLEY,NANDI,KILIBWONI,KOILOT,KEBEN,4,MOH,0.148469,35.313199
0,KANDEGE DISP,0,NYANZA,NYANDO,MUHORONI,FORT TENAN,OCHORIA,4,MOH,-0.22,35.32
72,TULWET DISP,1862,RIFT VALLEY,UASIN GISHU,KESSES,TULWET,TULWETUG,4,MOH,0.27412,35.3241
4,CHEPCHABAS DISP,4680,RIFT VALLEY,BURET,KIMULOT,SAOSA,CHEPCHABAS,4,MOH,-0.461088,35.3246
53,NGERIA DISP,0,RIFT VALLEY,UASIN GISHU,KESSES,MEGUN,SONGOLIETUG,4,MOH,0.384492,35.3247
40,MANYOROR DISP,3656,RIFT VALLEY,KERICHO,AINAMOI,KAPSAOS,KAPSAOSKERICHO,4,MOH,-0.289488,35.3298
4,BONSOMBE DISP,0,RIFT VALLEY,UASIN GISHU,SOY,KOISAGAT,BARSOMBE,4,MOH,0.892526,35.3301
69,TURKWEL GORGE DISP,2205,RIFT VALLEY,WEST POKOT,KASEI,KORPU,SIRWACH,4,MOH,1.93602,35.3321
6,CHEPSIRO DISP,2844,RIFT VALLEY,TRANS-NZOIA,CHERANGANY,CHEPSIRO,KAPSIGIRAI,4,MOH,0.99231,35.3321
18,KOIWA H C,1896,RIFT VALLEY,BURET,KONOIN,KOIWA,CHEPTINGTING,3,MOH,-0.60231,35.3321
1,BOMET SUB-HEALTH CENTRE,1662,RIFT VALLEY,BOMET,BOMET CENTRAL,TOWNSHIP,CHEPNGAINA,3,MOH,-0.78031,35.33807
0,CHEBARA DISP,0,RIFT VALLEY,KERICHO,CHILCHILA,KOKWET,KOKWETKERICHO,4,MOH,-0.168025,35.338777
16,CHUIYAT DISP,0,RIFT VALLEY,UASIN GISHU,KESSES,TULWET,TULWETUG,4,MOH,0.255207,35.3392
8,FORT TERNAN SUB-HEALTH CENTRE,1581,RIFT VALLEY,KERICHO,CHILCHILA,CHILCHILA,KOISAGAT,3,MOH,-0.195954,35.3392
92,TINDERET TEA ESTATE DISP,2085,RIFT VALLEY,NANDI,TINDERET,TINDERET,TINDERET,9,MOH,-0.071389,35.339213
15,KAIKOR DISP,2136,RIFT VALLEY,TURKANA,KAALING,KAIKOR,LOITANIT,4,MOH,4.72124,35.34123
36,SILIBWET DISP,0,RIFT VALLEY,BOMET,BOMET CENTRAL,TOWNSHIP,SILIBWETBOMET,4,MOH,-0.73234,35.34123
0,CHEPCHOLIET DISP,0,RIFT VALLEY,KERICHO,KIPKELION,KAPSEGER,CHEPCHOLIET,4,MOH,-0.247339,35.348209
62,SERGOIT DISP,1908,RIFT VALLEY,UASIN GISHU,MOIBEN,SERGOIT,SERGOITUG,4,MOH,0.69421,35.3521
63,SINA DISP,2202,RIFT VALLEY,WEST POKOT,CHEPARERIA,PARUA,CHEPKORIONG,4,MOH,1.31932,35.3572
38,TENDEN DISP,2957,RIFT VALLEY,MARAKWET,KAPCHEROP,CHERANGANY,TENDEN,4,MOH,1.01964,35.3643
54,SERENGONI FOREST DISP,2080,RIFT VALLEY,NANDI,TINDERET,KAPKOROS,KAPKOROSNANDI,4,MOH,0.07386,35.3645
38,MAKYOLOK DISP,1627,RIFT VALLEY,KERICHO,CHILCHILA,KOKWET,TULWO-PMOI,4,MOH,-0.134731,35.3647
28,KAPTABUK DISP WEST POKOT,288,RIFT VALLEY,WEST POKOT,LELAN,CHEBON,CHEBON,4,MOH,1.25318,35.3656
28,NDARAWETA DISP,1637,RIFT VALLEY,BOMET,BOMET CENTRAL,NDAREWETA,NGAINET,4,MOH,-0.680587,35.3678
12,CHEPKANKA HEALTH CENTRE,0,RIFT VALLEY,UASIN GISHU,MOIBEN,SERGOIT,KELJI,3,MOH,0.628494,35.3684
14,KAPKIAM DISP,298,RIFT VALLEY,KERICHO,AINAMOI,KAPSAOS,TENDWETKERICHO,4,MOH,-0.291189,35.3689
47,MOIBEN HEALTH CENTRE,1919,RIFT VALLEY,UASIN GISHU,MOIBEN,MOIBEN,MOIBEN,3,MOH,0.814705,35.369
10,IRWAGA DISP,3595,RIFT VALLEY,BOMET,BOMET CENTRAL,MERIGI,MOTIGO,4,MOH,-0.74123,35.37412
48,METETEI H C,2095,RIFT VALLEY,NANDI,TINDERET,KAMELIL,NGATIPKONG,3,MOH,0.02113,35.3743
39,KOTARUK SUB-HEALTH CENTRE,0,RIFT VALLEY,TURKANA,TURKWEL,KOTARUK,NAIPA,3,MOH,2.54825,35.3754
23,SIOMO DISP,3598,RIFT VALLEY,BURET,KONOIN,EMBOMOS,SIOMO,4,MOH,-0.55412,35.3812
11,KAALENG DISP,382,RIFT VALLEY,TURKANA,KAALING,KAERIS,KAERIS,4,MOH,3.90231,35.38123
8,CENGALO DISP,1874,RIFT VALLEY,UASIN GISHU,KESSES,OL'LEINGUSE,LEINGUSE,4,MOH,0.140206,35.3826
3,CHEBORORWA HEALTH CENTRE,2032,RIFT VALLEY,MARAKWET,KAPCHEROP,CHERANGANY,KOITUGUM,3,MOH,0.966372,35.3828
46,MEIBEKI DISP,4867,RIFT VALLEY,UASIN GISHU,MOIBEN,MEIBEKI,MEIBEKI,4,MOH,0.888884,35.3829
22,KERICHO FOREST DISP,1604,RIFT VALLEY,KERICHO,AINAMOI,CHEBOSWA,CHEYMEN,4,MOH,-0.343908,35.3851
6,CHEPTALAL SUB-DISRICT HOSPITAL,1577,RIFT VALLEY,BURET,KONOIN,CHEPTALAL,TOBOINO,1,MOH,-0.610343,35.3878
31,OLOKYIN DISP,1640,RIFT VALLEY,BOMET,LONGISA,KIPLABOTWA,OLOKYIN,4,MOH,-0.946646,35.3878
55,SETEK S F T DISP,2082,RIFT VALLEY,NANDI,TINDERET,METEITEI,METEITEI,4,MOH,0.00844,35.388
21,LONGISA DISTRICT HOSPITAL,1624,RIFT VALLEY,BOMET,LONGISA,CHEBOIN,SAMITUK,1,MOH,-0.85793,35.38941
68,TANGASIR DISP,2965,RIFT VALLEY,UASIN GISHU,MOIBEN,MEIBEKI,MEIBEKI,4,MOH,0.923884,35.3919
58,SEKENANI DISP,3222,RIFT VALLEY,NAROK,MARA,KOYAKI,SEKENANI,4,MOH,-1.44312,35.393
14,KABIKOS DISP,568,RIFT VALLEY,MARAKWET,KAPCHEROP,KOISUNGUR,KIBIGOS,4,MOH,1.0315,35.3937
61,SENGALO DISP,3981,RIFT VALLEY,UASIN GISHU,KESSES,TARAKWA,TARAKWAUG,4,MOH,0.28124,35.3941
20,KITOBEN DISP,1620,RIFT VALLEY,BOMET,BOMET CENTRAL,MUGANGO,KITOBEN,4,MOH,-0.72123,35.40123
25,MERIGI DISP,1632,RIFT VALLEY,BOMET,BOMET CENTRAL,MERIGI,MERIGI,4,MOH,-0.771423,35.40123
49,SONGONYET DISP,1649,RIFT VALLEY,KERICHO,KIPKELION,KAMASIAN,MTARAGON,4,MOH,-0.124528,35.4072
16,KAPSEGER DISP,974,RIFT VALLEY,KERICHO,KIPKELION,KAPSEGER,TUGUNON,4,MOH,-0.249524,35.4072
38,KIPTOGOT FOREST DISP UASIN GISHU,1892,RIFT VALLEY,UASIN GISHU,MOIBEN,KARUNA,KAPSUBERE,4,MOH,0.76079,35.408313
71,MAKUTANO DISP,4300,RIFT VALLEY,TURKANA,KAALING,KAERIS,KANUKURUDIO,4,MOH,3.66088,35.4116
65,LOROGON DISP,3319,RIFT VALLEY,TURKANA,KAINUK,KAPUTIR,LOROGON,4,MOH,1.93212,35.4121
19,KIROMWOK DISP,955,RIFT VALLEY,BOMET,BOMET CENTRAL,KIROMWOK,KIROMWOK,4,MOH,-0.741236,35.41245
45,NGENDALEL DISP,3976,RIFT VALLEY,KERICHO,KIPKELION,LESIRWA,LESIRWA,4,MOH,-0.205307,35.414
30,KIPSEGI DISP,3506,RIFT VALLEY,KERICHO,KIPKELION,KIPSEGI,TUIYOBEIKIPKELION,4,MOH,-0.175546,35.4157
10,CHEMBULET DISP,0,RIFT VALLEY,UASIN GISHU,MOIBEN,SERGOIT,CHEPKOILEL,4,MOH,0.666733,35.4175
20,ELGEYO BORDER DISP,1878,RIFT VALLEY,UASIN GISHU,MOIBEN,TEMBELIO,TUIYO LUK,4,MOH,0.548374,35.4175
30,KATUIYO DISP,2967,RIFT VALLEY,UASIN GISHU,AINABKOI,KIPKUBUS,SONGICH,4,MOH,0.329864,35.4193
4,CHEPSIR DISP,1575,RIFT VALLEY,KERICHO,KIPKELION,KAPSEGER,CHEPSIR,4,MOH,-0.283536,35.4259
43,MTARAGON DISP,1635,RIFT VALLEY,KERICHO,KIPKELION,KAMASIAN,MTARAGON,4,MOH,-0.092216,35.4268
75,UHURU DISP,3321,RIFT VALLEY,UASIN GISHU,AINABKOI,KAPTAGAT,TENDWO,4,MOH,0.495567,35.4284
35,KIPKURERE DISP,1890,RIFT VALLEY,UASIN GISHU,KESSES,TIMBOROA,MATHARU,4,MOH,0.08,35.43
9,CHEBURBUI DISP,1875,RIFT VALLEY,UASIN GISHU,MOIBEN,KIMONING,CHEBURBUR,4,MOH,0.62114,35.4321
32,KONDABILET DISP,2014,RIFT VALLEY,MARAKWET,KAPCHEROP,CHEBORORWA,KONDABILET,4,MOH,0.942465,35.4325
57,SERGOT DISP,0,RIFT VALLEY,KEIYO,KAMARINY,IRONG,SERGOITKEIYO,4,MOH,0.669537,35.441331
21,ELGEYO DISP,3097,RIFT VALLEY,UASIN GISHU,MOIBEN,TEMBELIO,ELEGEYO BORDER,4,MOH,0.54321,35.4421
27,KAPTAT DISP,1886,RIFT VALLEY,UASIN GISHU,AINABKOI,KAPTAGAT,TENDWO,4,MOH,0.46241,35.4441
6,BURNT FOREST RURAL HEALTH DEMONSTRATION CENTRE,1927,RIFT VALLEY,UASIN GISHU,AINABKOI,OLARE,KAPKENO,3,MOH,0.231535,35.4467
50,NABKOI DISP,1898,RIFT VALLEY,UASIN GISHU,KESSES,OL'LEINGUSE,LEINGUSE,4,MOH,0.094967,35.4521
24,KAPLENGE DISP,3323,RIFT VALLEY,MARAKWET,CHEBIEMIT,KUSERWO,YEMIT,4,MOH,0.99123,35.4523
42,MONMONIAT DISP,0,RIFT VALLEY,KERICHO,KIPKELION,CHEPSEGON,MOMONIAT,4,MOH,-0.242721,35.4523
24,MENET DISP,0,RIFT VALLEY,BOMET,BOMET CENTRAL,KIROMWOK,MENET,4,MOH,-0.771423,35.452341
13,KABIEGO DISP,25,RIFT VALLEY,MARAKWET,KAPYEGO,KAPYEGO,KAPYEGO,4,MOH,1.1746,35.4552
32,KIMONING DISP,4874,RIFT VALLEY,UASIN GISHU,MOIBEN,KIMONING,KAMAUA,4,MOH,0.590255,35.4594
0,LELECHWET DISP,0,RIFT VALLEY,KERICHO,KIPKELION,KIPSEGI,KAPKURESKERICHO,4,MOH,-0.107596,35.459517
29,KIPKELION SUB HEALTH CENTRE,1687,RIFT VALLEY,KERICHO,KIPKELION,KIPCHORAN,KIPKELION TOWN,3,MOH,-0.194253,35.4642
87,TURKWEL DISP,2161,RIFT VALLEY,TURKANA,TURKWEL,LORUGUM,TURKWEL,4,MOH,2.98245,35.466
62,SIGOR HEALTH CENTRE WEST POKOT,2208,RIFT VALLEY,WEST POKOT,SIGOR,WEI WEI,KORELLACH,3,MOH,1.50377,35.4719
29,KAPUTIR HEALTH CENTRE,2141,RIFT VALLEY,TURKANA,KATILU,KATILU,KALEMUNGOROK,3,MOH,2.10933,35.475
41,TEGAT DISP,1657,RIFT VALLEY,BOMET,LONGISA,TEGAT,TEGATBOMET,4,MOH,-0.789094,35.4776
44,MUGUMO-INI DISP,1636,RIFT VALLEY,KERICHO,LONDIANI,TENDENO,TENDENO,4,MOH,-0.001234,35.4778
14,KAPTAGAT DISP,652,RIFT VALLEY,KEIYO,CHEPKORIO,MARICHOR,FLAX,4,MOH,0.37342,35.4779
34,KIPKABUS DISP,1889,RIFT VALLEY,UASIN GISHU,AINABKOI,CHEPNG'OROR,KOILUGET,4,MOH,0.266133,35.4794
28,MEGWARA DISP,1806,RIFT VALLEY,NAROK,MARA,SIANA,SIANA,4,MOH,-1.51594,35.4804
67,TAMKAL DISP,2203,RIFT VALLEY,WEST POKOT,SIGOR,MWINO,KITOYO,4,MOH,1.4013,35.4812
29,KARUNA DISP,0,RIFT VALLEY,UASIN GISHU,MOIBEN,KARUNA,SOSIO,4,MOH,0.746853,35.4813
17,KAPTEREN HEALTH CENTRE,2959,RIFT VALLEY,KEIYO,KAMARINY,MUTEI,KAPTEREN,3,MOH,0.566355,35.487
2,CHEBIEMIT HEALTH CENTRE,2031,RIFT VALLEY,MARAKWET,CHEBIEMIT,MOIBEN,CHEBIEMIT,3,MOH,0.867231,35.495
55,SABOR DISP,133,RIFT VALLEY,KEIYO,CHEPKORIO,MOSOP,KAPTAGAT,4,MOH,0.428654,35.496561
23,KIPKABUS DISP,3502,RIFT VALLEY,KEIYO,CHEPKORIO,KABIEMIT,KABIEMITKEIYO,4,MOH,0.30045,35.49865
6,CHEPTONGEI DISP,4890,RIFT VALLEY,MARAKWET,CHEBIEMIT,KUSERWO,CHEPTONGEI,4,MOH,0.967819,35.5001
35,MATIRA DISP,3988,RIFT VALLEY,MARAKWET,KAPYEGO,KAPYEGO,KARARIA,4,MOH,1.12233,35.5024
26,KIMUGUL DISP,0,RIFT VALLEY,KERICHO,KIPKELION,KIMUGUL,KIPYEMIT,4,MOH,-0.25114,35.50264
5,CHEMANER DISP,1706,RIFT VALLEY,BOMET,LONGISA,CHEMANER,KAPSIGIRIO,4,MOH,-0.808628,35.5042
0,FLAX DISP,0,RIFT VALLEY,KEIYO,CHEPKORIO,MARICHOR,FLAX,4,MOH,0.374345,35.504642
6,ITEN DISTRICT HOSPITAL,2042,RIFT VALLEY,KEIYO,KAMARINY,IRONG,ITEN TOWNSHIP,1,MOH,0.6743,35.5058
40,KOYASA DISP,4000,RIFT VALLEY,TURKANA,KIBISH,NAITA,KOYASA,4,MOH,4.9912,35.5112
52,SUBUKIA DISP,6178,RIFT VALLEY,KERICHO,LONDIANI,TENDENO,SUBUKIA,4,MOH,0.006418,35.5118
43,TAMBACH SUB-DISTRICT HOSPITAL,2044,RIFT VALLEY,KEIYO,TAMBACH,KIPTUILONG,KAPTERIK,1,MOH,0.6,35.5163
41,SINGORE DISP,0,RIFT VALLEY,KEIYO,KAMARINY,KAMOI,SINGORE,4,MOH,0.716846,35.517
39,NKORI-NKORI DISP,3225,RIFT VALLEY,NAROK,OLOLULUNGA,OLOLULUNGA,NKORIKORI,4,MOH,-1.03713,35.519
33,MSEKEKWA HEALTH CENTRE,2022,RIFT VALLEY,KEIYO,KAMARINY,KAMOI,SINGORE,3,MOH,0.707923,35.519061
36,LEMOTIT DISP,1780,RIFT VALLEY,KERICHO,LONDIANI,LEMOTIT,SARAMEK,4,MOH,-0.091366,35.5203
4,CHEPKORIO HEALTH CENTRE,2033,RIFT VALLEY,KEIYO,CHEPKORIO,MARICHOR,FLAX,3,MOH,0.386649,35.5278
25,KIMOUT DISP,0,RIFT VALLEY,KERICHO,LONDIANI,KIPSIRICHET,JAGOROR,4,MOH,-0.168744,35.5279
42,KURESOI H C,4626,RIFT VALLEY,NAKURU,KURESOI,KIPTORORO,CHEMATICHNAKURU,3,MOH,-0.42423,35.53203
73,NDOINET DISP,1753,RIFT VALLEY,NAKURU,KURESOI,KIPTORORO,CHEMATICHNAKURU,4,MOH,-0.41324,35.53622
10,EMBABUT DISP,2470,RIFT VALLEY,MARAKWET,TIRAP,EMBOBUT,KIPCHUMWA,4,MOH,1.2512,35.5412
25,TIMBOROA HEALTH CENTRE,1980,RIFT VALLEY,KOIBATEK,MUMBERES,LEMBUS-MOSOP,SEGUTON/TIMBOROA,3,MOH,0.066667,35.54226
1,BIRETWA DISP,1995,RIFT VALLEY,KEIYO,SOY,CHEPSIGOT,KABITO,4,MOH,0.547939,35.5426
16,KAPTARAKWA SUB-DISTRICT HOSP,2040,RIFT VALLEY,KEIYO,CHEPKORIO,KAPTARAKWA,KAPTARAKWA,1,MOH,0.469086,35.5439
0,JAGOROR DISP,0,RIFT VALLEY,KERICHO,LONDIANI,KIPSIRICHET,JAGOROR,4,MOH,-0.147252,35.546299
0,EPKEE DISP,0,RIFT VALLEY,KEIYO,SOY,EPKE,EPKE,4,MOH,0.516546,35.548629
33,KATILU HEALTH CENTRE,2164,RIFT VALLEY,TURKANA,LOKICHAR,LOKICHAR,LOKICHARTURKANA,3,MOH,2.37529,35.5503
28,KOCHOLWO SUB-DISTRICT HOSP,3501,RIFT VALLEY,KEIYO,CHEPKORIO,TUMEIYO,CHEPKOSOM,1,MOH,0.26232,35.55123
42,LOMUT DISP,2193,RIFT VALLEY,WEST POKOT,CHESEGON,LOMUT,TOGHOMO,4,MOH,1.408,35.561
13,KAMWINGI DISP,1784,RIFT VALLEY,KERICHO,LONDIANI,SORGET,SORGET,4,MOH,-0.071809,35.562
58,SABOR DISP UASIN GISHU,1906,RIFT VALLEY,UASIN GISHU,AINABKOI,KAPNGE'TUNY,KAPNG'ETUNY,4,MOH,0.17231,35.5641
9,KAPCHELAL DISP,3451,RIFT VALLEY,KEIYO,TAMBACH,KOKWAO,KAPCHELAL,4,MOH,0.841851,35.564107
61,SOGOO HEALTH CENTRE,1836,RIFT VALLEY,NAROK,MULOT,SOGOO,SOGOO,3,MOH,-0.819313,35.5643
29,LELBOINET HEALTH CENTRE,2016,RIFT VALLEY,KEIYO,CHEPKORIO,MARICHOR,LELBOINETKEIYO,3,MOH,0.358423,35.5659
37,SANGURURU DISP,3324,RIFT VALLEY,MARAKWET,KAPSOWAR,KOIBARAK,SUNG'URUR,4,MOH,0.886607,35.5661
8,KAMWOSOR HEALTH CENTRE,2045,RIFT VALLEY,KEIYO,CHEPKORIO,KAMWOSOR,KAMWOSOR,3,MOH,0.200269,35.5668
19,KEDOWA DISP,3449,RIFT VALLEY,KERICHO,LONDIANI,KEDOWA,KEDOWA,4,MOH,-0.2121,35.56792
24,KAPNGETUNY DISP,1881,RIFT VALLEY,UASIN GISHU,AINABKOI,KAPNGE'TUNY,SILIBOI,4,MOH,0.136848,35.5705
34,MAINA DISP,2018,RIFT VALLEY,MARAKWET,TIRAP,KOIBATEK,MAINAMARA,4,MOH,1.03211,35.5712
37,NYARU DISP,3759,RIFT VALLEY,KEIYO,CHEPKORIO,NYARU,MWEN,4,MOH,0.327061,35.5771
31,KAMWAURA DISP/IKUMBI DISP,2808,RIFT VALLEY,NAKURU,KERINGET,TEMIYOTTA,CHEPTAGUMNAKURU,4,MOH,-0.41059,35.57717
51,CHEPTEBO DISP,3820,RIFT VALLEY,KEIYO,SOY,KIBARGOI,CHEPTEBO,4,MOH,0.498354,35.581925
37,LONDIANI SUB-DISTRICT HOSPITAL,1682,RIFT VALLEY,KERICHO,LONDIANI,LONDIANI,CHEPKONGONYKERI,1,MOH,-0.158796,35.5893
26,TORONGO HEALTH CENTRE,1981,RIFT VALLEY,KOIBATEK,MUMBERES,LEMBUS-MOSOP,TINETKOIBA,3,MOH,0.051004,35.5914
2,CHANGACH BARAK DISP,2955,RIFT VALLEY,KEIYO,SOY,KIBARGOI,CHANGACH,4,MOH,0.435036,35.5927
14,KAERIS DISP,2135,RIFT VALLEY,TURKANA,KAALING,KAERIS,KANGAPUR,4,MOH,4.03175,35.5928
44,LODWAR DISTRICT HOSPITAL,2172,RIFT VALLEY,TURKANA,CENTRAL,LODWAR TOWN,NAPETET,1,MOH,3.1176,35.5998
15,KAKMTI DISP,2015,RIFT VALLEY,MARAKWET,TIRAP,KIPKANER,CHESIYO,4,MOH,1.1123,35.6012
25,IKUMBI DISP,3,RIFT VALLEY,NAKURU,KERINGET,CHEMANER,CHEMANERNAKURU,4,MOH,-0.419557,35.6018
17,KAMOGO DISP,2002,RIFT VALLEY,MARAKWET,TIRAP,KIPKANER,KIMUREN,4,MOH,1.0923,35.6023
39,TUNYO DISP,4849,RIFT VALLEY,MARAKWET,TUNYO,ARROR,NIWAI,4,MOH,0.93241,35.6024
16,EMETIK DISP,1721,RIFT VALLEY,NAKURU,OLENGURUONE,EMITIK,EMITIK,4,MOH,-0.62071,35.60274
40,TUTURUNG DISP,4891,RIFT VALLEY,MARAKWET,TIRAP,KIPKANER,CHESIYO,4,MOH,1.12009,35.6062
3,CHEGILET DISP,2469,RIFT VALLEY,KEIYO,TAMBACH,KEU,CHEGILET,4,MOH,0.834932,35.606731
41,MITI TATU DISP,3655,RIFT VALLEY,KERICHO,LONDIANI,MASAITA,KONGONIKERICHO,4,MOH,-0.088815,35.607
0,EMSEA DISP,1999,RIFT VALLEY,KEIYO,SOY,KIBARGOI,EMSEA,4,MOH,0.455433,35.608014
104,TINET DISP,4625,RIFT VALLEY,NAKURU,KERINGET,TINET,KAPNANDA,4,MOH,-0.47866,35.61255
56,SEGO DISP,0,RIFT VALLEY,KEIYO,SOY,SOY,SEGO,4,MOH,0.39105,35.612694
7,ARPOLO DISP,2177,RIFT VALLEY,WEST POKOT,CHESEGON,LOMUT,PTIASIS,4,MOH,1.37708,35.6136
34,MUSKUT HEALTH CENTRE,2023,RIFT VALLEY,KEIYO,SOY,SOY,MUSKUT,3,MOH,0.381272,35.6268
40,SIMOTWO DISP,2956,RIFT VALLEY,KEIYO,CHEPKORIO,METKEI,TUGUMOIKEIYO,4,MOH,0.190118,35.627383
45,TOT HEALTH CENTRE,2041,RIFT VALLEY,KEIYO,CHEPKORIO,MAOI,KETIGOI,3,MOH,0.26886,35.6354
3,AP KIBISHI DISP,3230,RIFT VALLEY,TURKANA,KIBISH,NAITA,NAITA,4,MOH,5.2123,35.6412
43,LOCHWAANGAMATAK DISP,353,RIFT VALLEY,TURKANA,LOKICHAR,LOCHWANGAMATAK,LOCHWANGAMATAK,4,MOH,2.79122,35.64123
36,MOGIL DISP,2021,RIFT VALLEY,MARAKWET,TUNYO,KABAIMWA,CHUGOR,4,MOH,1.06114,35.6415
12,KABETWA DISP,2001,RIFT VALLEY,MARAKWET,TOT,MOKORO,OLOT,4,MOH,1.17124,35.6512
3,ARAMA DISP,0,RIFT VALLEY,KOIBATEK,ELDAMA RAVINE,LEMBUS CENTRAL,POROR/ARAMA,4,MOH,0.066415,35.6515
11,CHEPAKUNDI DISP,2814,RIFT VALLEY,NAKURU,OLENGURUONE,KAPLAMAI,CHEPAKUNDI,4,MOH,-0.67506,35.6553
16,KAINUK DISP,3049,RIFT VALLEY,TURKANA,KAINUK,KAINUK,KAINUK,4,MOH,1.84694,35.6562
77,SALAWA H C,1973,RIFT VALLEY,BARINGO,SALAWA,KABARNET SOI,SALAWABARINGO,3,MOH,0.499544,35.6603
62,MOLO SOUTH DISP,1745,RIFT VALLEY,NAKURU,KERINGET,NYOTA,OLUBUMBU,4,MOH,-0.34235,35.66088
51,OLOLUNGA HEALTH CENTRE,1834,RIFT VALLEY,NAROK,OLOLULUNGA,OLOLULUNGA,OLOLULUNGA,3,MOH,-1.00872,35.6611
24,KAPLUK DISP,1940,RIFT VALLEY,BARINGO,BARWESA,KABUTEI,KAPLUK,4,MOH,0.568488,35.6678
58,TABARE DISP,0,RIFT VALLEY,KEIYO,CHEPKORIO,METKEI,KIBIRIRSUS,4,MOH,0.18851,35.668471
10,CHEBARA HEALTH CENTRE,3984,RIFT VALLEY,NAKURU,KERINGET,CHEBARA,CHEBARANAKURU,3,MOH,-0.47481,35.6792
47,OLMESUTIE DISP,1818,RIFT VALLEY,NAROK,LOITA,OLMESUTIE,OLMESUTIE,4,MOH,-1.9071,35.6802
37,KIBOINO DISP,1947,RIFT VALLEY,BARINGO,SALAWA,KIBOINO,KIBOINO,4,MOH,0.455398,35.6828
83,OLENGURUENE HEALTH CENTRE,1771,RIFT VALLEY,NAKURU,OLENGURUONE,AMALO,AMALO,3,MOH,-0.58851,35.68496
37,KERINGETI HEALTH CENTRE,2809,RIFT VALLEY,NAKURU,KERINGET,KERINGET,KERINGETNAKURU,3,MOH,-0.42267,35.6881
40,KINYACH DISP,1948,RIFT VALLEY,BARINGO,BARTABWA,KINYACH,KINYACH,4,MOH,0.914745,35.69
32,KASITET DISP,0,RIFT VALLEY,BARINGO,SALAWA,KAPROPITA SOI,SAGASAK,4,MOH,0.405846,35.6918
35,KETURWO DISP,1945,RIFT VALLEY,BARINGO,BARWESA,LAWAN,KETURWO,4,MOH,0.660923,35.6946
9,IGURE DISP,2423,RIFT VALLEY,KOIBATEK,ELDAMA RAVINE,MAJI MAZURI,MAKUTANOKOIBA,4,MOH,-0.088048,35.697514
6,BARWESA H C,1933,RIFT VALLEY,BARINGO,BARWESA,LAWAN,BARWESSA,3,MOH,0.713168,35.7013
14,MAJI MAZURI DISP,1959,RIFT VALLEY,KOIBATEK,ELDAMA RAVINE,MAJI MAZURI,MAJI MAZURIKOIBA,4,MOH,-0.022201,35.7101
22,KANAKURUDIO DISP,365,RIFT VALLEY,TURKANA,LOKITAUNG,KATABOI,KATIKO,4,MOH,3.82112,35.7124
20,KAPKELELWA DISP,1939,RIFT VALLEY,BARINGO,SACHO,SACHO SOI,KAPKELELWA,4,MOH,0.367105,35.7144
6,ELDAMA RAVINE DISTRICT HOSPITAL,1982,RIFT VALLEY,KOIBATEK,ELDAMA RAVINE,LEMBUS CENTRAL,POROR/ARAMA,1,MOH,0.05,35.7167
66,MOGORWA H C,1962,RIFT VALLEY,BARINGO,TENGES,EMOM,CHEPLAMBUS,3,MOH,0.304039,35.7189
42,LOCHWA DISP,0,RIFT VALLEY,TURKANA,LOKICHAR,LOCHWANGAMATAK,NAPUSIMORU,4,MOH,2.63871,35.7197
34,KAPSIMBEIYWO DISP,3846,RIFT VALLEY,NAKURU,KERINGET,KAPSIMBEIYWO,KAPSIMBEIYWO,4,MOH,-0.48331,35.72376
58,LOIWAT DISP,3437,RIFT VALLEY,BARINGO,KOLLOWA,LOIWAT,LOIWAT,4,MOH,1.04812,35.7239
55,OLPASIMORU DISP,1819,RIFT VALLEY,NAROK,OLOKURTO,OLPUSIMORU,OLPUSIMORU,4,MOH,-0.56756,35.725
28,BARINGO HIGH SCHOOL DISP,3494,RIFT VALLEY,KOIBATEK,ELDAMA RAVINE,ELDAMA RAVINE,ELDAMA RAVINE,9,MOH,0.05168,35.733737
15,KABARNET DISTRICT HOSPITAL,1988,RIFT VALLEY,BARINGO,KABARNET,KABARNET MOSOP,KEWAMOI,1,MOH,0.4951,35.735
23,KAPKOLE DISP,1565,RIFT VALLEY,BARINGO,KABARNET,OROKWO,KAPCHEPTERIT,4,MOH,0.53378,35.7351
22,SIGORO DISP,3853,RIFT VALLEY,KOIBATEK,ELDAMA RAVINE,CHEMORGONG,SIGORO,4,MOH,0.12724,35.7352
91,KABARNET HIGH SCH. DISP,3752,RIFT VALLEY,BARINGO,KABARNET,KABARNET MOSOP,SEGUTON,9,MOH,0.502247,35.7387
26,KAPTIONY DISP,1941,RIFT VALLEY,BARINGO,BARWESA,LAWAN,BARWESSA,4,MOH,0.702451,35.7401
61,MOLO HOSPITAL,1781,RIFT VALLEY,NAKURU,MOLO,MOLO,MOLO,1,MOH,-0.24499,35.74045
27,KAPTUM DISP,1942,RIFT VALLEY,BARINGO,KABARTONJO,OSSEN,KAPTUMBARINGO,4,MOH,0.622743,35.7488
19,SABATIA DISP,3423,RIFT VALLEY,KOIBATEK,ESAGERI,SABATIA,KIROBON,4,MOH,-0.00833,35.7502
13,CHEPLAMBUS DISP,3751,RIFT VALLEY,BARINGO,TENGES,EMOM,CHEPLAMBUS,4,MOH,0.284218,35.7504
52,LOKITAUNG SUB-DISTRICT HOSP.,2173,RIFT VALLEY,TURKANA,LOKITAUNG,LOKITAUNG,NAKALALELOKITAUNG,1,MOH,4.2679,35.7514
23,SIRWA DISP,1975,RIFT VALLEY,KOIBATEK,SIRWA,SIRWA,SORE,4,MOH,0.200494,35.7517
25,KAPROPITA GIRLS HIGH SCH. DISP,2906,RIFT VALLEY,BARINGO,KABARNET,KAPROPITA,KINYO,4,MOH,0.488733,35.7522
11,KIPTUMO DISP,2540,RIFT VALLEY,KOIBATEK,ELDAMA RAVINE,ELDAMA RAVINE,TUIYOTICH,4,MOH,0.060688,35.7529
88,TIRIONDONIN DISP,3426,RIFT VALLEY,BARINGO,KABARTONJO,OSSEN,TIRIONDONIN,4,MOH,0.650876,35.7555
81,SUMEIYON DISP,3425,RIFT VALLEY,BARINGO,KABARTONJO,KATIORIN,SUMEIYON,4,MOH,0.583894,35.7555
50,KOLOA H C,3436,RIFT VALLEY,BARINGO,KOLLOWA,KOLLOWA,KOLLOWA,3,MOH,1.2162,35.7587
24,SOLIAN DISP,3850,RIFT VALLEY,KOIBATEK,ESAGERI,SABATIA,SOLIAN,4,MOH,0.009259,35.765234
0,KALABATA DISP,0,RIFT VALLEY,BARINGO,BARTABWA,KINYACH,KALABATA,4,MOH,0.94,35.77
9,BOSSEI DISP,1934,RIFT VALLEY,BARINGO,KABARTONJO,KELIO,KAPKIAMO,4,MOH,0.682357,35.777
55,MARIASHONI DISP,4620,RIFT VALLEY,NAKURU,ELBURGON,MARIASHONI,KITIRO,4,MOH,-0.363296,35.7784
8,BOROWININ DISP,0,RIFT VALLEY,BARINGO,KABARNET,KAPROPITA,KAPSOO/BOROWONI,4,MOH,0.440082,35.7792
36,KIBISH DISP,2144,RIFT VALLEY,TURKANA,KIBISH,KIBISH,KIBISH,4,MOH,5.387024,35.779489
8,ESAGERI DISP,1938,RIFT VALLEY,KOIBATEK,ESAGERI,SABATIA,LEBOLOS,4,MOH,-0.064319,35.781806
93,SACHO HIGH SCH. DISP,1971,RIFT VALLEY,BARINGO,SACHO,SACHO MOSOP,KABARAK,9,MOH,0.383322,35.7819
13,LEBOLOS DISP,4411,RIFT VALLEY,KOIBATEK,ESAGERI,SABATIA,LEBOLOS,4,MOH,-0.043385,35.78213
21,KAPKIAMO DISP,0,RIFT VALLEY,BARINGO,KABARTONJO,KELIO,KAPKIAMO,4,MOH,0.655565,35.7823
27,TUIYOTICH DISP,0,RIFT VALLEY,KOIBATEK,ESAGERI,LEMBUS-KABIMOI,KABIMOI,4,MOH,0.030198,35.7825
64,MUKINYAI DISP/SACHANGWAN,2752,RIFT VALLEY,NAKURU,MOLO,SACHANGWAN,KABIANGANAKURU,4,MOH,-0.20245,35.78406
47,KITURO H C,1954,RIFT VALLEY,BARINGO,KABARNET,KITURO,KITURO,3,MOH,0.484228,35.7846
56,OLUKURTO HEALTH CENTRE,1832,RIFT VALLEY,NAROK,OLOKURTO,OLOKURTO,OLOKURTO,3,MOH,-0.683834,35.7863
78,SERETUNIN SUB-H C,1994,RIFT VALLEY,BARINGO,KABARNET,EWALEL,SERETUNIN,3,MOH,0.556304,35.7864
16,KABARTONJO H C,1983,RIFT VALLEY,BARINGO,KABARTONJO,OSSEN,TIRIONDONIN,3,MOH,0.626092,35.7877
45,KIPTAGICH H C,1984,RIFT VALLEY,BARINGO,SACHO,SACHO MOSOP,KESETAN,3,MOH,0.358997,35.7909
38,NKARETA DISP,1814,RIFT VALLEY,NAROK,CENTRAL,NKARETA,NKARETA,4,MOH,-0.943775,35.791
33,KASOK DISP,0,RIFT VALLEY,BARINGO,KIPSARAMAN,KAPKATA,KAPKOIWA,4,MOH,0.723215,35.7971
86,TIMBOIYWO DISP,1979,RIFT VALLEY,BARINGO,SACHO,KABASIS,TIMBOIYWO,4,MOH,0.422063,35.7972
87,TIRIMIONIN DISP,3861,RIFT VALLEY,BARINGO,KABARTONJO,SAIMO,TIRIMIONIN,4,MOH,0.654225,35.8044
84,TENGES H C,1987,RIFT VALLEY,BARINGO,TENGES,TENGES,TENGES,3,MOH,0.327464,35.8045
75,POI DISP,1968,RIFT VALLEY,BARINGO,KIPSARAMAN,KAPKATA,TERIKKIPSARAMAN,4,MOH,0.748719,35.8064
17,EWASO NYIRO DISP,1825,RIFT VALLEY,NAROK,CENTRAL,LOWER MELILI,NAROK TOWN,4,MOH,-1.10613,35.8072
15,ELBURGON HOSPITAL,1764,RIFT VALLEY,NAKURU,ELBURGON,ELBURGON,ELBURGON,1,MOH,-0.30325,35.80739
82,TALAI DISP,1977,RIFT VALLEY,BARINGO,KABARNET,TALAI,KAPTUMOBARINGO,4,MOH,0.586035,35.809
1,AIYEBO DISP,0,RIFT VALLEY,BARINGO,KABARTONJO,SAIMO,TIRIMIONIN,4,MOH,0.667621,35.8125
21,SAOS DISP,0,RIFT VALLEY,KOIBATEK,ELDAMA RAVINE,SAOS/KIBIAS,SAOS,4,MOH,0.111879,35.8134
39,KIMUGUL DISP,2426,RIFT VALLEY,BARINGO,KIPSARAMAN,KAPTEBEREWO,ISSAS,4,MOH,0.713168,35.8145
10,KAPKEIN DISP,3435,RIFT VALLEY,KOIBATEK,KIMNG'OROM,CHEBEREN,CHEBEREN,4,MOH,0.249041,35.8157
20,SAGAT DISP,1972,RIFT VALLEY,KOIBATEK,ESAGERI,LEMBUS-KABIMOI,ORONGAI,4,MOH,0.053315,35.8157
4,BARTABWA DISP,1931,RIFT VALLEY,BARINGO,BARTABWA,NGOROBA,KESUMET,4,MOH,0.836503,35.816
90,BARTOLIMO SEC SCHOOL DISP,3492,RIFT VALLEY,BARINGO,KIPSARAMAN,KAPTEBEREWO,BARTOLIMO,9,MOH,0.686376,35.8192
18,KAPCHEPKOR DISP,2415,RIFT VALLEY,BARINGO,KABARTONJO,SAIMO,KAPCHEPKOR,4,MOH,0.624083,35.8192
70,NGETMOI DISP,1965,RIFT VALLEY,BARINGO,KABARNET,NGETIMOI,TIRIONY,4,MOH,0.416657,35.8207
5,BARTOLIMO DISP,1932,RIFT VALLEY,BARINGO,KIPSARAMAN,KAPTEBEREWO,BARTOLIMO,4,MOH,0.691064,35.8225
28,KAPTUMIN DISP,3849,RIFT VALLEY,BARINGO,KABARTONJO,SAIMO,TIRIMIONIN,4,MOH,0.654225,35.8225
45,LELECHWET DISP,1735,RIFT VALLEY,NAKURU,RONGAI,BOROR,BOROR,4,MOH,-0.2212,35.83034
31,KASISIT DISP,1944,RIFT VALLEY,BARINGO,KABARTONJO,SAIMO,KASISIT,4,MOH,0.63614,35.8312
29,MORIJO LOITA DISP,1807,RIFT VALLEY,NAROK,LOITA,MORIJO LOITA,MORIJO LOITA,4,MOH,-1.71902,35.8357
42,KIPCHERERE DISP,1950,RIFT VALLEY,BARINGO,KABARTONJO,BARTUM,KAPCHERERE,4,MOH,0.604054,35.8585
76,SABOR DISP,1970,RIFT VALLEY,BARINGO,MARIGAT,KIMALEL,SABOR,4,MOH,0.402363,35.8586
92,RONGAI HEALTH CENTRE,1772,RIFT VALLEY,NAKURU,RONGAI,RONGAI,RONGAINAKURU,3,MOH,-0.17066,35.85911
52,KORIEMA DISP,3851,RIFT VALLEY,BARINGO,MARIGAT,KIMALEL,KORIEMA,4,MOH,0.481214,35.861213
77,NYAKIAMBI DISP,2831,RIFT VALLEY,NAKURU,ELBURGON,MARIASHONI,NDOSHWA,4,MOH,-0.33124,35.86123
34,NAROK DISTRICT HOSPITAL,1838,RIFT VALLEY,NAROK,CENTRAL,LOWER MELILI,NAROK TOWN,1,MOH,-1.0961,35.8636
36,KIBINGOR DISP,1946,RIFT VALLEY,BARINGO,KABARNET,KIMONDIS,KATEMWO,4,MOH,0.520266,35.8648
35,NAROSURA HEALTH CENTRE,2383,RIFT VALLEY,NAROK,OSUPUKO,NAROOSURA,NAROOSURA,3,MOH,-1.53825,35.8675
7,EMINING HEALTH CENTRE,1992,RIFT VALLEY,KOIBATEK,EMINING,KIMOSE,KIMOSE,3,MOH,0.214364,35.8711
15,ENTOLTOL DISP,3220,RIFT VALLEY,NAROK,OLOKURTO,ENABELIBEL,KISIRIRI,4,MOH,-0.940773,35.879847
38,KIMALEL H C,3753,RIFT VALLEY,BARINGO,MARIGAT,KIMALEL,KORIEMA,3,MOH,0.477825,35.8828
7,BEKIBON DISP,2424,RIFT VALLEY,BARINGO,TENGES,BEKIBON,BEKIBON,4,MOH,0.339176,35.8855
4,CHEBEREN DISP,1935,RIFT VALLEY,KOIBATEK,EMINING,KIMOSE,KIMOSE,4,MOH,0.22207,35.8873
9,ENABELBEL HEALTH CENTRE,1826,RIFT VALLEY,NAROK,OLOKURTO,ENABELIBEL,ENENGETIA,3,MOH,-0.834185,35.8925
75,NESSUIT DISP,1751,RIFT VALLEY,NAKURU,NJORO,NESSUIT,NESSUIT,4,MOH,-0.39088,35.89834
49,OLOLPIRONITO DISP,1833,RIFT VALLEY,NAROK,OLOKURTO,OLORROPIL,TOPOTI,4,MOH,-0.904242,35.907
53,KOROTO DISP,3754,RIFT VALLEY,BARINGO,KABARTONJO,BARTUM,KOROTO,4,MOH,0.630781,35.9129
77,NAMAKUSE DISP,2158,RIFT VALLEY,TURKANA,KALOKOL,NAMUKUSE,NAMUKUSE,4,MOH,3.543094,35.919286
70,MACHEKWI DISPESARY,2155,RIFT VALLEY,TURKANA,KALOKOL,NAMUKUSE,NAMUKUSE,4,MOH,3.45123,35.9211
89,YATYA DISP,2418,RIFT VALLEY,BARINGO,KIPSARAMAN,KAPKATA,BARKETIEW,4,MOH,0.796428,35.9305
76,NJORO HEALTH CENTRE,1770,RIFT VALLEY,NAKURU,NJORO,NJORO,NJORONAKURU,3,MOH,-0.33138,35.93812
41,KIPSYENAN HEALTH CENTRE,4629,RIFT VALLEY,NAKURU,RONGAI,KAMPI YA MOTO,MAKUTANONAKURU,3,MOH,-0.08323,35.9429
103,TERET DISP,1761,RIFT VALLEY,NAKURU,MAUCHE,TERET,TERET,4,MOH,-0.45114,35.94684
30,KAMPI YA MOTO DISP,3848,RIFT VALLEY,NAKURU,RONGAI,KAMPI YA MOTO,MAKUTANONAKURU,4,MOH,-0.138485,35.9473
33,KAPSETEK DISP,3983,RIFT VALLEY,NAKURU,NJORO,NJORO,NJORONAKURU,4,MOH,-0.32,35.95
53,MANGU DISP,2775,RIFT VALLEY,NAKURU,RONGAI,LENGINET,KAMUNGEINAKURU,4,MOH,-0.21836,35.95306
82,OGILGEI DISP,4613,RIFT VALLEY,NAKURU,NJORO,NGATA,NGATA,4,MOH,-0.29438,35.9559
47,LIKIA DISP,1736,RIFT VALLEY,NAKURU,MAU NAROK,MAU NAROK,SIAPEI,4,MOH,-0.53282,35.96498
41,OLCHORO DISP,1815,RIFT VALLEY,NAROK,MAU,OLCHORRO,SONKORO,4,MOH,-0.834423,35.9651
27,KABARAK HIGH SCHOOL H C,1727,RIFT VALLEY,NAKURU,RONGAI,KAMPI YA MOTO,MAKUTANONAKURU,4,MOH,-0.16334,35.967
62,MARIGAT H C,1985,RIFT VALLEY,BARINGO,MARIGAT,MARIGAT,YATOI,3,MOH,0.487792,35.9782
46,LENGINET DISP,2419,RIFT VALLEY,NAKURU,RONGAI,LENGINET,KAMUNGEINAKURU,4,MOH,-0.20297,35.9802
66,MUTARAKWA DISP,1746,RIFT VALLEY,NAKURU,NJORO,KIHINGO,LUSIRU,4,MOH,-0.46006,35.98509
11,CHEMALENGOT H C,3854,RIFT VALLEY,BARINGO,NGINYANG,RIBKWO,CHESAKAM,3,MOH,0.987236,35.9877
56,MAU NAROK HEALTH CENTRE,1769,RIFT VALLEY,NAKURU,MAU NAROK,MAU NAROK,SIAPEI,3,MOH,-0.59855,35.98812
35,KERIO DISP,2143,RIFT VALLEY,TURKANA,KALOKOL,KANGATOTHA,ELIYE,4,MOH,3.10457,35.9915
94,SIAPEI HEALTH CENTRE,0,RIFT VALLEY,NAKURU,MAU NAROK,MAU NAROK,SIAPEI,3,MOH,-0.597156,35.9929
60,MOGOTIO RHDC,1791,RIFT VALLEY,NAKURU,RONGAI,MAKONGENI,LOMOLO,3,MOH,-0.02213,35.995321
90,RARE DISP,1755,RIFT VALLEY,NAKURU,LARE,LARE,NGURIGA,4,MOH,-0.44341,36.0069
85,OLRONGAI DISP,4631,RIFT VALLEY,NAKURU,RONGAI,KAMPI YA MOTO,MENENGAI,4,MOH,-0.177176,36.0089
71,NGINYANG HC,1986,RIFT VALLEY,BARINGO,NGINYANG,LOYAMOROK,NGINYANG EAST,3,MOH,0.968155,36.0202
17,KAMPI YA SAMAKI SUB-H C,1993,RIFT VALLEY,BARINGO,KABARTONJO,BARTUM,AKORIAN,3,MOH,0.641564,36.0224
89,PWANI DISP,3987,RIFT VALLEY,NAKURU,LARE,NAISHI,PWANI,4,MOH,-0.39012,36.02324
32,KAPKURES DISP,3871,RIFT VALLEY,NAKURU,NAKURU MUNI.,BARUTI,BARUTI,4,MOH,-0.30815,36.03814
6,ELIYE SPRINGS DISP,4299,RIFT VALLEY,TURKANA,KALOKOL,KANGATOTHA,ELIYE,4,MOH,3.24266,36.0402
26,INDUSTRIAL AREA DISP,3499,RIFT VALLEY,NAKURU,NAKURU MUNI.,KAPTEMBWO,VIWANDA,4,MOH,-0.28027,36.04289
22,KOJONGA DISP,1802,RIFT VALLEY,NAROK,MAU,ILDAMAT,OLOPIKINDONGOE,4,MOH,-0.987466,36.0485
61,LORUK DISP,1958,RIFT VALLEY,BARINGO,NGINYANG,LOYAMOROK,KECHII L.KONGASIS,4,MOH,0.731265,36.0523
39,KIANJOYA DISP,2810,RIFT VALLEY,NAKURU,MAU NAROK,MAU NAROK,KIANJOYA,4,MOH,-0.54155,36.05639
17,MUGURIN DISP,3012,RIFT VALLEY,KOIBATEK,MOGOTIO,KOIBOS,KOITUMET,4,MOH,0.147325,36.0569
43,LAKE NAKURU PARK DISP,0,RIFT VALLEY,NAKURU,NAKURU MUNI.,LAKE NAKURU,LAKE NAKURUNAT.PARK,4,MOH,-0.372455,36.0571
69,NG'AMBO DISP,3422,RIFT VALLEY,BARINGO,MARIGAT,NGAMBO,NG'AMBO,4,MOH,0.499182,36.0608
71,NAKURU WEST DISP,1750,RIFT VALLEY,NAKURU,NAKURU MUNI.,KAPTEMBWO,VIWANDA,4,MOH,-0.29119,36.06187
13,ENTASOPIA HEALTH CENTRE,1515,RIFT VALLEY,KAJIADO,MAGADI,OLKIRAMATIAN,ENTASOPIA,3,MOH,-1.700811,36.063152
57,LOBOI DISP,1957,RIFT VALLEY,BARINGO,MARIGAT,LOBOI,MAJI NDEGE,4,MOH,0.3568,36.0679
44,LANGALANGA DISP,1734,RIFT VALLEY,NAKURU,NAKURU MUNI.,CENTRAL,BAHARINI,4,MOH,-0.29958,36.07136
12,KISANANA HEALTH CENTRE,1952,RIFT VALLEY,KOIBATEK,MOGOTIO,SIMOTWE,MUGURIN,3,MOH,0.11419,36.0723
70,NAKURU PROVINCIAL GENERAL HOSP,1783,RIFT VALLEY,NAKURU,NAKURU MUNI.,CENTRAL,AFRAHA,2,MOH,-0.28133,36.0732
15,MAJI MOTO DISP,1960,RIFT VALLEY,KOIBATEK,MOGOTIO,KOIBOS,MAJI MOTOKOIBA,4,MOH,0.299368,36.075161
8,BANITA DISP,1715,RIFT VALLEY,NAKURU,RONGAI,MAKONGENI,BANITA,4,MOH,-0.07274,36.07525
69,NAKURU PGH ANNEX,3842,RIFT VALLEY,NAKURU,NAKURU MUNI.,CENTRAL,AFRAHA,2,MOH,-0.2797,36.08029
100,STATE HOUSE NAKURU DISP,1758,RIFT VALLEY,NAKURU,NAKURU MUNI.,CENTRAL,AFRAHA,4,MOH,-0.28154,36.08157
19,KAPEDO SUB-DISTRICT HOSPITAL,0,RIFT VALLEY,BARINGO,NGINYANG,RIBKWO,KAPEDO WEST,1,MOH,1.159,36.0901
25,KANGATOSSA DISP,2139,RIFT VALLEY,TURKANA,KALOKOL,KANGATOTHA,NAOROS,4,MOH,3.16336,36.1138
58,MITI MINGI H C,2380,RIFT VALLEY,NAKURU,GILGIL,MITI MINGI,ELEMENTAITA,3,MOH,-0.554322,36.1199
7,BAHATI RHDC NAKURU,1789,RIFT VALLEY,NAKURU,BAHATI,BAHATI,BAHATI,3,MOH,-0.16743,36.12324
45,MOSIRO DISP,1808,RIFT VALLEY,KAJIADO,NGONG,MOSIRO,MOSIROKAJIADO,4,MOH,-1.46313,36.1252
18,OLKOKWE DISP,1966,RIFT VALLEY,KOIBATEK,KISANANA,OLKOKWE,OLKOKWE,4,MOH,0.160424,36.1254
105,UPPER SOLAI HEALTH CENTRE,1775,RIFT VALLEY,NAKURU,BAHATI,SOLAI,NYADUNDO,3,MOH,-0.09957,36.12654
17,ENGASHURA DISP,3455,RIFT VALLEY,NAKURU,BAHATI,BAHATI,KABATINI,4,MOH,-0.25569,36.13368
57,SAKUTIEK DISP,1835,RIFT VALLEY,NAROK,MAU,UPPER MELILI,SAKUTIEK,4,MOH,-0.869979,36.135248
10,ENAIBOR AJIKJIK DISP,1809,RIFT VALLEY,NAROK,MAU,UPPER MELILI,ENAIBOR AJIJIK,4,MOH,-0.785478,36.1361
57,OLKIRAMATIAN DISP,1531,RIFT VALLEY,KAJIADO,MAGADI,OLKIRAMATIAN,OLKIRAMATIAN,4,MOH,-1.90082,36.1455
32,NAIREGI ENKARE HEALTH CENTRE,1830,RIFT VALLEY,NAROK,MAU,KEEKONYOKIE,KEEKONYOKIE,3,MOH,-1.03713,36.1483
57,MBOGONI HEALTH CENTRE,2777,RIFT VALLEY,NAKURU,MBOGOINI,MAJI TAMU,CHEMASIS,3,MOH,0.020773,36.1484
6,BAHATI DISP,1714,RIFT VALLEY,NAKURU,BAHATI,BAHATI,CHANIA,4,MOH,-0.15104,36.15276
28,KABATINI DISP,1728,RIFT VALLEY,NAKURU,BAHATI,BAHATI,WENDO,4,MOH,-0.21116,36.16205
38,KIAMBOGO DISP,4431,RIFT VALLEY,NAKURU,GILGIL,KIAMBOGO,KONGASIS,4,MOH,-0.607967,36.1657
29,KABAZI DISP,4433,RIFT VALLEY,NAKURU,BAHATI,KABAZI,KABAZI,4,MOH,-0.07341,36.16727
49,LOWER SOLAI H C,1739,RIFT VALLEY,NAKURU,MBOGOINI,MAJI TAMU,LOWER SOLAI,3,MOH,0.03186,36.16924
51,OLDOGO DISP,0,RIFT VALLEY,KAJIADO,MAGADI,OLKIRAMATIAN,OLKIRAMATIAN,4,MOH,-1.88,36.17
0,OL-ARABEL DISP,0,RIFT VALLEY,BARINGO,MUKUTANI,ARABAL,ARABAL,4,MOH,0.45,36.18
65,MOCHONGOI H C,3427,RIFT VALLEY,BARINGO,MOCHONGOI,MOCHONGOI,MOCHONGOI,3,MOH,0.316934,36.1847
16,ERRETO DISP,3659,RIFT VALLEY,NAROK,MAU,SUSWA,OLOIKARERE,4,MOH,-1.153255,36.201253
74,SHOMBOLE DISP,2360,RIFT VALLEY,KAJIADO,MAGADI,SHOMPOLE,OLOEKA,4,MOH,-2.0637,36.2026
51,MAIELLA HEALTH CENTRE,2774,RIFT VALLEY,NAKURU,NAIVASHA,MAIELLA,MAIELLA,3,MOH,-0.916299,36.2144
30,KASIELA DISP,1943,RIFT VALLEY,BARINGO,MOCHONGOI,CHEBINYINY,KASIELA,4,MOH,0.430839,36.2146
78,NYAMAMITHI DISP,2828,RIFT VALLEY,NAKURU,MBOGOINI,WASEGES,NYAMAMITHI,4,MOH,0.11517,36.22108
72,NDABIBI DISP,1752,RIFT VALLEY,NAKURU,NAIVASHA,MOINDABI,KIPKONYO,4,MOH,-0.764975,36.2233
101,SUBUKIA HEALTH CENTRE,1773,RIFT VALLEY,NAKURU,MBOGOINI,SUBUKIA,SUBUKIA EAST,3,MOH,0.00554,36.22949
31,NGORIKA DISP,412,CENTRAL,NYANDARUA,OL KALOU,NGORIKA,NGORIKA,4,MOH,-0.313633,36.23
74,NDUNDORI HEALTH CENTRE,2827,RIFT VALLEY,NAKURU,BAHATI,DUNDORI,DUNDORI,3,MOH,-0.235677,36.2339
58,LOMELO DISP,0,RIFT VALLEY,TURKANA,LOMELO,LOMELO,LOMELO,4,MOH,1.43688,36.2472
19,MIRANGINE HEALTH CENTRE,431,CENTRAL,NYANDARUA,OL KALOU,NDUNDORI,MELANGINE,3,MOH,-0.206317,36.254
49,TUMAINI DISP,423,CENTRAL,NYANDARUA,OL KALOU,TUMAINI,KANJUIRI,4,MOH,-0.271357,36.2638
38,NYS TUMAINI DISP,3361,CENTRAL,NYANDARUA,OL KALOU,TUMAINI,KANJUIRI,4,MOH,-0.283714,36.269
45,SILIBWET DISP,418,CENTRAL,NYANDARUA,OL JORO OROK,GATANJE,SILIBWETNYANDA,4,MOH,-0.043717,36.2833
30,NGANO H C,410,CENTRAL,NYANDARUA,OL JORO OROK,GATANJE,NGANO,3,MOH,-0.095749,36.2833
83,TANGULBEI DISP,1978,RIFT VALLEY,BARINGO,TANGULBEI,TANGULBEI,TANGULBEI,4,MOH,0.809574,36.2872
91,ROCCO DISP,1756,RIFT VALLEY,NAKURU,NAIVASHA,MALEWA,TARAMBETE,4,MOH,-0.75123,36.29123
29,NEW TUMAINI DISP,0,CENTRAL,NYANDARUA,OL KALOU,TUMAINI,KANJUIRI,4,MOH,-0.342321,36.292321
9,KARUGA DISP,0,RIFT VALLEY,LAIKIPIA,NYAHURURU,IGWAMITI,LOSOGWA,4,MOH,0.056298,36.2928
28,NDINDIKA HEALTH CENTRE,2374,RIFT VALLEY,LAIKIPIA,NGARUA,KINAMBA,MWENJE,3,MOH,0.446367,36.295492
39,OR- ARABEL DISP,1699,RIFT VALLEY,LAIKIPIA,NGARUA,GITUAMBA,KIAMBOGOLAIKIPIA,4,MOH,0.3,36.3
32,NGARUA HEALTH CENTRE,1707,RIFT VALLEY,LAIKIPIA,NGARUA,GITUAMBA,KIAMBOGOLAIKIPIA,3,MOH,0.291558,36.303527
14,EBURRU DISP,1719,RIFT VALLEY,NAKURU,GILGIL,GILGIL,EBURRU,4,MOH,-0.584415,36.307
8,KARANDI HEALTH CENTRE,0,RIFT VALLEY,LAIKIPIA,NGARUA,GITUAMBA,KIAMBOGOLAIKIPIA,3,MOH,0.288593,36.3102
80,NYS GILGIL DISP,1723,RIFT VALLEY,NAKURU,GILGIL,GILGIL,GILGIL,4,MOH,-0.47958,36.31161
25,MUTHENGERA DISP,0,RIFT VALLEY,LAIKIPIA,RUMURUTI,MUTHENGERA,MUTHENGERA,4,MOH,0.219121,36.3167
18,MAWINGU DISP,0,CENTRAL,NYANDARUA,OL KALOU,OL KALOU,MAWINGONYANDA,4,MOH,-0.34225,36.3223
19,GILGIL HOSPITAL,1790,RIFT VALLEY,NAKURU,GILGIL,GILGIL,GILGIL,1,MOH,-0.50339,36.32343
15,MAINA & MWANGI HEALTH CENTRE,429,CENTRAL,NYANDARUA,OL JORO OROK,OL JORO OROK,NYAIROKO,3,MOH,-0.144529,36.3269
28,NEW MAWINGO DISP,409,CENTRAL,NYANDARUA,OL KALOU,OL KALOU,MAWINGONYANDA,4,MOH,-0.312321,36.332321
59,OLOIKA DISP,1530,RIFT VALLEY,KAJIADO,MAGADI,MAGADI,OLKERIMAGADI,4,MOH,-2.001866,36.332802
5,ASTU GILGIL DISP,2812,RIFT VALLEY,NAKURU,GILGIL,GILGIL,GILGIL,4,MOH,-0.46977,36.33384
22,MUHOTETU DISP,1696,RIFT VALLEY,LAIKIPIA,NGARUA,MUHOTETU,MUHOTETU,4,MOH,0.295105,36.3384
37,NYAHURURU DISTRICT HOSPITAL,437,CENTRAL,NYANDARUA,OL JORO OROK,GATIMU,GIKINGI,1,MOH,0.023274,36.3418
17,MAINA DISP,0,RIFT VALLEY,LAIKIPIA,NYAHURURU,MUTITU,NGORU,4,MOH,0.071787,36.3448
40,OL'BOROSAT DISP,414,CENTRAL,NYANDARUA,OL JORO OROK,GATANJE,GATHANJE,4,MOH,-0.046969,36.3483
53,OLDOROKO DISP,4559,RIFT VALLEY,KAJIADO,MAGADI,MAGADI,MAGADIKAJIADO,4,MOH,-1.896213,36.35116
57,LOKWII DISP,2147,RIFT VALLEY,TURKANA,LOKORI,LOKORI,LOTUBAE,4,MOH,2.02338,36.3584
14,EREMITI DISP,1516,RIFT VALLEY,KAJIADO,NGONG,CENTRAL KEEKONYOKIE,EREMIT,4,MOH,-1.389954,36.362888
34,NORTH MARMANET DISP,439,RIFT VALLEY,LAIKIPIA,NYAHURURU,MAINA,MAINALAIKIPIA,4,MOH,0.03,36.37
4,ELELEA DISP,2129,RIFT VALLEY,TURKANA,LOKORI,KATILIA,ELELEA,4,MOH,2.141,36.372
42,OL'KALOU DISTRICT HOSPITAL,438,CENTRAL,NYANDARUA,OL KALOU,OL KALOU,MUNYEKI,1,MOH,-0.2707,36.3735
52,OLDONYONYOIKE DISP,4558,RIFT VALLEY,KAJIADO,MAGADI,OLDONYO NYOIKE,KOORA,4,MOH,-1.79685,36.3739
53,LAIKIPIA CAMPUS DISP,4401,RIFT VALLEY,LAIKIPIA,NYAHURURU,MAINA,MAINALAIKIPIA,9,MOH,0.032007,36.374279
38,OLJABET SUB HEALTH CENTRE,2376,RIFT VALLEY,LAIKIPIA,RUMURUTI,MUTHENGERA,GAITI,3,MOH,0.182776,36.3767
16,MAHIANJU DISP,0,RIFT VALLEY,LAIKIPIA,NYAHURURU,MUTITU,NGORU,4,MOH,0.067444,36.3911
44,SIPILI DISP,1711,RIFT VALLEY,LAIKIPIA,NGARUA,SIPILI,DIM COM,4,MOH,0.424012,36.394501
55,OLGUMI DISP,3142,RIFT VALLEY,KAJIADO,NGONG,NORTH KEEKONYOKIE,OLGUMI,4,MOH,-1.108503,36.398071
77,TOROSEI DISP,1538,RIFT VALLEY,KAJIADO,CENTRAL,TOROSEI,EMUKUTAN,4,MOH,-2.21164,36.4103
0,KAIMBAGA DISP,0,CENTRAL,NYANDARUA,OL KALOU,RURII,RURII,4,MOH,-0.210357,36.419674
13,LESHAU PONDO HEALTH CENTRE,428,CENTRAL,NYANDARUA,OL JORO OROK,WERU,GATUMBIRONYAND,3,MOH,-0.092321,36.421123
54,GK PRISON DISP,401,CENTRAL,NYANDARUA,NDARAGWA,KIRIITA,MAIRO-INYA,9,MOH,0.032123,36.42123
8,ILLERET SUB HEALTH CENTRE,1053,EASTERN,MARSABIT,NORTH HORR,ILLERET,ILLERET,3,MOH,4.04737,36.4309
35,KARAGITA DISP,3510,RIFT VALLEY,NAKURU,NAIVASHA,HELL'S GATE,MIRERA,4,MOH,-0.77405,36.43126
16,MAINA VILLAGE DISP,3211,CENTRAL,NYANDARUA,NDARAGWA,KIRIITA,SHAURI,4,MOH,0.062321,36.432321
67,NAIVASHA DISTRICT HOSPITAL,1782,RIFT VALLEY,NAKURU,NAIVASHA,NAIVASHA TOWN,SOKONINAKURU,1,MOH,-0.71633,36.43753
25,NDEMI DISP,408,CENTRAL,NYANDARUA,KIPIPIRI,MALEWA,NDEMI,4,MOH,-0.338998,36.4413
50,TURASHA DISP,424,CENTRAL,NYANDARUA,KIPIPIRI,LERESHWA,KIRIKONYANDARUA,4,MOH,-0.447615,36.4426
1,BAARI DISP,166,CENTRAL,NYANDARUA,NDARAGWA,LESHAU,KARAGOINI,4,MOH,-0.002742,36.4433
46,NAJILE DISP,3112,RIFT VALLEY,KAJIADO,NGONG,NORTH KEEKONYOKIE,NAJILE,4,MOH,-1.237454,36.444801
48,SUBUKU DISP,420,CENTRAL,NYANDARUA,NDARAGWA,KANYAGIA,KANYAGIA,4,MOH,-0.0977,36.4621
42,SALAMA DISP,1701,RIFT VALLEY,LAIKIPIA,RUMURUTI,SALAAMA,SALAAMA,4,MOH,0.140788,36.464975
65,OLTEPESI DISP,1534,RIFT VALLEY,KAJIADO,NGONG,CENTRAL KEEKONYOKIE,OLTEPESI,4,MOH,-1.55811,36.4728
12,KIRIMA DISP,403,CENTRAL,NYANDARUA,NDARAGWA,SHAMATA,KIRIMANYANDARUA,4,MOH,-0.186805,36.4765
8,KAHEMBE DISP,4506,CENTRAL,NYANDARUA,NDARAGWA,MATHINGIRA,NDIVAI,4,MOH,0.039534,36.4771
36,OL MORAN DISP,2377,RIFT VALLEY,LAIKIPIA,NGARUA,SIPILI,DONYO-LOIP,4,MOH,0.544768,36.4773
36,KARATE DISP,1729,RIFT VALLEY,NAKURU,NAIVASHA,MALEWA,KARATINAKURU,4,MOH,-0.68848,36.47842
22,ILMAKUTANI DISP,2378,RIFT VALLEY,KAJIADO,CENTRAL,TOROSEI,EMUKUTAN,4,MOH,-2.171036,36.48369
81,NYS NAIVASHA DISP,1747,RIFT VALLEY,NAKURU,NAIVASHA,NAIVASHA EAST,MUNUNGA,4,MOH,-0.64834,36.48788
21,MURUNGARU DISP,405,CENTRAL,NYANDARUA,NORTH KINANGOP,ENGINEER,MURUNGARU,4,MOH,-0.605662,36.4882
15,EWASO KEDONG DISP,1517,RIFT VALLEY,KAJIADO,NGONG,NORTH KEEKONYOKIE,NAJILE,4,MOH,-1.17818,36.4918
17,MANUNGA DISP,404,CENTRAL,NYANDARUA,KIPIPIRI,WANJOHI,WANJOHI,4,MOH,-0.35786,36.4953
48,LONGONOT DISP,1737,RIFT VALLEY,NAKURU,NAIVASHA,LONGONOT,LONGONOT,4,MOH,-0.88025,36.49549
79,NYAMATHI DISP,4617,RIFT VALLEY,NAKURU,NAIVASHA,HELL'S GATE,MIRERA,4,MOH,-0.77738,36.51153
52,WANJOHI HEALTH CENTRE,434,CENTRAL,NYANDARUA,KIPIPIRI,WANJOHI,GATONDO,3,MOH,-0.307129,36.5122
41,OLD MAWINGO DISP,415,CENTRAL,NYANDARUA,KIPIPIRI,KIPIPIRI,MIHARATI,4,MOH,-0.405989,36.5213
54,MARAIGUSHU DISP,2776,RIFT VALLEY,NAKURU,NAIVASHA,NAIVASHA EAST,MARAIGUSHU,4,MOH,-0.74767,36.52529
15,LONGEWAN DISP,4442,RIFT VALLEY,SAMBURU,LORROKI,AMAIYA,LONGEWAN,4,MOH,0.8924,36.5312
41,RUMURUTI HEALTH CENTRE,1710,RIFT VALLEY,LAIKIPIA,RUMURUTI,RUMURUTI,RUMURUTI,3,MOH,0.277738,36.5338
24,NDARAGWA HEALTH CENTRE,407,CENTRAL,NYANDARUA,NDARAGWA,KAHUTHA,MURICHO,3,MOH,-0.040465,36.5441
42,METO DISP,1526,RIFT VALLEY,KAJIADO,NAMANGA,METO,METO,4,MOH,-2.37859,36.5502
4,GETA BUSH DISP,399,CENTRAL,NYANDARUA,KIPIPIRI,WANJOHI,WANJOHI,4,MOH,-0.35786,36.5604
43,MILE 46 HEALTH CENTRE,1547,RIFT VALLEY,KAJIADO,CENTRAL,LOODOKILANI,ELANGATA WUAS,3,MOH,-1.962666,36.562804
44,SHAMATA DISP,417,CENTRAL,NYANDARUA,NATIONAL PARK,NATIONAL PARK,MT. KENYA N. PARK,4,MOH,-0.248593,36.5649
10,KENTON GITWE DISP,3281,CENTRAL,NYANDARUA,SOUTH KINANGOP,MAGUMU,GITWENYANDARUA,4,MOH,-0.882732,36.5649
6,HENI DISP,402,CENTRAL,NYANDARUA,SOUTH KINANGOP,MAGUMU,KARATINYANDARUA,4,MOH,-0.801432,36.5669
72,SAIKERI DISP,1536,RIFT VALLEY,KAJIADO,NGONG,NORTH KEEKONYOKIE,SAIKERI,4,MOH,-1.44956,36.5678
40,PESI DISP,2185,RIFT VALLEY,LAIKIPIA,RUMURUTI,SALAAMA,PESILAIKIPIA,4,MOH,0.093205,36.5707
2,BAMBOO DISP,3940,CENTRAL,NYANDARUA,SOUTH KINANGOP,MAGUMU,MATURAS. KINANGOP,4,MOH,-0.833952,36.5714
53,WERU DISP,426,CENTRAL,NYANDARUA,SOUTH KINANGOP,NJABINI,MURUAKI,4,MOH,-0.681759,36.5747
23,KARAI HEALTH CENTRE,0,CENTRAL,KIAMBU,KIKUYU,KARAI,NACHU,3,MOH,-1.28069,36.5765
51,URUKU DISP,425,CENTRAL,NYANDARUA,NDARAGWA,KAHUTHA,URUKUNYANDARUA,4,MOH,0.03238,36.5779
21,NACHOLA DISP,3074,RIFT VALLEY,SAMBURU,BARAGOI,NACHOLA,NACHOLA,4,MOH,1.77568,36.5782
43,PESI DISP,416,CENTRAL,NYANDARUA,NDARAGWA,SHAMATA,PESINYANDARUA,4,MOH,-0.123716,36.5792
52,MAI-MAHIU HEALTH CENTRE,3844,RIFT VALLEY,NAKURU,NAIVASHA,LONGONOT,MAI MAHIU,3,MOH,-0.97517,36.58334
16,LOOSUK DISP,2107,RIFT VALLEY,SAMBURU,KIRISIA,LOOSUK,LOOSUK,4,MOH,1.0235,36.5878
63,OLOSEOS DISP,3110,RIFT VALLEY,KAJIADO,NGONG,CENTRAL KEEKONYOKIE,KISAMIS,4,MOH,-1.535062,36.589842
64,OLSHOIBOR DISP,1532,RIFT VALLEY,KAJIADO,NGONG,NORTH KEEKONYOKIE,OLOOSHOIBOR,4,MOH,-1.384227,36.591591
3,ENGINEER HEALTH CENTRE,398,CENTRAL,NYANDARUA,NORTH KINANGOP,ENGINEER,GATHARA,3,MOH,-0.610526,36.5919
52,NDEIYA HEALTH CENTRE,3928,CENTRAL,KIAMBU,LIMURU,NDEIYA,NDERU,3,MOH,-1.16975,36.5942
28,PORRO DISP,3070,RIFT VALLEY,SAMBURU,KIRISIA,PORO,MALASOPOLO,4,MOH,1.27227,36.5992
43,LARI HEALTH CENTRE,239,CENTRAL,KIAMBU,LARI,KIRENGA,ESCARPMENT,3,MOH,-1.02791,36.605
53,NDERU DISP,221,CENTRAL,KIAMBU,LIMURU,NDEIYA,NDERU,4,MOH,-1.142793,36.60586
38,KINALE FOREST DISP,217,CENTRAL,KIAMBU,LARI,KINALE,MUKEUKIAMBU,4,MOH,-0.911261,36.61036
47,LUSIGETTI HEALTH CENTRE,2437,CENTRAL,KIAMBU,KIKUYU,KARAI,LUSINGETTI,3,MOH,-1.28,36.6136
39,KINALE HEALTH CENTRE,2452,CENTRAL,KIAMBU,LARI,KINALE,MUKEUKIAMBU,3,MOH,-0.908237,36.6157
0,NANDARASI DISP,0,CENTRAL,NYANDARUA,NORTH KINANGOP,NORTH KINANGOP,KITIRI,4,MOH,-0.525748,36.61817
9,KARANGATHA HEALTH CENTRE,427,CENTRAL,NYANDARUA,SOUTH KINANGOP,NYAKIO,KARANGATHA,3,MOH,-0.78127,36.6182
33,KIENI HEALTH CENTRE,2448,CENTRAL,KIAMBU,LARI,KAMAE,KAMUKOMBI-INI,3,MOH,-0.858108,36.619369
20,KAMAE FOREST DISP,208,CENTRAL,KIAMBU,LARI,KINALE,KINALE,4,MOH,-0.870245,36.624
50,NGONG HEALTH CENTRE,1549,RIFT VALLEY,KAJIADO,NGONG,NGONG,KIBIKO,3,MOH,-1.34101,36.6255
22,MUTARAKWA DISP,406,CENTRAL,NYANDARUA,NORTH KINANGOP,NORTH KINANGOP,KINJA,4,MOH,-0.565601,36.6279
5,GETA FOREST DISP,400,CENTRAL,NYANDARUA,NORTH KINANGOP,NORTH KINANGOP,NANDARASI,4,MOH,-0.486639,36.628
44,LIMURU HEALTH CENTRE,240,CENTRAL,KIAMBU,LIMURU,LIMURU,KAMIRITHU,3,MOH,-1.11593,36.6366
33,NGOBIT DISP,1708,RIFT VALLEY,LAIKIPIA,LAMURIA,NGOBIT,KARIGU-INI,4,MOH,-0.089157,36.6445
10,KIBUKU DISP,0,RIFT VALLEY,LAIKIPIA,RUMURUTI,MUTARA,MUTARA,4,MOH,0.164847,36.6467
32,KIENI FOREST DISP,215,CENTRAL,KIAMBU,LARI,KINALE,MUKEUKIAMBU,4,MOH,-0.921169,36.648379
31,SIRATA OIROBI DISP,2116,RIFT VALLEY,SAMBURU,KIRISIA,SIRATA-OIROBI,SIRATA-OIROBI,4,MOH,1.05049,36.64855
66,TIGONI SUB-DISTRICT HOSPITAL,257,CENTRAL,KIAMBU,LIMURU,TIGONI,ITHANJIKIAMBU,1,MOH,-1.12859,36.6493
19,I CROSS DISP,1518,RIFT VALLEY,KAJIADO,NGONG,NGONG,NGONG TOWNSHIP,4,MOH,-1.359548,36.65548
63,RAGIA FOREST DISP,225,CENTRAL,KIAMBU,LARI,KAMAE,KAMAE,4,MOH,-0.790616,36.661129
33,NJABINI HEALTH CENTRE,432,CENTRAL,NYANDARUA,SOUTH KINANGOP,NJABINI,KIBURU,3,MOH,-0.721433,36.6657
24,MUTARA DISP,2385,RIFT VALLEY,LAIKIPIA,RUMURUTI,MUTARA,MUTARA,4,MOH,0.084521,36.6684
11,GICHURU DISP,198,CENTRAL,KIAMBU,LIMURU,NGECHA,NGECHA,4,MOH,-1.16126,36.6689
64,RAGIA HEALTH CENTRE,2449,CENTRAL,KIAMBU,LARI,KAMAE,KAMAE,3,MOH,-0.791728,36.6759
18,MARALAL DISTRICT HOSPITAL,2126,RIFT VALLEY,SAMBURU,KIRISIA,MARALAL TOWN,MARALAL TOWN,1,MOH,1.1478,36.677
68,UPLANDS DISP,230,CENTRAL,KIAMBU,LARI,LARI,GITHIRIONI,4,MOH,-1.04691,36.6778
7,EMBARINGO DISP,3159,CENTRAL,NYERI,KIENI WEST,GATARAKWA,EMBARINGO,4,MOH,-0.281144,36.682213
14,GITIHA HEALTH CENTRE,2398,CENTRAL,KIAMBU,GITHUNGURI,GITHIGA,GITIHA,3,MOH,-1.0742,36.6896
4,CHURA DISP,0,CENTRAL,KIAMBU,KIKUYU,KABETE,CHURA,4,MOH,-1.21635,36.6896
60,OLOIYANKALANI DISP,4554,RIFT VALLEY,KAJIADO,CENTRAL,ILDAMAT,OLOYIANKALANI,4,MOH,-1.77986,36.69
36,SUGUTA MARMAR HEALTH CENTRE,2124,RIFT VALLEY,SAMBURU,LORROKI,SUGUTA MARMAR,SUGUTA MARMAR,3,MOH,0.8315,36.69225
8,EMURUA  DIKIRR DISP,0,RIFT VALLEY,KAJIADO,NAMANGA,BISSIL,ILPARTIMARO,4,MOH,-2.23,36.69225
41,KIRIITA DISP,213,CENTRAL,KIAMBU,LARI,GATAMAIYU,KAGWE,4,MOH,-0.985135,36.6964
147,DAGORETTI APPROVED SCHOOL DISP,62,NAIROBI,NAIROBI,DAGORETTI,UTHIRU/RUTHIMITU,RUTHIMITU,9,MOH,-1.264086,36.697883
30,KIAWAROGA DISP,326,CENTRAL,KIAMBU,LIMURU,KARAMBAINI,KIAWAROGA,4,MOH,-1.10046,36.702703
60,NYATHUNA HEALTH CENTRE,260,CENTRAL,KIAMBU,KIKUYU,NYATHUNA,KIRANGARIKIAMBU,3,MOH,-1.20204,36.7031
6,GACHOIRE DISP,0,CENTRAL,KIAMBU,LARI,NYANDUMA,GACHOIRE,4,MOH,-0.991187,36.7044
8,GATHANGARI DISP,0,CENTRAL,KIAMBU,GITHUNGURI,GITHIGA,GITIHA,4,MOH,-1.06802,36.7054
22,KAMBURU DISP,4831,CENTRAL,KIAMBU,LARI,KAMBURU,MATIMBEI,4,MOH,-1.01588,36.7082
69,UTHIRU DISP,231,CENTRAL,KIAMBU,KIKUYU,KINOO,UTHIRUKIAMBU,4,MOH,-1.2526,36.7086
55,NDURIRI DISP,3974,CENTRAL,KIAMBU,LARI,NYANDUMA,GACHOIRE,4,MOH,-0.984685,36.70901
0,GAS DISP,3374,EASTERN,MARSABIT,NORTH HORR,GALAS,GALAS,4,MOH,3.22,36.71
58,MUGUNDA DISP,471,CENTRAL,NYERI,KIENI WEST,ENDARASHA,GAKANGA,4,MOH,-0.30123,36.71123
33,KIPETU DISP,0,RIFT VALLEY,KAJIADO,NGONG,SOUTH KEEKONYOKIE,KIPETO,4,MOH,-1.5057,36.723208
46,KABETE TECHNICAL AND TRADE DISP,89,NAIROBI,NAIROBI,WESTLANDS,KITISURU,LORESHO,4,MOH,-1.26114,36.72543
70,WANGIGE HEALTH CENTRE,249,CENTRAL,KIAMBU,KIKUYU,NYATHUNA,KARURAKIKUYU,3,MOH,-1.21737,36.7261
31,KENYA MARBLE DISP,1521,RIFT VALLEY,KAJIADO,CENTRAL,ILDAMAT,OLKILORITIKAJ,4,MOH,-1.9,36.73
155,GITATHURU APPROVED SCHOOL DISP,78,NAIROBI,NAIROBI,WESTLANDS,KITISURU,KITISURU,9,MOH,-1.23608,36.73088
166,KABETE APPROVED SCHOOL DISP,87,NAIROBI,NAIROBI,WESTLANDS,KITISURU,KITISURU,9,MOH,-1.23608,36.73088
167,KABETE JUVENILE REMAND HOME DISP,88,NAIROBI,NAIROBI,WESTLANDS,KITISURU,KITISURU,9,MOH,-1.23679,36.73658
35,KIHARA HEALTH CENTRE,216,CENTRAL,KIAMBU,KIAMBAA,KIHARA,MAHINDI,3,MOH,-1.21091,36.7386
19,KAGWE HEALTH CENTRE,2447,CENTRAL,KIAMBU,LARI,GATAMAIYU,KAGWE,3,MOH,-1.00448,36.7392
26,KARURI HEALTH CENTRE,261,CENTRAL,KIAMBU,KIAMBAA,KIAMBAA,NJIKU,3,MOH,-1.18431,36.7399
19,MARTI DISP,2111,RIFT VALLEY,SAMBURU,BARAGOI,SUYAN,MARTI,4,MOH,1.54775,36.7446
12,GITHIGA HEALTH CENTRE,2401,CENTRAL,KIAMBU,GITHUNGURI,GITHIGA,MATUGUTA,3,MOH,-1.083,36.7462
17,KAGAA HEALTH CENTRE,2400,CENTRAL,KIAMBU,GITHUNGURI,GITHUNGURI,GITHUNGURIKIAMBU,3,MOH,-1.05093,36.7467
35,KITENGELA HEALTH CENTRE,4206,RIFT VALLEY,KAJIADO,CENTRAL,KITENKELA,OLOOSIRIKON,3,MOH,-1.45532,36.7479
192,NAIROBI REMAND & ALLOC. DISP,108,NAIROBI,NAIROBI,KIBERA,LANGATA,LANGATA,9,MOH,-1.31221,36.75112
87,WATUKA DISP,3362,CENTRAL,NYERI,KIENI WEST,GATARAKWA,WATUKA,4,MOH,-0.27412,36.75123
69,ONGATA RONGAI HEALTH CENTRE,1551,RIFT VALLEY,KAJIADO,NGONG,ONGATA RONGAI,LEMELEPO,3,MOH,-1.40735,36.7514
190,NAIROBI JUVENILE DISP,3339,NAIROBI,NAIROBI,KIBERA,LANGATA,LANGATA,9,MOH,-1.312203,36.760619
5,CIANDA DISP,193,CENTRAL,KIAMBU,KIAMBAA,CIANDA,CIANDA,4,MOH,-1.1328,36.7613
9,KISIMA DISP,3071,RIFT VALLEY,SAMBURU,LORROKI,KISIMA,LONGATOLIA,4,MOH,0.94532,36.76301
28,KIMAKIA FOREST DISP,3795,CENTRAL,THIKA,GATANGA,KARIARA,KIMAKIA,4,MOH,-0.771423,36.763212
3,GACIIKA DISP,2417,CENTRAL,THIKA,GATUNDU,KIGANJO,GACHIKATHIKA,4,MOH,-0.972523,36.77253
181,LANGATA WOMENS PRISONS HEALTH CENTRE,97,NAIROBI,NAIROBI,KIBERA,MUGUMOINI,BOMAS,9,MOH,-1.31862,36.77503
70,LANGATA HEALTH CENTRE,141,NAIROBI,NAIROBI,KIBERA,MUGUMOINI,BOMAS,3,MOH,-1.31814,36.7783
3,BELLEVUE SUB HEALTH CENTRE,442,CENTRAL,NYERI,KIENI WEST,GATARAKWA,KAMARIKI,4,MOH,-0.221133,36.781122
42,KAREMENO DISP,3146,CENTRAL,NYERI,KIENI WEST,MUGUNDA,KAREMENO,4,MOH,-0.12324,36.781123
46,MUNYUINI DISP,4746,CENTRAL,THIKA,GATUNDU,NDARUGU,MUNYUINI,4,MOH,-0.932312,36.782312
38,TUUM DISP,3068,RIFT VALLEY,SAMBURU,NYIRO,TUUM,TUUM,4,MOH,2.14624,36.7824
30,KAJIADO DISTRICT HOSPITAL,1553,RIFT VALLEY,KAJIADO,CENTRAL,TOWNSHIP,HOSPITALKAJIADO,1,MOH,-1.8526,36.7832
264,NATIONAL SPINAL INJURY HOSP.,163,NAIROBI,NAIROBI,WESTLANDS,KILIMANI,KILIMANINAIROBI,8,MOH,-1.28872,36.7833
4,GAKOE HC,2425,CENTRAL,THIKA,KAMWANGI,GITHOBOKONI,GAKOE,3,MOH,-0.875356,36.7836
21,KARATU HEALTH CENTRE,236,CENTRAL,THIKA,GATUNDU,NDARUGU,MUNYUINI,3,MOH,-0.928727,36.7836
239,KIBERA FP & MATERNITY HOME,2643,NAIROBI,NAIROBI,KIBERA,KIBERA,MAKINA,7,MOH,-1.30566,36.78454
50,NDUNDU DISPENSARY,222,CENTRAL,THIKA,GATUNDU,KIGANJO,NDUNDU,4,MOH,-0.962196,36.785
4,BARAGOI SUB-DISTRICT HOSPITAL,2123,RIFT VALLEY,SAMBURU,BARAGOI,BARAGOI,BARAGOI,1,MOH,1.79106,36.788
13,GITHUNGURI HEALTH CENTRE,233,CENTRAL,KIAMBU,GITHUNGURI,GITHUNGURI,KANJAI,3,MOH,-1.05339,36.788
37,OL PEJETA DISP,2387,RIFT VALLEY,LAIKIPIA,LAMURIA,SIRIMA,WITHARE,4,MOH,0.073666,36.79
7,GATHANGA DISP,931,CENTRAL,KIAMBU,KIAMBAA,WAGUTHU,GATHANGA,4,MOH,-1.182312,36.791234
17,ITURAMIRA DISP,0,CENTRAL,THIKA,GATUNDU,KIGANJO,NDUNDU,4,MOH,-0.957674,36.7913
8,ENDARASHA HEALTH CENTRE,509,CENTRAL,NYERI,KIENI WEST,ENDARASHA,ENDARASHA,3,MOH,-0.307348,36.7948
20,KAMUNYAKA DISP,0,CENTRAL,THIKA,KAMWANGI,GITHOBOKONI,GACHEGE,4,MOH,-0.897066,36.7972
0,KANDERENDU DISP,0,CENTRAL,MARAGUA,KIGUMO,KANGARI,MAKOMBOKI,4,MOH,-0.781589,36.797738
127,ULINZI HOUSE MIR DISP,99,NAIROBI,NAIROBI,WESTLANDS,KILIMANI,KILIMANINAIROBI,4,MOH,-1.28994,36.79868
124,STATE HOUSE DISP,124,NAIROBI,NAIROBI,WESTLANDS,KILIMANI,KILIMANINAIROBI,4,MOH,-1.28435,36.79915
48,MIGAA DISP,321,CENTRAL,KIAMBU,KIAMBAA,CIANDA,CIANDA,4,MOH,-1.12,36.8
88,WENDIGA DISP,3869,CENTRAL,NYERI,KIENI WEST,ENDARASHA,CHARITY,4,MOH,-0.291235,36.80123
16,KAARIA DISP,0,CENTRAL,KIAMBU,KIAMBAA,NDUMBERI,NDUMBERI,4,MOH,-1.14234,36.801234
88,MBAGATHI DISTRICT HOSPITAL,154,NAIROBI,NAIROBI,DAGORETTI,KENYATTA/GOLF COURSE,GOLF COURSE,1,MOH,-1.307925,36.802242
2,GACHEGE DISP,2420,CENTRAL,THIKA,KAMWANGI,GITHOBOKONI,GACHEGE,4,MOH,-0.903212,36.802321
286,THE NAIROBI HOSPICE,0,NAIROBI,NAIROBI,DAGORETTI,KENYATTA/GOLF COURSE,KENYATTA,8,MOH,-1.30121,36.80512
126,UHURU AP CAMP DISP,3333,NAIROBI,NAIROBI,DAGORETTI,KENYATTA/GOLF COURSE,KENYATTA,4,MOH,-1.29582,36.80617
63,KENYATTA NATIONAL HOSPITAL,157,NAIROBI,NAIROBI,DAGORETTI,KENYATTA/GOLF COURSE,KENYATTA,2,MOH,-1.300876,36.806388
136,WILSON AIRPORT DISP,3337,NAIROBI,NAIROBI,KIBERA,NAIROBI WEST,NAIROBI WEST,4,MOH,-1.30921,36.80738
38,MATAARA DISP,387,CENTRAL,THIKA,KAMWANGI,GITUAMBA,MATAARA,4,MOH,-0.881236,36.8076
47,NDAKAINI DISP,0,CENTRAL,THIKA,GATANGA,KIGORO,NDAKAINI,4,MOH,-0.806607,36.8085
23,KIARUTARA DISP,0,CENTRAL,THIKA,KAMWANGI,GITUAMBA,MATAARA,4,MOH,-0.856359,36.8085
49,NGATATAEK DISP,1527,RIFT VALLEY,KAJIADO,NAMANGA,BISSIL,BISSIL,4,MOH,-2.27793,36.8099
68,LADY NORTH HEALTH CENTRE,2647,NAIROBI,NAIROBI,WESTLANDS,KILIMANI,KILIMANINAIROBI,3,MOH,-1.28551,36.81064
193,NAIROBI WEST PRISON HEALTH CENTRE,3338,NAIROBI,NAIROBI,KIBERA,NAIROBI WEST,NAIROBI WEST,9,MOH,-1.3112,36.81505
40,KIRATINA DISP,0,CENTRAL,KIAMBU,GITHUNGURI,KOMOTHAI,KARATINA,4,MOH,-1.03614,36.8203
24,KARIA DISP,210,CENTRAL,KIAMBU,KIAMBAA,WAGUTHU,NGEGU,4,MOH,-1.174213,36.82123
20,ILBISSIL HEALTH CENTRE,0,RIFT VALLEY,KAJIADO,NAMANGA,BISSIL,BISSIL,3,MOH,-2.11477,36.822
215,CHEST CLINIC,9,NAIROBI,NAIROBI,CENTRAL,STAREHE,CITY SQUARE,8,MOH,-1.28894,36.82251
67,KICC DISP,134,NAIROBI,NAIROBI,CENTRAL,STAREHE,CITY SQUARE,4,MOH,-1.28704,36.8228
48,NDARUGU DISP,0,CENTRAL,THIKA,KAMWANGI,GITHOBOKONI,NJAHI,4,MOH,-0.929631,36.8234
31,KABAGE DISP,457,CENTRAL,NYERI,TETU,MAHOYA,KABAGE,4,MOH,-0.402778,36.8239
119,SPECIAL STD DISP,122,NAIROBI,NAIROBI,CENTRAL,STAREHE,CITY CENTRE,4,MOH,-1.27904,36.82471
47,NAMANGA HEALTH CENTRE,1548,RIFT VALLEY,KAJIADO,NAMANGA,NAMANGA,NAMANGA,3,MOH,-2.50889,36.8258
34,KIGUMO HEALTH CENTRE,237,CENTRAL,KIAMBU,GITHUNGURI,KOMOTHAI,KARATINA,3,MOH,-1.031082,36.82658
74,LOCO HEALTH CENTRE,98,NAIROBI,NAIROBI,MAKADARA,VIWANDANI,LANDI MAWE,3,MOH,-1.29131,36.82667
9,GIATHIEKO DISP,0,CENTRAL,KIAMBU,GITHUNGURI,IKINU,RIUKI,4,MOH,-1.09883,36.8279
29,KIAMBU DISTRICT HOSPITAL,251,CENTRAL,KIAMBU,KIAMBAA,KIAMBAA S/AREA,TOWNSHIPKIAMBAA,1,MOH,-1.16938,36.82993
50,TUTHU SUB HEALTH CENTRE,386,CENTRAL,MURANGA,KANGEMA,KIRURI,TUTHU,3,MOH,-0.6667,36.831081
40,INDUSTRIAL AREA PRISON HEALTH CENTRE,0,NAIROBI,NAIROBI,MAKADARA,VIWANDANI,LANDI MAWE,3,MOH,-1.29805,36.83661
94,NAIROBI SOUTH B HEALTH CENTRE,39,NAIROBI,NAIROBI,MAKADARA,MUKURU NYAYO,NAIROBI SOUTH,3,MOH,-1.309483,36.836938
47,KIANDONGORO DISP,464,CENTRAL,NYERI,TETU,TETU,KIRURUMI,4,MOH,-0.451351,36.83784
17,ICHICHI DISP,322,CENTRAL,MURANGA,KANGEMA,KIRURI,ICHICHI,4,MOH,-0.704469,36.8387
1,ANMER DISP,190,CENTRAL,KIAMBU,KIAMBAA,KAMITI,ANMER,4,MOH,-1.137387,36.84009
28,ISINYA HEALTH CENTRE,1543,RIFT VALLEY,KAJIADO,CENTRAL,OLTUROTO,KISAJUCENTRAL,3,MOH,-1.61715,36.8407
53,WANJERERE DISP,374,CENTRAL,MURANGA,MATHIOYA,RWATHIA,WANJERERE,4,MOH,-0.651234,36.84123
26,OPIROI DISP,3064,RIFT VALLEY,SAMBURU,KIRISIA,OPIROI,OPIROI,4,MOH,1.19421,36.8415
6,BARSALOI DISP,2101,RIFT VALLEY,SAMBURU,KIRISIA,BARSALOI,BARSALOI,4,MOH,1.4362,36.8419
5,BISSEL HEALTH CENTRE,1540,RIFT VALLEY,KAJIADO,NAMANGA,BISSIL,BISSIL,3,MOH,-2.201375,36.842032
87,MATHARI MENTAL HOSPITAL,160,NAIROBI,NAIROBI,CENTRAL,MATHARE,MATHARE,1,MOH,-1.259489,36.844302
28,KIAMBAA DISP,0,CENTRAL,KIAMBU,KIAMBAA,KAMITI,ANMER,4,MOH,-1.13999,36.8456
1,GACHARAGENI DISP,305,CENTRAL,MURANGA,MATHIOYA,NJUMBI,KIAMUTURI,4,MOH,-0.61184,36.8478
13,KANGARI DISP,330,CENTRAL,MARAGUA,KIGUMO,KANGARI,KANGARI,4,MOH,-0.781234,36.851234
73,SAJILONI DISP,1537,RIFT VALLEY,KAJIADO,CENTRAL,SAJILONI,SAJILONI,4,MOH,-1.880526,36.85326
130,UTALII COLLEGE DISP,2641,NAIROBI,NAIROBI,KASARANI,RUARAKA,UTALII,4,MOH,-1.25503,36.85362
51,KIRURUMI DISP,3148,CENTRAL,NYERI,TETU,TETU,KIRURUMI,4,MOH,-0.435484,36.8544
5,GATARA DISP,352,CENTRAL,MURANGA,KANGEMA,KIRURI,ICHICHI,4,MOH,-0.72,36.86
11,GATURA HEALTH CENTRE,376,CENTRAL,THIKA,GATANGA,KARIARA,GATURATHIKA,3,MOH,-0.853212,36.861235
20,GITUGI DISP,450,CENTRAL,NYERI,OTHAYA,MAHIGA,GITUGINYERI,4,MOH,-0.517025,36.8629
21,KAIRO DISP,327,CENTRAL,MURANGA,MATHIOYA,KIRU,KAIRO,4,MOH,-0.610663,36.8629
71,NJOGUINI DISP,3545,CENTRAL,NYERI,TETU,MAHOYA,THATHANYERI,4,MOH,-0.40045,36.863964
58,NGEWA HEALTH CENTRE,243,CENTRAL,KIAMBU,GITHUNGURI,NGEWA,NYAGA,3,MOH,-1.092343,36.863964
99,NYS HEALTH CENTRE,106,NAIROBI,NAIROBI,KASARANI,RUARAKA,UTALII,3,MOH,-1.24995,36.86425
100,NYS PUBLIC HEALTH,4381,NAIROBI,NAIROBI,KASARANI,RUARAKA,UTALII,3,MOH,-1.24995,36.86425
15,LAMURIA DISP,1693,RIFT VALLEY,LAIKIPIA,LAMURIA,LAMURIA,LAMURIALAIKIPIA,4,MOH,-0.136919,36.866
14,KIRIMON DISP,0,RIFT VALLEY,LAIKIPIA,RUMURUTI,SOSIAN,KIRIMONLAIKIPIA,4,MOH,0.735814,36.8681
37,KIMATHI DISP,0,CENTRAL,KIAMBU,GITHUNGURI,NGEWA,KIMATHIKIAMBU,4,MOH,-1.1077,36.8684
59,NYAGA HEALTH CENTRE,0,CENTRAL,KIAMBU,GITHUNGURI,NGEWA,NYAGA,3,MOH,-1.10326,36.8716
103,P & T MCH DISP,110,NAIROBI,NAIROBI,KASARANI,RUARAKA,MATHARE NORTH,4,MOH,-1.247265,36.872106
2,AMBONI DISP,441,CENTRAL,NYERI,KIENI WEST,MWEIGA,AMBONI,4,MOH,-0.331019,36.874537
8,KIRIMUN DISP,2104,RIFT VALLEY,SAMBURU,LORROKI,KIRIMON,KIRIMONSAMBURU,4,MOH,0.798232,36.8775
68,COFFEE RESEARCH STATION DISP,194,CENTRAL,THIKA,RUIRU,RUIRU,RUIRUTHIKA,9,MOH,-1.102321,36.882321
36,KAIRUTHI DISP,4372,CENTRAL,NYERI,OTHAYA,IRIA-INI,KAIRUTHIIRIANI,4,MOH,-0.532433,36.882433
25,KANYENYAINI DISP,331,CENTRAL,MURANGA,KANGEMA,KANYENYAINI,KANYENYAINI,4,MOH,-0.686016,36.8829
26,IHURIRIO DISP,454,CENTRAL,NYERI,OTHAYA,IRIA-INI,IHURIRIO,4,MOH,-0.554411,36.883322
68,NDUGAMANO DISP,84,CENTRAL,NYERI,TETU,THEGENGE,NDUGAMANO,4,MOH,-0.489695,36.8858
10,ENGIRRGIR DISP,0,RIFT VALLEY,KAJIADO,CENTRAL,ISINYA,ENKIRIGIRRI,4,MOH,-1.738131,36.887361
85,WANDUMBI DISP,486,CENTRAL,NYERI,TETU,TETU,KARAIHU,4,MOH,-0.46819,36.8876
32,KIHOYA DISP,340,CENTRAL,MURANGA,MATHIOYA,RWATHIA,KIHOYA,4,MOH,-0.648649,36.88874
50,KINUNGA HEALTH CENTRE,491,CENTRAL,NYERI,TETU,TETU,KIGOGOINI,3,MOH,-0.441123,36.89
27,IHURURU DISP,455,CENTRAL,NYERI,TETU,MAHOYA,IHURURU,4,MOH,-0.412186,36.8907
6,GATHAITHI DISP,311,CENTRAL,MURANGA,KAHURO,MURARANDIA,GATHAITHIMURANGA,4,MOH,-0.740291,36.8923
24,KIGORO DISP,339,CENTRAL,THIKA,GATANGA,KIGORO,KIGORO,4,MOH,-0.853214,36.892312
13,GITARE DISP,3433,CENTRAL,THIKA,KAMWANGI,CHANIA,KIAMWANGIKAMWANGI,4,MOH,-0.942312,36.892321
50,KAMITI HEALTH CENTRE,136,NAIROBI,NAIROBI,KASARANI,KAHAWA,KAHAWA WEST/JUJA K,3,MOH,-1.1761,36.89342
169,KAMITI G.K. PRISON HOSPITAL,156,NAIROBI,NAIROBI,KASARANI,KAHAWA,KAHAWA WEST/JUJA K,9,MOH,-1.17611,36.89343
54,NGENDA HEALTH CENTRE,242,CENTRAL,THIKA,GATUNDU,KIAMWANGI,GATHAGE,3,MOH,-1.03185,36.8944
33,SOUTH HORR DISP,3069,RIFT VALLEY,SAMBURU,NYIRO,SOUTH HORR,SOUTH HORRSAMBU,4,MOH,2.12806,36.8956
46,MURARANDIA DISP,362,CENTRAL,MURANGA,KAHURO,MURARANDIA,MURARANDIA,4,MOH,-0.718632,36.8958
39,MBICHI DISP,2455,CENTRAL,THIKA,KAMWANGI,GITHOBOKONI,GATEITHIKA,4,MOH,-0.97027,36.895946
77,RURUGUTI DISP,3155,CENTRAL,NYERI,OTHAYA,IRIA-INI,KIANDEMI,4,MOH,-0.568548,36.8974
4,GIKOE DISP,315,CENTRAL,MARAGUA,KIGUMO,KINYONA,KAMUKABI,4,MOH,-0.761775,36.9013
33,KAGICHA DISP,4575,CENTRAL,NYERI,OTHAYA,CHINGA,MUMBUINI,4,MOH,-0.600901,36.902253
9,GATUNDU GENERAL SUB-DISTRICT HOSPITAL,250,CENTRAL,THIKA,GATUNDU,NGENDA,ITURU,1,MOH,-1.000232,36.902312
32,KIRWARA HEALTH CENTRE,383,CENTRAL,THIKA,KAMWANGI,CHANIA,NGORONGO,3,MOH,-0.923212,36.90321
56,NGORONGO HEALTH CENTRE,244,CENTRAL,THIKA,KAMWANGI,CHANIA,NGORONGO,3,MOH,-0.919681,36.9044
59,RUIRU HEALTH CENTRE,245,CENTRAL,THIKA,RUIRU,RUIRU,RUIRUTHIKA,3,MOH,-1.11779,36.9066
7,KIRIMON NYS DISP,4409,RIFT VALLEY,SAMBURU,LORROKI,KIRIMON,MUGURLORROKI,4,MOH,0.822004,36.9082
49,KIHUYO DISP,4374,CENTRAL,NYERI,MUNICIPALITY,MUKARO,KIHUYO,4,MOH,-0.381122,36.911123
62,KAYOLE HEALTH CENTRE,2636,NAIROBI,NAIROBI,EMBAKASI,KAYOLE,KAYOLE,3,MOH,-1.26649,36.91668
30,KIBUTHA DISP,337,CENTRAL,MURANGA,KANGEMA,KANYENYAINI,KIBUTHA,4,MOH,-0.698198,36.91892
17,GICHICHI SUB HEALTH CENTRE,489,CENTRAL,NYERI,OTHAYA,CHINGA,GICHICHENYERI,3,MOH,-0.57562,36.92429
32,KAGERE DISP,3151,CENTRAL,NYERI,OTHAYA,MAHIGA,KAMOKO,4,MOH,-0.516129,36.9261
37,MAILWA DISP,1524,RIFT VALLEY,KAJIADO,NAMANGA,MAILWA,MAILWA,4,MOH,-2.32574,36.9275
4,GATANGARA DISP,309,CENTRAL,MURANGA,KANGEMA,KANYENYAINI,KIBUTHA,4,MOH,-0.7,36.93
38,KAMOKO SUB HEALTH CENTRE,459,CENTRAL,NYERI,OTHAYA,MAHIGA,KAMOKO,3,MOH,-0.514689,36.931145
84,WAMAGANA HEALTH CENTRE,494,CENTRAL,NYERI,TETU,KARUNDU,KIANJOGUNYERI,3,MOH,-0.475806,36.9319
49,RWATHIA DISP,2712,CENTRAL,MURANGA,MATHIOYA,RWATHIA,RWATHIA,4,MOH,-0.659602,36.9328
57,MT. KENYA HOSPITAL,497,CENTRAL,NYERI,MUNICIPALITY,MUKARO,MAJENGONYERI,1,MOH,-0.42414,36.93414
46,KIAMUYA DISP,4373,CENTRAL,NYERI,OTHAYA,CHINGA,KAGONGONYERI,4,MOH,-0.576577,36.935586
4,ATHI RIVER PRISON DISP,0,RIFT VALLEY,KAJIADO,CENTRAL,KITENKELA,KITENKELA,4,MOH,-1.47463,36.9358
38,MAPARASHA DISP,2114,RIFT VALLEY,KAJIADO,MASHURU,MAPARASHA,OLMOLELIAN,4,MOH,-2.147983,36.936632
75,OTHAYA SUB-DISTRICT HOSPITAL,500,CENTRAL,NYERI,OTHAYA,IRIA-INI,KIAHAGU,1,MOH,-0.5399,36.93995
194,NAS DISP,109,NAIROBI,NAIROBI,EMBAKASI,EMBAKASI,EMBAKASINAIROBI,9,MOH,-1.30212,36.9401
11,ENKORIKA HEALTH CENTRE,1541,RIFT VALLEY,KAJIADO,CENTRAL,OLOBELIBEL,PELEWA,3,MOH,-1.9961,36.9407
45,KIAGUTHU DISP,3152,CENTRAL,NYERI,OTHAYA,CHINGA,KIAGUTHUCHINGA,4,MOH,-0.590991,36.946396
81,TOWN HEALTH CENTRE,493,CENTRAL,NYERI,MUNICIPALITY,MUKARO,MAJENGONYERI,3,MOH,-0.41983,36.94906
27,OROMODII DISP,3058,RIFT VALLEY,SAMBURU,WAMBA,NAIRIMIRIMO,SWARI,4,MOH,1.25412,36.95124
35,KIRIAINI DISP,345,CENTRAL,MURANGA,MATHIOYA,KIRU,KIRIAINIMURANGA,4,MOH,-0.59941,36.95155
26,MUTHERU DISP,363,CENTRAL,MARAGUA,KANDARA,RUCHU,GACHARAGEKANDARA,4,MOH,-0.817568,36.951802
24,KANJAMA DISP,2713,CENTRAL,MURANGA,MATHIOYA,KIRU,KANJAMA,4,MOH,-0.619082,36.9522
15,IGEGANIA HEALTH CENTRE,258,CENTRAL,THIKA,KAMWANGI,CHANIA,MUIRIGO,3,MOH,-0.982097,36.9528
48,NYAKIANGA DISP,369,CENTRAL,MURANGA,MATHIOYA,NJUMBI,NJUMBI,4,MOH,-0.63943,36.95746
73,NYERI PROVINCIAL GENERAL HOSP.,499,CENTRAL,NYERI,MUNICIPALITY,MUKARO,MAJENGONYERI,2,MOH,-0.42399,36.96113
8,KAGUTHI DISP,2710,CENTRAL,MARAGUA,KANDARA,ITHIRU,KAGUTHI,4,MOH,-0.881234,36.96123
5,GATANGA DISP,307,CENTRAL,THIKA,GATANGA,KIHUMBUINI,MUKARARA,4,MOH,-0.93125,36.96123
43,MUKARARA DISP,0,CENTRAL,THIKA,GATANGA,KIHUMBUINI,MUKARARA,4,MOH,-0.928727,36.9618
44,MUKURWE DISP,4537,CENTRAL,THIKA,GATANGA,KIHUMBUINI,MUKURWE/THUITA,4,MOH,-0.902312,36.96321
47,TIGITHI DISP,0,RIFT VALLEY,LAIKIPIA,LAMURIA,TIGITHI,MATANYALAIKIPIA,4,MOH,-0.032712,36.9636
19,MATANYA DISP,1695,RIFT VALLEY,LAIKIPIA,LAMURIA,TIGITHI,MATANYALAIKIPIA,4,MOH,-0.076315,36.963679
41,MUGUTHA HEALTH CENTRE,0,CENTRAL,THIKA,RUIRU,RUIRU,MUGUTHA,3,MOH,-1.14266,36.9686
23,KANGEMA HEALTH CENTRE,378,CENTRAL,MURANGA,KANGEMA,MUGURU,GAKIRA,3,MOH,-0.68709,36.97065
83,UNJIRU DISP,485,CENTRAL,NYERI,TETU,KARUNDU,UNJIRU,4,MOH,-0.49213,36.97123
47,MURIRANJAS SUB-DISTRICT HOSP.,394,CENTRAL,MURANGA,KAHURO,MUGOIRI,KAHURO,1,MOH,-0.74315,36.97306
25,KIHUMBUINI DISP,341,CENTRAL,THIKA,GATANGA,KIHUMBUINI,KIHUMBUINI,4,MOH,-0.922312,36.973212
15,KARIUA DISP,333,CENTRAL,MARAGUA,KANDARA,RUCHU,KARIUA,4,MOH,-0.83194,36.97549
16,GIATHENGE DISP,3561,CENTRAL,NYERI,OTHAYA,KARIMA,GURA,4,MOH,-0.532145,36.975528
90,ZAINA DISP,488,CENTRAL,NYERI,OTHAYA,KARIMA,WITIMA,4,MOH,-0.548387,36.9785
51,WAHUNDURA DISP,3398,CENTRAL,MURANGA,MATHIOYA,KAMACHARIA,KAMUNE,4,MOH,-0.591234,36.98123
54,OLGULULUI DISP,1528,RIFT VALLEY,KAJIADO,LOITOKITOK,LENKISM,OLGULULUI,4,MOH,-2.63376,36.9819
19,KAGUMOINI DISP,325,CENTRAL,MURANGA,MATHIOYA,KIRU,KAGUMOINIMURANGA,4,MOH,-0.620072,36.9821
89,WITIMA DISP,487,CENTRAL,NYERI,OTHAYA,KARIMA,WITIMA,4,MOH,-0.545046,36.982883
14,GATITU DISP,447,CENTRAL,NYERI,TETU,GAAKI,MUTATHIINI,4,MOH,-0.457437,36.9919
72,NJOKI DISP,479,CENTRAL,NYERI,MUKURWE-INI,GAKINDU,GAKINDUINI,4,MOH,-0.571122,36.992255
10,GATUNYU DISP,2711,CENTRAL,THIKA,GATANGA,GATANGA,MUGUMOINITHIKA,4,MOH,-0.962413,36.99231
18,JUJA FARM DISP,2429,CENTRAL,THIKA,RUIRU,JUJA,KOMO,4,MOH,-1.03231,36.992321
25,OLDONYIRO DISP,864,EASTERN,ISIOLO,OLDONYIRO,OL DONYIRO,LONKOPITO,4,MOH,0.649128,36.9938
9,EMUTOROKI DISP,4556,RIFT VALLEY,KAJIADO,MASHURU,MAPARASHA,EMOTOROKI,4,MOH,-2.29497,36.994148
4,BURGURET DISP,0,CENTRAL,NYERI,KIENI EAST,GAKAWA,GITHIMANYERI,4,MOH,-0.111224,37
48,KIGANJO MARKET DISP,466,CENTRAL,NYERI,MUNICIPALITY,KIGANJO,KIGANJONYERI,4,MOH,-0.37923,37.00315
78,SOUTH TETU DISP,3161,CENTRAL,NYERI,MUKURWE-INI,GIKONDI,KARINDI,4,MOH,-0.58243,37.006306
34,KIUNYU DISP,347,CENTRAL,THIKA,GATANGA,KIHUMBUINI,GITUAMBA/KIUNYU,4,MOH,-0.944557,37.0107
63,NAIROBI DISP,472,CENTRAL,NYERI,KIENI EAST,THIGU,THIRIGITU,4,MOH,-0.317568,37.01082
14,GITHURAI DISP,0,CENTRAL,THIKA,RUIRU,RUIRU,KIUU,4,MOH,-1.17885,37.0116
52,WANJENGI DISP,375,CENTRAL,MURANGA,KAHURO,WEITHAGA,WANJENGI,4,MOH,-0.724185,37.0117
11,GIKUI DISP,316,CENTRAL,MURANGA,KANGEMA,IYEGO,GIKUIMURANGA,4,MOH,-0.676591,37.014
2,GAKURWE DISP,306,CENTRAL,MURANGA,KIHARU,GATURI,GATHUKIINI,4,MOH,-0.627688,37.0161
14,KARITI DISP,2709,CENTRAL,MARAGUA,KANDARA,KAGUNDUINI,KARITI,4,MOH,-0.86633,37.01707
79,TAMBAYA DISP,3153,CENTRAL,NYERI,MUKURWE-INI,GAKINDU,RUTHANJI,4,MOH,-0.526577,37.017117
45,SWEET WATERS DISP,3835,RIFT VALLEY,LAIKIPIA,CENTRAL,MARURA,MARURA,4,MOH,0.018049,37.019244
18,GICHIRA HEALTH CENTRE,449,CENTRAL,NYERI,TETU,AGUTHI,GICHIRA,3,MOH,-0.471847,37.019369
65,NARO MORU SUB HEALTH CENTRE,474,CENTRAL,NYERI,KIENI EAST,NAROMORU,NAROMORU,3,MOH,-0.16667,37.02027
1,AGUTHI DISP,440,CENTRAL,NYERI,TETU,AGUTHI,GITITU,4,MOH,-0.501352,37.020721
16,GITUGI DISP,319,CENTRAL,MURANGA,MATHIOYA,GITUGI,GITUGIMURANGA,4,MOH,-0.655967,37.0255
9,GACHIKA DISP,3158,CENTRAL,NYERI,MUNICIPALITY,KIGANJO,GACHIKANYERI,4,MOH,-0.429054,37.026577
60,MURERU DISP,3150,CENTRAL,NYERI,KIENI EAST,GAKAWA,GITHIMANYERI,4,MOH,-0.123874,37.02793
26,ILPOLOSAT DISP,1520,RIFT VALLEY,KAJIADO,CENTRAL,ISINYA,ILPOLOSAT,4,MOH,-1.70993,37.028244
18,IRURI DISP,323,CENTRAL,MURANGA,MATHIOYA,KAMACHARIA,THUITAMURANGA,4,MOH,-0.596847,37.028378
37,KIROGO HEALTH CENTRE,381,CENTRAL,MURANGA,KAHURO,KAHUHIA,KIROGO,3,MOH,-0.71178,37.02947
25,ILMUTOROK DISP,0,RIFT VALLEY,KAJIADO,MASHURU,MAPARASHA,EMOTOROKI,4,MOH,-2.29505,37.0302
12,GATHIURU DISP,446,CENTRAL,NYERI,KIENI EAST,GAKAWA,GATHIURU,4,MOH,-0.07432,37.031124
28,NAARO DISP,367,CENTRAL,MARAGUA,KANDARA,MURUKA,NAARO,4,MOH,-0.93433,37.0322
12,KANDARA HEALTH CENTRE,377,CENTRAL,MARAGUA,KANDARA,MURUKA,GATITU/NGUTHIRU,3,MOH,-0.897239,37.038699
55,MERE DISP,469,CENTRAL,NYERI,KIENI EAST,KIAMATHAGE,MIRICHO,4,MOH,-0.131124,37.04213
0,MUTHITHI DISP,0,CENTRAL,MARAGUA,MARAGUA,ICHAGAKI,GIKOMORA,4,MOH,-0.801467,37.044121
59,MUKURWENI SUB-DISTRICT HOSP.,498,CENTRAL,NYERI,MUKURWE-INI,MUHITO,GATURIA,1,MOH,-0.55924,37.04464
61,MUTHUTHI-INI DISP,3810,CENTRAL,NYERI,MUKURWE-INI,GIKONDI,MUTHUTHIINI,4,MOH,-0.593694,37.053153
23,MURAMATI DISP,2390,RIFT VALLEY,LAIKIPIA,CENTRAL,DAIGA,NAIBOR,4,MOH,0.121427,37.0592
29,NGURUWENI DISP,368,CENTRAL,MARAGUA,KANDARA,GAICHANJIRU,NGURWE-INI,4,MOH,-0.87088,37.0593
25,MURUKA DISP,3414,CENTRAL,MARAGUA,KANDARA,MURUKA,MURUKA,4,MOH,-0.92799,37.05976
27,NANYUKI GK PRISON DISP,2307,RIFT VALLEY,LAIKIPIA,CENTRAL,NANYUKI,THINGITHU,4,MOH,0.017426,37.061102
28,ISLAND FARM DISP,456,CENTRAL,NYERI,KIENI EAST,NAROMORU,RONGAINYERI,4,MOH,-0.21134,37.061123
31,KINANIE DISP,4463,EASTERN,MACHAKOS,MAVOKO,LUKENYA,KINANIE,4,MOH,-1.412133,37.061235
8,GATHERU DISP,312,CENTRAL,MURANGA,KAHURO,KAHUHIA,GATHERU,4,MOH,-0.728944,37.0632
27,KIAMARA DISP,334,CENTRAL,MURANGA,KANGEMA,IYEGO,GACHARAIGU,4,MOH,-0.697581,37.0636
70,NGORANO HEALTH CENTRE,510,CENTRAL,NYERI,MATHIRA,NGORANO,HIRIGA,3,MOH,-0.409901,37.064189
34,KIRIA DISP,344,CENTRAL,MURANGA,KAHURO,MUGOIRI,KIRIAMURANGA,4,MOH,-0.767812,37.0672
26,NANYUKI DISTRICT HOSPITAL,1713,RIFT VALLEY,LAIKIPIA,CENTRAL,NANYUKI,MAJENGOLAIKIPIA,1,MOH,0.019,37.0709
75,JOY TOWN PRIMARY SCHOOL DISP,203,CENTRAL,THIKA,MUNICIPALITY,THIKA MUNICIPALITY,BIASHARA,9,MOH,-1.032332,37.071234
12,GITARO DISP,317,CENTRAL,MURANGA,KAHURO,MUGOIRI,GATUNDUMURANGA,4,MOH,-0.74295,37.07393
35,OL BOSOIT DISP,4400,RIFT VALLEY,LAIKIPIA,CENTRAL,NANYUKI,MAJENGOLAIKIPIA,4,MOH,0.016111,37.075622
23,MUGUMOINI DISP,358,CENTRAL,MARAGUA,MARAGUA,KAHUMBU,MUGUMOINIMARAG,4,MOH,-0.84768,37.0772
56,MIHUTI DISP,470,CENTRAL,NYERI,MUKURWE-INI,GIATHUGU,MIHUTINYERI,4,MOH,-0.565766,37.07748
62,THIKA DISTRICT HOSPITAL,256,CENTRAL,THIKA,MUNICIPALITY,THIKA MUNICIPALITY,MAJENGOTHIKA,1,MOH,-1.03678,37.0776
25,ICHAMARA DISP,453,CENTRAL,NYERI,MUKURWE-INI,GITHI,ICHAMARA,4,MOH,-0.54258,37.07877
10,GAKAWA DISP,3364,CENTRAL,NYERI,KIENI EAST,GAKAWA,KAHURURA,4,MOH,-0.041123,37.08
0,KAGUMOINI DISP,0,CENTRAL,MARAGUA,KANDARA,GAICHANJIRU,KAGUMOINIMARAGUA,4,MOH,-0.891818,37.080265
40,MITUMBIRI DISP,2462,CENTRAL,THIKA,KAKUZI,MITUMBIRI,THUTHUA,4,MOH,-1.012321,37.082312
23,HOMBE DISP,452,CENTRAL,NYERI,MATHIRA,RUGURU,SAGANANYERI,4,MOH,-0.354505,37.08784
42,MUGEKA HEALTH CENTRE,354,CENTRAL,MURANGA,KIHARU,GATURI,GEITWA/MUGEKA,3,MOH,-0.63969,37.09145
10,LATAKWENY DISP,3067,RIFT VALLEY,SAMBURU,BARAGOI,LATAKWENY,LATAKWENY,4,MOH,1.5724,37.0924
37,SWARI DISP,3060,RIFT VALLEY,SAMBURU,WAMBA,NAIRIMIRIMO,SWARI,4,MOH,1.16879,37.0928
83,THIKA SCHOOL FOR THE BLIND DISP,4751,CENTRAL,THIKA,MUNICIPALITY,THIKA MUNICIPALITY,BIASHARA,9,MOH,-1.042312,37.093231
62,MWERU DISPENSARY,507,CENTRAL,NYERI,MUKURWE-INI,GIATHUGU,MWERUNYERI,4,MOH,-0.602321,37.10231
39,KARABA DISP,460,CENTRAL,NYERI,MUKURWE-INI,GIKONDI,KARABANYERI,4,MOH,-0.628829,37.103604
29,ITIATI DISP,3145,CENTRAL,NYERI,MATHIRA,KONYU,ITIATI,4,MOH,-0.40991,37.107207
45,MUNYU HEALTH CENTRE,259,CENTRAL,THIKA,MUNICIPALITY,GATUANYAGA,MUNYU,3,MOH,-1.11553,37.1134
86,WARAZO HEALTH CENTRE,511,CENTRAL,NYERI,KIENI EAST,KABARU,KIRIMANYERI,3,MOH,-0.260355,37.11397
35,KAHURURA DISP,458,CENTRAL,NYERI,KIENI EAST,GAKAWA,KAHURURA,4,MOH,-0.052703,37.114415
37,KAMBURAINI DISP,3149,CENTRAL,NYERI,KIENI EAST,GAKAWA,KAHURURA,4,MOH,-0.052703,37.114415
28,KIANGOCHI DISP,335,CENTRAL,MURANGA,KIHARU,MBIRI,MUCHUNGUCHA,4,MOH,-0.760811,37.118469
66,NDATHI DISP,476,CENTRAL,NYERI,KIENI EAST,KABARU,NDATHI,4,MOH,-0.301354,37.11982
22,GUMBA DISP,451,CENTRAL,NYERI,MUKURWE-INI,RUTUNE,NGAMWA,4,MOH,-0.619394,37.125226
24,HOMEBASED DISP,0,CENTRAL,NYERI,MATHIRA,KARATINA,CHERU,4,MOH,-0.47851,37.12657
18,MARAGUA DISTRICT HOSPITAL RHTC,395,CENTRAL,MARAGUA,MARAGUA,NGINDA,GAKOIGO,1,MOH,-0.78693,37.12663
39,MASHURU HEALTH CENTRE,1545,RIFT VALLEY,KAJIADO,MASHURU,IMARORO,MASHURU,3,MOH,-2.10225,37.1275
41,KARATINA SUB-DISTRICT HOSPITAL,495,CENTRAL,NYERI,MATHIRA,KARATINA,CHERU,1,MOH,-0.47339,37.12943
76,RAGATI DISP,483,CENTRAL,NYERI,MATHIRA,MAGUTU,RAGATI,4,MOH,-0.461712,37.13176
75,SIMBA HEALTH CENTRE,1374,RIFT VALLEY,KAJIADO,MASHURU,IMARORO,MASHURU,3,MOH,-2.095045,37.132883
33,SABASABA SUB HEALTH CENTRE,373,CENTRAL,MARAGUA,MARAGUA,KAHUMBU,KANDANI,3,MOH,-0.87501,37.1361
67,NDIMAINI DISP,477,CENTRAL,NYERI,MATHIRA,KONYU,GAKUYUNYERI,4,MOH,-0.522523,37.137387
7,KALALU DISP,1692,RIFT VALLEY,LAIKIPIA,CENTRAL,DAIGA,UMANDE,4,MOH,0.078008,37.146
23,ILMARORO DISP,4555,RIFT VALLEY,KAJIADO,MASHURU,IMARORO,MASHURU,4,MOH,-2.08313,37.147352
11,GATEI DISP,445,CENTRAL,NYERI,MATHIRA,MAGUTU,GATEINYERI,4,MOH,-0.399909,37.148198
39,KIBIRIGWI DISP,285,CENTRAL,KIRINYAGA,NDIA,KIINE SOUTH,NYANGIO,4,MOH,-0.55638,37.1495
80,THANGATHI DISP,484,CENTRAL,NYERI,MUKURWE-INI,RUTUNE,MUTUNDU,4,MOH,-0.604505,37.153604
45,MURANGA DISTRICT HOSPITAL,393,CENTRAL,MURANGA,KIHARU,TOWNSHIP,KARURIMURANGA,1,MOH,-0.71587,37.15985
31,KIGETUINI DISP,338,CENTRAL,MURANGA,KIHARU,GATURI,KIMATHIMURANGA,4,MOH,-0.673212,37.162341
35,KIANJEGE DISP,283,CENTRAL,KIRINYAGA,NDIA,KIINE SOUTH,NYANGIO,4,MOH,-0.5883,37.1624
15,GATONDO DISP,4578,CENTRAL,NYERI,MATHIRA,IRIA-INI,KIAMWANGI,4,MOH,-0.43333,37.16667
34,KITANGANI DISP,4701,EASTERN,MACHAKOS,CENTRAL,KATHEKA KAI,KITANGA,4,MOH,-1.512321,37.172321
5,CHEHE DISP,444,CENTRAL,NYERI,MATHIRA,IRIA-INI,CHEHE,4,MOH,-0.440991,37.173874
10,KAMAHUHA DISP,328,CENTRAL,MARAGUA,MAKUYU,KAMAHUHA,KAMAHUHA,4,MOH,-0.84289,37.17814
3,DOLDOL HEALTH CENTRE,1703,RIFT VALLEY,LAIKIPIA,MUKOGONDO,MUKOGONDO,KURIKURI,3,MOH,0.397141,37.1829
30,ITUNDU DISP,3154,CENTRAL,NYERI,MATHIRA,IRIA-INI,CHEHE,4,MOH,-0.406532,37.18378
17,MAKUYU HEALTH CENTRE,384,CENTRAL,MARAGUA,MAKUYU,MAKUYU,MAKUYU,3,MOH,-0.89406,37.18661
68,ONTOLILI DISP,1157,EASTERN,CENTRAL MERU,FOREST,MT KENYA FOREST,MT KENYA FOREST2,4,MOH,-0.00004,37.1877
22,KAMBIRWA DISP,329,CENTRAL,MURANGA,KIHARU,GIKINDU,KAMBIRWA,4,MOH,-0.741239,37.1921
14,LODONGOKWE DISP,3059,RIFT VALLEY,SAMBURU,WAMBA,NGARONI,NGARONI,4,MOH,0.967432,37.1949
19,MARAGUA RIDGE HEALTH CENTRE,348,CENTRAL,MARAGUA,MARAGUA,MARAGUA RIDGE,MARAGUA RIDGE,3,MOH,-0.77,37.2
38,KIARAGANA DISP,284,CENTRAL,KIRINYAGA,NDIA,MUKURE,KANYOKORA,4,MOH,-0.51231,37.2035
33,KIANGAI DISP,281,CENTRAL,KIRINYAGA,NDIA,MUKURE,MUKURE,4,MOH,-0.48115,37.2073
20,MARANJAU GK PRISON DISP,361,CENTRAL,MARAGUA,MAKUYU,KAMBITI,MARANJAU,4,MOH,-0.803599,37.209983
67,MUA HILLS DISP,995,EASTERN,MACHAKOS,CENTRAL,MUA HILLS,MUA HILLS,4,MOH,-1.432321,37.212321
56,SAGANA H C,304,CENTRAL,KIRINYAGA,NDIA,KIINE SOUTH,SAGANAKIRINYAGA,3,MOH,-0.67113,37.2187
24,KANGARU HEALTH CENTRE,908,CENTRAL,KIRINYAGA,NDIA,MWERUA,MAITHARUI,3,MOH,-0.582134,37.221234
1,BARICHO HEALTH CENTRE,297,CENTRAL,KIRINYAGA,NDIA,MWERUA,KIANJANG'A,3,MOH,-0.563405,37.2305
43,KYAWALIA DISP,4462,EASTERN,MACHAKOS,KALAMA,LUMBWA,MUUMANDU,4,MOH,-1.672324,37.232312
63,MITABONI H C,1029,EASTERN,MACHAKOS,KATHIANI,MITABONI,MITABONI,3,MOH,-1.362324,37.232325
20,KAGUMO DISP,272,CENTRAL,KIRINYAGA,NDIA,MUTIRA,KABARINDIA,4,MOH,-0.47139,37.23641
4,DUKANA DISP,1051,EASTERN,MARSABIT,NORTH HORR,DUKANA,DUKANA,4,MOH,3.932321,37.242123
9,GATHAMBI DISP,265,CENTRAL,KIRINYAGA,CENTRAL,INOI,NDIMI,4,MOH,-0.48343,37.2483
11,KAMBITI DISP,3367,CENTRAL,MARAGUA,MAKUYU,KAMBITI,KAMBITIMARAGUA,4,MOH,-0.812354,37.25123
25,KATUMANI DISP,3564,EASTERN,MACHAKOS,CENTRAL,KIIMA KIMWE,KATOLONI,4,MOH,-1.542321,37.253113
14,KIPSING DISP,2353,EASTERN,ISIOLO,OLDONYIRO,KIPSING,KIPSING,4,MOH,0.563212,37.253212
73,MUTITU DISP,1002,EASTERN,MACHAKOS,CENTRAL,MUTITUNI,MUTITUNI,4,MOH,-1.442132,37.253232
18,LONGOPITO DISP,861,EASTERN,ISIOLO,OLDONYIRO,KIPSING,LENGURUMA,4,MOH,0.625596,37.2599
57,NYS YATTA DISP,2434,CENTRAL,THIKA,MUNICIPALITY,GATUANYAGA,NGOLIBA,4,MOH,-1.041232,37.263212
48,MACHAKOS APPROVED SCHOOL DISP,934,EASTERN,MACHAKOS,CENTRAL,MASAKU,MJINIMACHAKOS,4,MOH,-1.513232,37.263212
30,KIMUTWA SHC,1047,EASTERN,MACHAKOS,CENTRAL,KIMUTWA,KIMUTWA,3,MOH,-1.613212,37.263212
49,MACHAKOS DISTRICT HOSPITAL,1040,EASTERN,MACHAKOS,CENTRAL,MUMBUNI,UPPER KIANDANI,1,MOH,-1.502321,37.263232
78,NDONYO SABUK DISP,1007,EASTERN,MACHAKOS,MATUNGULU,KYANZAVI,KIANZABE,4,MOH,-1.182325,37.263233
51,MANANJA DISP,248,EASTERN,MACHAKOS,NDITHINI,MANANJA,MANANJA,4,MOH,-0.853262,37.263235
74,TIMAU HEALTH CENTRE,1177,EASTERN,CENTRAL MERU,TIMAU,NGUSISHI,MARITATI,3,MOH,0.110137,37.265
23,KANGAITA DISP,276,CENTRAL,KIRINYAGA,CENTRAL,KERUGOYA,KAGUYUCENTRAL,4,MOH,-0.48951,37.2719
90,THINU H C,1034,EASTERN,MACHAKOS,KATHIANI,MITABONI,THINU,3,MOH,-1.421233,37.272132
55,NGORIBA HEALTH CENTRE,223,CENTRAL,THIKA,MUNICIPALITY,GATUANYAGA,NGOLIBA,3,MOH,-1.04723,37.2776
30,KERUGOYA DISTRICT HOSPITAL,301,CENTRAL,KIRINYAGA,CENTRAL,KERUGOYA,KAGUYUCENTRAL,1,MOH,-0.50132,37.2805
81,NGULUNI DISP,1010,EASTERN,MACHAKOS,MATUNGULU,NGULUNI,NGULUNIMACHAKOS,4,MOH,-1.312325,37.282313
29,KIMITI DISP,4347,EASTERN,MACHAKOS,MATUNGULU,NGULUNI,NGULUNIMACHAKOS,4,MOH,-1.283232,37.282325
13,GATWE DISP,269,CENTRAL,KIRINYAGA,CENTRAL,KERUGOYA,KIMANDI,4,MOH,-0.46443,37.284
15,KALANDINI DISP,4267,EASTERN,MACHAKOS,MATUNGULU,KALANDINI,KALANDINI,4,MOH,-1.238,37.286
66,MIUMBUNI DISP,2439,EASTERN,MACHAKOS,KATHIANI,MITABONI,MIUMBUNI,4,MOH,-1.35287,37.2869
80,NGOLENI DISP,2577,EASTERN,MACHAKOS,KATHIANI,KATHIANI,NGOLENI,4,MOH,-1.39901,37.29
55,NJEGAS DISP,293,CENTRAL,KIRINYAGA,MWEA,MUTITHI,KABIRIRI,4,MOH,-0.70913,37.2924
26,KAVIANI HEALTH CENTRE,1022,EASTERN,MACHAKOS,KATHIANI,IVETI,KALILUNIMACHAKOS,3,MOH,-1.4753,37.2992
22,KANDONGO DISP,275,CENTRAL,KIRINYAGA,MWEA,THIBA,NGUKA,4,MOH,-0.66505,37.3038
49,MUTHITHI DISP,290,CENTRAL,KIRINYAGA,MWEA,MUTITHI,KABIRIRI,4,MOH,-0.73269,37.3038
29,KINYANGI HEALTH CENTRE,380,CENTRAL,THIKA,KAKUZI,KAKUZI,KINYANGI,3,MOH,-1.00517,37.3083
21,KAMWETI DISP,274,CENTRAL,KIRINYAGA,GICHUGU,KIRIMA,NJUKU,4,MOH,-0.44391,37.3099
35,WACHORO DISP,834,EASTERN,MBEERE,MWEA,KARABA,WACHORO,4,MOH,-0.759876,37.3105
34,KIANG'OMBE DISP,282,CENTRAL,KIRINYAGA,GICHUGU,KABARE,KIRITINI,4,MOH,-0.49635,37.3129
11,GATUGURA DISP,267,CENTRAL,KIRINYAGA,GICHUGU,KIRIMA,MUTIGE,4,MOH,-0.45683,37.316
54,NGUKA DISP,292,CENTRAL,KIRINYAGA,MWEA,THIBA,THIBA,4,MOH,-0.68633,37.316
18,KABARE DISP,270,CENTRAL,KIRINYAGA,GICHUGU,KABARE,KIRITINI,4,MOH,-0.51458,37.3175
1,BALESA DISP,3372,EASTERN,MARSABIT,NORTH HORR,BALESA RIRIBA,BALESA,4,MOH,3.62,37.32
12,GIATHANINI DISP,314,CENTRAL,THIKA,KAKUZI,ITHANGA,GIATHANINI,4,MOH,-0.94231,37.322321
84,SENGANI DISP,4266,EASTERN,MACHAKOS,MATUNGULU,TALA,SENGANI,4,MOH,-1.25663,37.3248
23,KATHIANI HOSPITAL,1038,EASTERN,MACHAKOS,KATHIANI,KATHIANI,KATHIANIMACHAKOS,1,MOH,-1.41667,37.3291
36,KIANYAGA H C,299,CENTRAL,KIRINYAGA,GICHUGU,BARAGWI,GATU,3,MOH,-0.50091,37.3296
55,MATUNGULU DISP,988,EASTERN,MACHAKOS,MATUNGULU,TALA,KYAUME,4,MOH,-1.261233,37.332325
61,THIBA DISP,295,CENTRAL,KIRINYAGA,MWEA,THIBA,THIBA,4,MOH,-0.70457,37.3327
40,WAMBA HEALTH CENTRE,2125,RIFT VALLEY,SAMBURU,WAMBA,WAMBA,WAMBA TOWN,3,MOH,0.988407,37.3348
2,AMBOSELI DISP,1514,RIFT VALLEY,KAJIADO,LOITOKITOK,ENTONET,AMBOSELI,4,MOH,-2.73827,37.3418
17,KANGUNDO HOSPITAL,1037,EASTERN,MACHAKOS,KANGUNDO,KANGUNDO,ISINGA,1,MOH,-1.28944,37.3445
27,KARUMANDI DISP,277,CENTRAL,KIRINYAGA,GICHUGU,KARUMANDI,KIARURI,4,MOH,-0.45683,37.3456
84,UPETE DISP,1016,EASTERN,MAKUENI,KILOME,KITAINGO,KITAINGO,4,MOH,-1.85439,37.34901
42,KOLA DISP,976,EASTERN,MACHAKOS,KALAMA,KALAMA,KIITINI,4,MOH,-1.70429,37.35
3,CASTLE FOREST DISP,3763,CENTRAL,KIRINYAGA,GICHUGU,KARUMANDI,THUMAITA,4,MOH,-0.42234,37.351234
16,ITHANGA DISP,324,CENTRAL,THIKA,KAKUZI,ITHANGA,KAGUKU,4,MOH,-0.991596,37.3513
74,MUUSINI DISP,4459,EASTERN,MACHAKOS,KANGUNDO,KANGUNDO,MUISUNI,4,MOH,-1.312326,37.352321
22,KATHEKA DISP,951,EASTERN,MACHAKOS,MWALA,MBIUNI,ULAANI,4,MOH,-1.176,37.353
41,KIVANI DISP,975,EASTERN,MACHAKOS,KANGUNDO,KAKUYUNI,KYEVALUKI,4,MOH,-1.41624,37.357
7,ITHEANI DISP,939,EASTERN,MACHAKOS,KATHIANI,KAEWA,KAUTIMACHAKOS,4,MOH,-1.44712,37.3573
72,NUNGUNI SDH,1031,EASTERN,MAKUENI,KILUNGU,KITHEMBE,NDUUMAKUENI,1,MOH,-1.78343,37.35991
14,KALAMA DISP,944,EASTERN,MACHAKOS,KALAMA,KALAMA,NZIUNI,4,MOH,-1.602323,37.362323
16,KAMBUSU DISP,4269,EASTERN,MACHAKOS,MATUNGULU,MATUNGULU,KAMBUSU,4,MOH,-1.232352,37.362325
9,KAANI DISP,940,EASTERN,MACHAKOS,KATHIANI,IVETI,KAANI,4,MOH,-1.50667,37.3638
40,KIMBIMBI HEALTH CENTRE,300,CENTRAL,KIRINYAGA,MWEA,NYANGATI,NYANGATI,3,MOH,-0.61705,37.3651
11,KARABA DISP,813,EASTERN,MBEERE,MWEA,KARABA,KARABAMBEERE,4,MOH,-0.776973,37.3704
5,CIAGINI DISP,86,CENTRAL,KIRINYAGA,MWEA,THIBA,WAMUMU,4,MOH,-0.75776,37.3783
13,KASIKEU DISP,950,EASTERN,MAKUENI,KASIKEU,KASIKEU,KASIKEU,4,MOH,-1.94467,37.38147
53,NGELELYA DISP,2460,CENTRAL,THIKA,KAKUZI,ITHANGA,NGELELYA,4,MOH,-1.01964,37.3825
11,KAKUYUNI DISP,943,EASTERN,MACHAKOS,KANGUNDO,KANZALU,KIKAMBUANI,4,MOH,-1.3012,37.3853
79,SULTAN HAMUD HEALTH CENTRE,1032,EASTERN,MAKUENI,KASIKEU,KIOU,SULTAN HAMUDMAK,3,MOH,-2.01401,37.38714
7,KALI DISP,0,EASTERN,MAKUENI,MBOONI,MBOONI,NZEVENI,4,MOH,-1.6308,37.391523
70,MUTHESYA DISP,3387,EASTERN,MACHAKOS,NDITHINI,MUTHESYA,MUTHESYA,4,MOH,-0.982325,37.392327
64,MWEA GK PRISON DISP GATHIGIRIRI,0,CENTRAL,KIRINYAGA,MWEA,TEBERE,MAHIGAINI,9,MOH,-0.672314,37.392341
60,MBIUNI SUB-HEALTH CENTRE,991,EASTERN,MACHAKOS,MWALA,MBIUNI,MBIUNI,3,MOH,-1.24029,37.3933
82,NYS MAVOLONI DISP,0,EASTERN,MACHAKOS,YATTA,MAVOLONI,MAVOLONI,4,MOH,-1.093235,37.401235
31,KIAMUTUGU HEALTH CENTRE,280,CENTRAL,KIRINYAGA,GICHUGU,NJUKIINI,NGERWE,3,MOH,-0.47279,37.4018
28,RIAKANAU DISP,831,EASTERN,MBEERE,MWEA,RIAKANAU,RIAKANAU,4,MOH,-0.841058,37.4046
8,GACHIONGO DISP,264,CENTRAL,KIRINYAGA,GICHUGU,NJUKIINI,NGIRIAMBU,4,MOH,-0.50091,37.4056
6,EX-LEWA DISP,3215,EASTERN,CENTRAL MERU,TIMAU,KISIMA,BUURI,4,MOH,0.106337,37.4081
61,MILAANI DISP,4460,EASTERN,MACHAKOS,NDITHINI,NDITHINI,MILAANI,4,MOH,-0.882326,37.412326
7,DIFATHAS DISP,263,CENTRAL,KIRINYAGA,MWEA,MURINDUKO,KAMUNYANGE,4,MOH,-0.59514,37.4125
82,TULIMANI DISP,699,EASTERN,MAKUENI,TULIMANI,TULIMANI,KALAWANI,4,MOH,-1.59196,37.4163
40,KYAMBEKE DISP,978,EASTERN,MAKUENI,KILUNGU,ILIMA,NDOLO,4,MOH,-1.84555,37.42121
52,MANGO DISP,4324,EASTERN,MACHAKOS,MWALA,MWALA,MANGOMACHAKOS,4,MOH,-1.39382,37.4256
83,NYS YATTA DISP,1018,EASTERN,MACHAKOS,YATTA,KITHIMANI,KITHIMANI,4,MOH,-1.162533,37.432326
23,KIBUGU HEALTH CENTRE,838,EASTERN,EMBU,MANYATTA,NGINDA,KIBUGU,3,MOH,-0.444346,37.4352
10,GATHIGIRIRI DISP,266,CENTRAL,KIRINYAGA,MWEA,TEBERE,KARUKUNGU,4,MOH,-0.71293,37.4391
48,MURINDUKO DISP,3035,CENTRAL,KIRINYAGA,MWEA,MURINDUKO,MUGAMBA-CIURA,4,MOH,-0.57294,37.44077
53,MASII HEALTH CENTRE,1025,EASTERN,MACHAKOS,MWALA,MASII,MBAANI,3,MOH,-1.45878,37.4409
33,KISIKI HEALTH CENTRE,966,EASTERN,MACHAKOS,YATTA,MAVOLONI,KWANDOLO,3,MOH,-1.05604,37.4413
69,MUMBUNI HEALTH CENTRE,999,EASTERN,MACHAKOS,MWALA,MBIUNI,MUMBUNIMACHAKOS,3,MOH,-1.27536,37.4438
17,KATHANGARI DISP,815,EASTERN,EMBU,MANYATTA,NGANDORI,KATHANGARI,4,MOH,-0.478747,37.4451
64,MUTYAMBUA SUB HEALTH CENTRE,1003,EASTERN,MAKUENI,MBITINI,MUTYAMBUA,MUTISWA,3,MOH,-1.94467,37.44551
18,KATHANGARIRI DISP,0,EASTERN,EMBU,MANYATTA,NGINDA,NGUVIU,4,MOH,-0.41,37.45
53,MBOONI  SDH,1028,EASTERN,MAKUENI,MBOONI,MBOONI,MUTITUMAKUENI,1,MOH,-1.65649,37.45319
3,EMBU PGH,840,EASTERN,EMBU,CENTRAL,MUNICIPALITY,NJUKIRI,2,MOH,-0.522973,37.453604
59,MUKUYUNI HEALTH CENTRE,997,EASTERN,MAKUENI,KAITI,OKIA,MUKUNYUNI,3,MOH,-1.74542,37.45857
15,KARAU H C,814,EASTERN,EMBU,MANYATTA,NGINDA,MBUVORI,3,MOH,-0.387075,37.4615
46,MUMBUINI DISP,3860,CENTRAL,KIRINYAGA,MWEA,MURINDUKO,MIUU,4,MOH,-0.67797,37.4634
10,KAIRURI DISP,807,EASTERN,EMBU,MANYATTA,NGANDORI,KAIRURI,4,MOH,-0.430926,37.4647
12,KANGARU DISP,809,EASTERN,EMBU,CENTRAL,MUNICIPALITY,NTHAMBOEMBU,4,MOH,-0.509833,37.4649
81,TAWA DEMONSTRATION H C,1046,EASTERN,MAKUENI,KISAU,KITETA,KIAMBWA,3,MOH,-1.54532,37.46568
37,KITHIMANI DISP,968,EASTERN,MACHAKOS,YATTA,KITHIMANI,KITHENDU,4,MOH,-1.17214,37.4689
41,KYUASINI DISP,4232,EASTERN,MAKUENI,KAITI,OKIA,KYUASINI,4,MOH,-1.78771,37.4701
7,GATUNDURI DISP,2783,EASTERN,EMBU,CENTRAL,MBETI NORTH,KIANGIMA,4,MOH,-0.482321,37.471234
75,MWALA RHDC,1045,EASTERN,MACHAKOS,MWALA,MWALA,MATHUNTHINI,3,MOH,-1.35103,37.4715
41,KIUMBUINI DISP,286,CENTRAL,KIRINYAGA,MWEA,TEBERE,KARUKUNGU,4,MOH,-0.72129,37.474
51,MBENUU DISP,4235,EASTERN,MAKUENI,MBITINI,KYEMUNDU,KYEMUNDU,4,MOH,-1.96252,37.47643
20,KITHUNGURIRI DISP,2443,EASTERN,EMBU,MANYATTA,RUGURU,KITHUNGURIRI,4,MOH,-0.358109,37.4778
42,WESTGATE DISP,2120,RIFT VALLEY,SAMBURU,WASO,WASO EAST,ARCHERS POST,4,MOH,0.67124,37.48124
30,RWIKA DISP,832,EASTERN,MBEERE,GACHOKA,MBETI SOUTH,KIAMURINGA,4,MOH,-0.600877,37.4826
68,NGAI DISP,1008,EASTERN,MAKUENI,MBOONI,KITHUNGO,NGAI,4,MOH,-1.7158,37.4947
44,KYAWANGO HEALTH CENTRE,980,EASTERN,MACHAKOS,MWALA,MWALA,KYAWANGOMWALA,3,MOH,-1.30981,37.4961
83,UKIA DISP,1015,EASTERN,MAKUENI,KAITI,OKIA,UTAATI,4,MOH,-1.75812,37.49809
22,KIANJOKOMA HEALTH CENTRE,837,EASTERN,EMBU,RUNYENJES,KAGAARI NORTH,KIANJOKOMA,3,MOH,-0.397093,37.5016
45,KYELENI DISP,981,EASTERN,MACHAKOS,MWALA,MWALA,KYAWANGOMWALA,4,MOH,-1.312326,37.502321
76,NDALANI DISP,1005,EASTERN,MACHAKOS,YATTA,NDALANI,KIVINGONI,4,MOH,-1.04497,37.5029
30,KIBIRICHIA HEALTH CENTRE,1112,EASTERN,CENTRAL MERU,ABOTHUGUCHI WEST,KIAMIOGO,KIAMIOGO,3,MOH,0.125967,37.5037
41,MBIRIKANI DISP,1525,RIFT VALLEY,KAJIADO,LOITOKITOK,IMBIRIKANI,IMBIRIKANI,4,MOH,-2.58626,37.5074
35,NEMBURE DISP,827,EASTERN,EMBU,NEMBURE,GATURI SOUTH,NEMBURE,4,MOH,-0.471186,37.508
44,MOROTOT DISP,4551,RIFT VALLEY,KAJIADO,LOITOKITOK,KUKU,LOOLOPON,4,MOH,-2.923905,37.510811
66,MWANYANI HC,1004,EASTERN,MAKUENI,MBITINI,MULALA,MAATHA,4,MOH,-2.02779,37.51138
3,IUANI DISP,0,EASTERN,MAKUENI,KAITI,KILALA,IUANI,4,MOH,-1.74001,37.5161
28,KITHIMU DISP,805,EASTERN,EMBU,NEMBURE,KITHIMU,KITHIMU,4,MOH,-0.507477,37.5192
21,ILKELUNYETI DISP,1519,RIFT VALLEY,KAJIADO,MASHURU,KENYEWA,MASIMBA,4,MOH,-2.171527,37.52038
48,NAMELOK DISP,3370,RIFT VALLEY,KAJIADO,LOITOKITOK,KUKU,LOOLOPON,4,MOH,-2.928378,37.521622
31,MAKENGI DISP,823,EASTERN,EMBU,NEMBURE,MAKENGI,MAKENGI,4,MOH,-0.452285,37.5228
13,KANJA DISP,811,EASTERN,EMBU,RUNYENJES,KAGAARI NORTH,KANJA,4,MOH,-0.379137,37.5275
14,KIAMURINGA DISP,818,EASTERN,MBEERE,GACHOKA,MBETI SOUTH,KIAMURINGA,4,MOH,-0.571812,37.5288
23,MBONDONI DISP,3421,EASTERN,MBEERE,MWEA,MAKIMA,MWEA,4,MOH,-0.817921,37.5315
8,ITUNDUIMUNI DISP,971,EASTERN,MACHAKOS,MASINGA,IKAATINI,IKAATINI,4,MOH,-1.071242,37.532362
22,NDONYO UASIN DISP,3086,RIFT VALLEY,SAMBURU,WASO,SELEOLIPI,NDONYO WASIN,4,MOH,1.29185,37.5348
49,MATILIKU HEALTH CENTRE,1027,EASTERN,MAKUENI,MATILIKU,NZAUI,MATILIKU,3,MOH,-1.94649,37.53499
75,NZIU SUB HEALTH CENTRE,1012,EASTERN,MAKUENI,MATILIKU,KALAMBA,NZIU,3,MOH,-1.81368,37.53664
31,KITETA DISP,0,EASTERN,MAKUENI,KISAU,KITETA,KAKUSWI,4,MOH,-1.55925,37.5373
72,MUTHETHENI HEALTH CENTRE,1030,EASTERN,MACHAKOS,YATHUI,MIU,UTITHINIYATHUI,3,MOH,-1.49991,37.5379
32,KIMANA HEALTH CENTRE,1522,RIFT VALLEY,KAJIADO,LOITOKITOK,KIMANA,KIMANA,3,MOH,-2.86722,37.54
4,ENA DISP,799,EASTERN,EMBU,RUNYENJES,KAGAARI SOUTH,KAWANJARA,4,MOH,-0.47,37.55
57,MATUU RHDC,1044,EASTERN,MACHAKOS,YATTA,MATUU,MATUUYATTA,3,MOH,-1.13356,37.5545
26,KILALA DISP,960,EASTERN,MAKUENI,KAITI,KILALA,KILALAMAKUENI,4,MOH,-1.76347,37.55475
36,LOITOKITOK SUB-DISTRICT HOSP,1554,RIFT VALLEY,KAJIADO,LOITOKITOK,KUKU,LOOLOPON,1,MOH,-2.9356,37.5549
29,KISAU HEALTH CENTRE,965,EASTERN,MAKUENI,KISAU,KISAU,MANGANI,3,MOH,-1.62502,37.55719
59,MBEMBANI DISP,2461,EASTERN,MACHAKOS,MASINGA,IKAATINI,ITUNDUIMUNI,4,MOH,-1.00437,37.5582
27,KITHEGI DISP,804,EASTERN,EMBU,NEMBURE,KITHIMU,KITHEGI,4,MOH,-0.510879,37.5585
38,KIRUA DISP,1117,EASTERN,CENTRAL MERU,BUURI,KIIRUA,KIIRUA,4,MOH,0.143063,37.5607
92,WAMUNYU HEALTH CENTRE,1017,EASTERN,MACHAKOS,YATHUI,WAMUNYU,KAMBITIMACHAKOS,3,MOH,-1.40332,37.5619
78,URUKU GK PRISON DISP,1163,EASTERN,CENTRAL MERU,NKUENE,NKUENE,URUKUCMERU,4,MOH,-0.037399,37.5638
57,NAARI DISP,1151,EASTERN,CENTRAL MERU,BUURI,NAARI,MURUGUMA,4,MOH,0.091141,37.5657
39,RUNYENJES SUB-DISTRICT HOSPITAL,842,EASTERN,EMBU,RUNYENJES,RUNYENJES TOWN,KIGAA,1,MOH,-0.424635,37.5698
0,GK PRISON DISP,196,EASTERN,ISIOLO,CENTRAL,CENTRAL,BULLA PESA,9,MOH,0.342176,37.570504
0,ANTI POACHING UNIT,846,EASTERN,ISIOLO,CENTRAL,CENTRAL,BULLA PESA,4,MOH,0.330212,37.571032
6,GATUMBI DISP,802,EASTERN,EMBU,KYENI,KYENI NORTH,KIANGUNGI,4,MOH,-0.381235,37.572321
25,KIKUMINI HEALTH CENTRE,959,EASTERN,MAKUENI,NGUU,ITHUMBA,KIKUMINIITHUMBA,3,MOH,-2.04329,37.57379
21,ITHIMBARI DISP,2525,EASTERN,CENTRAL MERU,ABOGETA,IGOKI,UPPER CHURE,4,MOH,-0.079823,37.5746
18,MAKIMA DISP,824,EASTERN,MBEERE,MWEA,MAKIMA,MAKIMA,4,MOH,-0.766714,37.5773
29,ISIOLO BARRACKS DISP,855,EASTERN,ISIOLO,CENTRAL,CENTRAL,BULLA PESA,9,MOH,0.340206,37.577625
11,ISIOLO DISTRICT HOSPITAL,873,EASTERN,ISIOLO,CENTRAL,CENTRAL,KAMPI ODHA,1,MOH,0.3751,37.5812
33,KIONYO DISP,1122,EASTERN,CENTRAL MERU,ABOGETA,ABOGETA,UPPER KIUNGONE,4,MOH,-0.124147,37.5841
11,LERATA DISP,3056,RIFT VALLEY,SAMBURU,WASO,WASO EAST,LERATA,4,MOH,0.767468,37.5851
65,MIU DISP,994,EASTERN,MACHAKOS,YATHUI,MIU,KALAMBAMACHAKOS,4,MOH,-1.5362,37.5853
33,MUFU DISP,826,EASTERN,EMBU,KYENI,KYENI NORTH,MUFU,4,MOH,-0.396106,37.5869
29,RIANDU DISP,2282,EASTERN,MBEERE,SIAKAGO,NTHAWA,RIANDU,4,MOH,-0.526221,37.5887
63,NKANDO DISP,4453,EASTERN,CENTRAL MERU,NKUENE,NKUENE,URUKUCMERU,4,MOH,-0.041232,37.592321
27,KILILI SHC,3524,EASTERN,MAKUENI,MATILIKU,KILILI,KILILI,4,MOH,-1.91461,37.59446
36,KITHEUNI DISP,2411,EASTERN,MACHAKOS,YATTA,KINYAATA,MAKUTANOMACHA,4,MOH,-1.29104,37.5964
26,NGANDURI DISP,828,EASTERN,MBEERE,GACHOKA,KIANJIRU,KIRIMAMBEERE,4,MOH,-0.698898,37.5972
50,MKUMBUNE SUB DISTRICT HOSPITAL,1137,EASTERN,CENTRAL MERU,NKUENE,MIKUMBUNE,MIKUMBUNE,3,MOH,-0.072225,37.6006
28,KIKESA DISP,3563,EASTERN,MACHAKOS,YATTA,KINYAATA,MAKUTANOMACHA,4,MOH,-1.24798,37.6013
76,URUKU H C,1162,EASTERN,CENTRAL MERU,NKUENE,NKUENE,URUKUCMERU,3,MOH,-0.030434,37.6088
19,KATHANJURI DISP,816,EASTERN,EMBU,KYENI,KYENI SOUTH,NYAGARI,4,MOH,-0.42,37.61
32,KINORO DISP,3217,EASTERN,CENTRAL MERU,IGOJI,KINORO,KINORO,4,MOH,-0.176703,37.6126
10,KITOBO DISP,2884,COAST,TAITA TAVETA,TAVETA,KIMORIGO,KITOBO,4,MOH,-3.44028,37.613098
12,ENTARARA H C,4549,RIFT VALLEY,KAJIADO,LOITOKITOK,ROMBO,ENTARARA,3,MOH,-2.978681,37.616278
47,MASUMBA DISP,4234,EASTERN,MAKUENI,NGUU,ITHUMBA,MASUMBA,4,MOH,-2.02439,37.61894
30,SEROLIPI DISP,2115,RIFT VALLEY,SAMBURU,WASO,SELEOLIPI,SEREOLIPI,4,MOH,1.1244,37.6199
25,KIBUGUA DISP,1113,EASTERN,SOUTH MERU,MAGUMONI,THUITA,KATHATWA,4,MOH,-0.36982,37.62027
16,GITHONGO SUB DISTRICT HOSPITAL,1167,EASTERN,CENTRAL MERU,ABOTHUGUCHI WEST,GITHONGO EAST,KARUGWA,1,MOH,-0.005739,37.6215
61,MUMBUNI DISP,4231,EASTERN,MAKUENI,WOTE,WOTE,ITAA,4,MOH,-1.92721,37.6245
54,MASINGA DISP,987,EASTERN,MACHAKOS,MASINGA,MASINGA,MUSUMAA,4,MOH,-0.930548,37.6259
45,MAKUENI DISTRICT HOSPITAL,1042,EASTERN,MAKUENI,WOTE,WOTE,UNOA,1,MOH,-1.78103,37.62703
24,KATULANI DISP,954,EASTERN,MACHAKOS,YATHUI,KIBAUNI,ITUMBULE,4,MOH,-1.53005,37.6345
30,KIINI DISP,2720,EASTERN,SOUTH MERU,MUTHAMBI,MITHERU,GATUA,4,MOH,-0.290323,37.6393
32,KINYATA DISP,963,EASTERN,MACHAKOS,YATTA,KINYAATA,KINYAATA,4,MOH,-1.33411,37.6395
22,MBEERE DISTRICT HOSP,843,EASTERN,MBEERE,SIAKAGO,NTHAWA,SIAKAGO,1,MOH,-0.575225,37.640991
16,KIRITIRI HEALTH CENTRE,839,EASTERN,MBEERE,GACHOKA,KIANJIRU,NYANGWA,3,MOH,-0.678952,37.6411
75,TUNTU DISP MERU GK PRISON DISP,3432,EASTERN,CENTRAL MERU,MIRIGA MIERU WEST,NTIMA,TUNTU,4,MOH,0.052321,37.641232
12,GATIMBI DISP,1077,EASTERN,CENTRAL MERU,ABOTHUGUCHI CENTRAL,MARIENE,MUGAMBONE,4,MOH,-0.000673,37.6417
71,RUIRI RHDC,1186,EASTERN,CENTRAL MERU,BUURI,RUIRI,NCOROIBORO,3,MOH,0.162059,37.6436
2,CHUKA HOSPITAL,1179,EASTERN,SOUTH MERU,CHUKA,KIANG'ONDU,KIANG'ONDU,1,MOH,-0.32748,37.645496
4,KAKO DISP,942,EASTERN,MAKUENI,WOTE,KAKO,KAKOWOTE,4,MOH,-1.694532,37.64669
13,KALALA DISP,4348,EASTERN,MACHAKOS,YATHUI,KIBAUNI,KILALAMACHAKOS,4,MOH,-1.582363,37.652325
91,TULILA DISP,2502,EASTERN,MACHAKOS,YATHUI,KIBAUNI,KILALAMACHAKOS,4,MOH,-1.59588,37.6536
30,MWERAO-NKANGA DISP,2742,EASTERN,NORTH MERU,AKITHI,AKITHI,THINYAINE,4,MOH,0.243768,37.656957
9,GAKOROMONE DISP,2382,EASTERN,CENTRAL MERU,MIRIGA MIERU WEST,MUNICIPALITY,GAKOROMONE,4,MOH,0.044284,37.6595
17,MACHANGA DISP,822,EASTERN,MBEERE,GACHOKA,MAVURIA,MAVURIA,4,MOH,-0.777543,37.6599
16,KARURUMO RHTC,844,EASTERN,EMBU,KYENI,KARURUMO,KATHUNGURI,3,MOH,-0.46,37.66
35,MPUKONI HEALTH CENTRE,1175,EASTERN,SOUTH MERU,MAGUMONI,KABUBONI,KANYAKINI,3,MOH,-0.380376,37.6608
6,IKOMBE DISP,1776,EASTERN,MACHAKOS,YATTA,IKOMBE,IKOMBE,4,MOH,-1.27874,37.6629
160,NKUBU DISP,3718,EASTERN,CENTRAL MERU,NKUENE,NKUENE,KATHERACMERU,4,MOH,-0.062288,37.663113
46,MERU DISTRICT HOSPITAL,1181,EASTERN,CENTRAL MERU,MIRIGA MIERU WEST,MUNICIPALITY,KAAGA2,1,MOH,0.060928,37.6641
0,BARAGU DISP,0,EASTERN,SOUTH MERU,MWIMBI,GANGA,KIRUMI,4,MOH,-0.24,37.67
22,KANYAKINE HEALTH CENTRE,1098,EASTERN,CENTRAL MERU,ABOGETA,KITHANGARI,NTHARENE,3,MOH,-0.120981,37.6702
40,MASIMBA HEALTH CENTRE,1546,RIFT VALLEY,KAJIADO,MASHURU,KENYEWA,KIBOKOKAJIADO,3,MOH,-2.19128,37.6717
39,KYALUMA DISP,0,EASTERN,MAKUENI,KALAWA,KALAWA,MBUKONI,4,MOH,-1.6711,37.6718
21,KATANGI HEALTH CENTRE,1021,EASTERN,MACHAKOS,YATTA,KATANGI,KATANGI,3,MOH,-1.39932,37.6764
0,MITUNTU DISP,0,EASTERN,NORTH MERU,TIGANIA WEST,MITUNTU,THAU,4,MOH,0.186778,37.677007
34,TAVETA DISTRICT HOSPITAL,740,COAST,TAITA TAVETA,TAVETA,BOMANI,MBOGHONI,1,MOH,-3.3987,37.67725
41,MUTHAMBI HEALTH CENTRE,3296,EASTERN,SOUTH MERU,MUTHAMBI,GITINJE,CHAMUNGA,3,MOH,-0.28,37.68
67,MWEINI DISP,247,EASTERN,MAKUENI,NGUU,MWEINI,MWEINI,4,MOH,-2.06572,37.68008
0,LIMAURU DISP,0,EASTERN,NORTH MERU,URINGU,NKOMO,LIMAURU,4,MOH,0.152893,37.689346
8,KIMORIGO DISP,710,COAST,TAITA TAVETA,TAVETA,KIMORIGO,KIMORIGO,4,MOH,-3.46046,37.69194
40,KIVAA DISP,973,EASTERN,MACHAKOS,MASINGA,KIVAA,KIVAA,4,MOH,-0.803821,37.6998
61,NKACII DISP,2745,EASTERN,CENTRAL MERU,ABOGETA,KIRINGA,KITHATU,4,MOH,-0.132542,37.702131
28,KATHITHI DISP,1107,EASTERN,CENTRAL MERU,MIRIGA MIERU EAST,MUNITHU,KIRIMENE,4,MOH,0.069612,37.7025
32,KIRUMI DISP,810,EASTERN,SOUTH MERU,MWIMBI,GANGA,KIRUMI,4,MOH,-0.23964,37.702703
23,KAONGO DISP,1099,EASTERN,CENTRAL MERU,ABOTHUGUCHI EAST,NDURUMA,KAONGO,4,MOH,-0.032333,37.7038
6,KABUGURI DISP,3420,EASTERN,MBEERE,GACHOKA,MAVURIA,GICHICHEMBEERE,4,MOH,-0.728532,37.7055
0,LIMORO DISP,0,EASTERN,NORTH MERU,AKITHI,AKITHI,ATHWANAAKITHI,4,MOH,0.256089,37.707853
3,KATHANJE DISP,2520,EASTERN,MBEERE,SIAKAGO,MUMINJI,GANGARA,4,MOH,-0.621172,37.70991
37,KWAKAVISI DISP,977,EASTERN,MAKUENI,KATHONZWENI,KATHONZWENI,KWAKAVISI,4,MOH,-2.00468,37.7102
12,ISIOLO SAMBURU COMPLEX DISP,857,EASTERN,ISIOLO,CENTRAL,NGARE MARA,GOTU,4,MOH,0.650937,37.7107
36,MUKUI DISP,1143,EASTERN,SOUTH MERU,MWIMBI,GANGA,MUGUMANGO,4,MOH,-0.257658,37.711171
6,KALAWA HEALTH CENTRE,1020,EASTERN,MAKUENI,KALAWA,KALAWA,KALAWA,3,MOH,-1.64506,37.71162
17,KUNENE DISP,1125,EASTERN,NORTH MERU,URINGU,NKOMO,KUNENE,4,MOH,0.13256,37.71242
10,KANYUAMBORA DISP,812,EASTERN,MBEERE,EVURORE,KANYUOMBORA,NGURA,4,MOH,-0.466099,37.7169
8,KAMUMU DISP,808,EASTERN,MBEERE,EVURORE,KIANGOMBE,KATHERAMBEERE,4,MOH,-0.500292,37.7249
28,NJUKINI DISP,724,COAST,TAITA TAVETA,TAVETA,NJUKINI,NJUKINITAVETA,4,MOH,-3.19,37.725128
21,KIBOKO DISP,253,EASTERN,MAKUENI,MAKINDU,KIBOKO,KAASUVI,4,MOH,-2.24791,37.72598
15,KATHONZWENI SUB H C,952,EASTERN,MAKUENI,KATHONZWENI,KATHONZWENI,ITUKA,3,MOH,-1.91277,37.72884
0,URINGU DISP,4694,EASTERN,NORTH MERU,URINGU,NKOMO,KILENCHUNE,4,MOH,0.145962,37.734072
3,CHALA DISP,706,COAST,TAITA TAVETA,TAVETA,CHALA,CHALA,4,MOH,-3.29582,37.736031
27,MUTIONJURI DISP,4205,EASTERN,NORTH MERU,TIGANIA WEST,KIANJAI,KIANJAI,4,MOH,0.17241,37.74123
27,ILTILAL DISP,3369,RIFT VALLEY,KAJIADO,LOITOKITOK,KUKU,KUKU,4,MOH,-2.949365,37.749396
34,MAGUTUNI SUB-DISTRICT HOSPITAL,1126,EASTERN,SOUTH MERU,MWIMBI,KIERA,MAGUTUNI,1,MOH,-0.23523,37.751235
62,OLORIKA DISP,3218,RIFT VALLEY,KAJIADO,LOITOKITOK,KUKU,OLORIKA,4,MOH,-2.778795,37.753712
14,MATA DISP,714,COAST,TAITA TAVETA,TAVETA,JIPE,MATA,4,MOH,-3.47483,37.7561
19,KAUMBUU DISP,4691,EASTERN,MAKUENI,KALAWA,ATHI,MIANGENIMAKUENI,4,MOH,-1.62675,37.7586
38,MUMBUNI DISP,3950,EASTERN,SOUTH MERU,MUTHAMBI,GITINJE,KANDUNGU,4,MOH,-0.28,37.76
8,KALII SUB H C,946,EASTERN,MAKUENI,MAKINDU,TWAANDU,KALII,3,MOH,-2.10167,37.76038
18,MAIKONA DISP,2386,EASTERN,MARSABIT,MAIKONA,MAIKONA,MAIKONA,4,MOH,2.812325,37.762325
15,GIAKI DISP,1081,EASTERN,CENTRAL MERU,MIRIGA MIERU EAST,GIAKI,KAMBEREU,4,MOH,0.03352,37.7684
20,KIANGINI CHANDARIA DIS,4228,EASTERN,MAKUENI,KATHONZWENI,MBUVO,KIANGINI,4,MOH,-2.06983,37.76875
15,KIRIE DISP,820,EASTERN,MBEERE,SIAKAGO,MUTITU,KIRIE,4,MOH,-0.573522,37.7739
0,KIMACHIA DISP,0,EASTERN,NORTH MERU,URINGU,KIMACHIA,NTOMBO,4,MOH,0.097733,37.777405
24,MERILLE DISP,4322,EASTERN,MARSABIT,LAISAMIS,MERILLE,MERILLE,4,MOH,1.492321,37.782325
5,ISHIARA SUB-DISTRICT HOSPITAL,841,EASTERN,MBEERE,EVURORE,ISHIARA,EVURORE,1,MOH,-0.452179,37.7833
50,MAVINDINI HEALTH CENTRE,989,EASTERN,MAKUENI,KATHONZWENI,MAVINDINI,MAVINDINI,3,MOH,-1.81798,37.78557
38,KITHIOKO HEALTH CENTRE,969,EASTERN,MACHAKOS,MASINGA,KITHYOKO,KITHYOKO,3,MOH,-1.0745,37.7859
16,KATHULUMBI SUB H C,953,EASTERN,MAKUENI,KALAWA,KATHULUMBI,KATHULUMBI,3,MOH,-1.73039,37.78815
22,MIATHENE SUB-DISTRICT HOSPITAL,1172,EASTERN,NORTH MERU,TIGANIA WEST,MIATHENE,MIATHENE,1,MOH,0.14875,37.7912
46,KYONDONI DISP,4268,EASTERN,MACHAKOS,MASINGA,KIVAA,KYONDONIMACHA,4,MOH,-0.841232,37.792326
12,KANZOKEA COMMUNITY DISP,0,EASTERN,MAKUENI,KATHONZWENI,KITHUKI,KIMUNDI,4,MOH,-1.92433,37.7965
26,MUTHARA DISP,1145,EASTERN,NORTH MERU,TIGANIA NORTH,MUTHARA,KITHARENE,4,MOH,0.227599,37.7975
13,KIAMBERE HEALTH CENTRE,836,EASTERN,MBEERE,GACHOKA,KIAMBERE,KIAMBERE,3,MOH,-0.691489,37.8007
21,MBEU RURAL DEMONSTRATION UNIT,3431,EASTERN,NORTH MERU,URINGU,MBEU,MBEUNMERU,3,MOH,0.08231,37.80232
4,ILIKA DISP,3096,EASTERN,KITUI,YATTA,YATTA,ILIKA,4,MOH,-1.59297,37.8065
23,KISEVENI DISP,3095,EASTERN,KITUI,KABATI,KATUTU,KATUTU,4,MOH,-1.22183,37.8088
63,MUTEMBUKU SUB HEALTH CENTRE,654,EASTERN,MAKUENI,KALAWA,KATHULUMBI,MUTEMBUKU,3,MOH,-1.69642,37.81112
15,KATUTU DISP,4702,EASTERN,KITUI,KABATI,KATUTU,KATUTU,4,MOH,-1.152321,37.812532
0,KITHEO DISP,0,EASTERN,NORTH MERU,AKITHI,KITHEO,KITHEOAKITHI,4,MOH,0.145355,37.815995
66,OLTIASIKA DISP,1535,RIFT VALLEY,KAJIADO,LOITOKITOK,IMBIRIKANI,OLTIASIKA,4,MOH,-2.602407,37.818751
2,GACABARI DISP,3391,EASTERN,MBEERE,GACHOKA,KIAMBERE,GACABARI,4,MOH,-0.672321,37.82321
43,MAKINDU SUB-DISTRICT HOSPITAL,1041,EASTERN,MAKUENI,MAKINDU,MAKINDU,MANYATTAMAKUENI,1,MOH,-2.28127,37.82413
0,CHARURU DISP,0,EASTERN,NORTH MERU,TIGANIA NORTH,MUTHARA,KITHARENE,4,MOH,0.192156,37.825027
25,KWA- VONZA DISP,4139,EASTERN,KITUI,YATTA,KWA VONZA,MIKUYUNIKITUI,4,MOH,-1.37858,37.8262
6,HURI HILLS DISP,0,EASTERN,MARSABIT,MAIKONA,HURRI HILLS,HURRI HILLS,4,MOH,3.48922,37.8293
15,KANJUKI HEALTH CENTRE,1092,EASTERN,SOUTH MERU,IGAMBANG'OMBE,KAJUKI,KAJUKI,3,MOH,-0.34231,37.83232
27,RIACHINA DISP,2866,EASTERN,MBEERE,GACHOKA,KIAMBERE,RIACHINA,4,MOH,-0.78951,37.8331
26,KWA-MUTONGA DISP,889,EASTERN,KITUI,KABATI,KWA-MUTONGA,SYOKITHUMBI,4,MOH,-1.31184,37.8343
24,MIKINDURI DISP,1136,EASTERN,NORTH MERU,TIGANIA CENTRAL,MIKINDURI WEST,ANJUKI,4,MOH,0.123208,37.836
50,YATTA HEALTH CENTRE,929,EASTERN,KITUI,YATTA,YATTA,MAKUSYA,3,MOH,-1.46519,37.8399
32,KITHUKI DISP,970,EASTERN,MAKUENI,KATHONZWENI,KITHUKI,KITHUKI,4,MOH,-1.98943,37.85507
33,THANA NZAU DISP,4586,EASTERN,MWINGI,MIGWANI,THITANI,THAANA,4,MOH,-0.89232,37.86232
8,KANGETA H C,1096,EASTERN,NORTH MERU,IGEMBE NORTH,MUKULULU,LIBURU,4,MOH,0.266577,37.8746
34,KITISE HEALTH CENTRE,1024,EASTERN,MAKUENI,KATHONZWENI,KITISE,KITISEMAKUENI,3,MOH,-2.05631,37.87693
2,IIANI DISP,0,EASTERN,MAKUENI,KATHONZWENI,KANTHUNI,KANTHUNI,4,MOH,-1.87324,37.87744
25,MUTHATHARA DISP,3760,EASTERN,MBEERE,EVURORE,ISHIARA,KAMARANDIMBEERE,4,MOH,-0.431906,37.8879
31,KIBURINE DISP,3441,EASTERN,CENTRAL MERU,MIRIGA MIERU EAST,KIBURINE,MBIRIKENE,4,MOH,-0.001939,37.8887
0,AMUGAA DISP,4695,EASTERN,NORTH MERU,TIGANIA EAST,ANKAMIA,AMUGAA,4,MOH,0.163418,37.889069
47,TIVA DISP,912,EASTERN,KITUI,CENTRAL,KYANGWITHYA WEST,UTOONI,4,MOH,-1.43628,37.8899
30,NZAWA DISP,907,EASTERN,MWINGI,MIGWANI,NGUUTANI,NZAWA,4,MOH,-1.11452,37.8983
6,KANYURU DISP,746,EASTERN,THARAKA,CENTRAL THARAKA,NTUGI,KANYURU,4,MOH,-0.149053,37.90093
9,KANYANGI DISP,879,EASTERN,KITUI,YATTA,KANYANGI,SYOMUNYU,4,MOH,-1.7641,37.901
1,AKACHIU H C KANUNI H C,2516,EASTERN,NORTH MERU,IGEMBE S/WEST,AKACHIU,AUKI,3,MOH,0.20324,37.90234
19,KAUWI HEALTH CENTRE,920,EASTERN,KITUI,KABATI,KAUWI,KAUWI,3,MOH,-1.23961,37.9032
0,KANTHIARI DISP,0,EASTERN,NORTH MERU,IGEMBE CENTRAL,KANTIHIARI,KINYANKA,4,MOH,0.213503,37.910418
12,KIEGOI DISP,3804,EASTERN,NORTH MERU,IGEMBE CENTRAL,KANTIHIARI,GITUUMI,4,MOH,0.23,37.92
2,CHIAKARIGA HEALTH CENTRE,1165,EASTERN,THARAKA,SOUTH THARAKA,CHIAKARIGA,CHIAKARIGA,3,MOH,-0.28,37.92
80,SYUMILE DISP,695,EASTERN,MAKUENI,MAKINDU,NGUUMO,SYUMILE,4,MOH,-2.27925,37.92147
43,WINZIEI DISP,917,EASTERN,MWINGI,MIGWANI,THITANI,WINZYIEEI,4,MOH,-0.946025,37.9291
0,KUNATI DISP,0,EASTERN,NORTH MERU,TIGANIA EAST,THANKATHA,KUNATI,4,MOH,0.085417,37.930123
33,NYAMBENE DISTRICT HOSPITAL,4423,EASTERN,NORTH MERU,IGEMBE CENTRAL,MAUA,KAIBU,1,MOH,0.242123,37.93232
3,ILENGI DISP,877,EASTERN,KITUI,IKUTHA,MALUMA,MUAMBANI,4,MOH,-1.90411,37.9377
18,LAARE HEALTH CENTRE,1169,EASTERN,NORTH MERU,LAARE,ANTUAMBUI,ANTUAMBUI,3,MOH,0.33692,37.9391
23,MUUMONI DISP,898,EASTERN,MWINGI,MUUMONI,KAKUYU,IKONGO,4,MOH,-0.571593,37.9434
7,KALIMANI DISP,3946,EASTERN,KITUI,KABATI,KALIMANI,KAVUVUU,4,MOH,-1.33962,37.9455
14,NKONDI DISP,1156,EASTERN,THARAKA,CENTRAL THARAKA,NKONDI,NKONDI,4,MOH,-0.04053,37.956
14,KATULANI HEALTH CENTRE,919,EASTERN,KITUI,CENTRAL,KATULANI,KATULANIKITUI,3,MOH,-1.52074,37.9566
38,TYAA KAMUTHALE DISP,913,EASTERN,MWINGI,MUUMONI,KAKUYU,TYAA,4,MOH,-0.725749,37.9624
13,KATILINI DISP,3777,EASTERN,KITUI,IKUTHA,KALIVU,KATILINI,4,MOH,-2.052321,37.963212
22,KIBWEZI HEALTH CENTRE,1023,EASTERN,MAKUENI,KIBWEZI,KIKUMBULYU,MIKUYUNIMAKUENI,3,MOH,-2.4096,37.96676
9,THARAKA DISTRICT HOSPITAL,1170,EASTERN,THARAKA,CENTRAL THARAKA,MARIMANTI,KIRANGARE,1,MOH,-0.16,37.97
5,KAMANYAKI DISP,1093,EASTERN,THARAKA,SOUTH THARAKA,KAMANYAKI,KAMANYAKI,4,MOH,-0.32,37.97
38,KYAANI DISP,4454,EASTERN,MAKUENI,KIBWEZI,UTITHI,UTITHI,4,MOH,-2.55381,37.97803
29,MUTUATI H C,1149,EASTERN,NORTH MERU,MUTUATI,KABACHI,AMWATHI 1,3,MOH,0.385305,37.9798
14,KYAENI DISP,4584,EASTERN,MWINGI,CENTRAL,KIOMO,KIOMO,4,MOH,-0.93231,37.98253
21,MARSABIT DISTRICT HOSPITAL,1068,EASTERN,MARSABIT,CENTRAL,NAGAYO,MAJENGOMARSABIT,1,MOH,2.324839,37.985249
17,KATHYAKA DISP,4693,EASTERN,MAKUENI,KIBWEZI,KIKUMBULYU,NGULU,4,MOH,-2.26236,37.98967
4,KALILUNI DISP,0,EASTERN,MWINGI,MIGWANI,MIGWANI,KALILUNIMWINGI,4,MOH,-1.08153,37.99
30,MATINYANI DISP,892,EASTERN,KITUI,KABATI,MUSENGO,KAKUMUTI,4,MOH,-1.2485,37.9933
9,KALULINI SUB HEALTH CENTRE,4229,EASTERN,MAKUENI,KIBWEZI,KIKUMBULYU,NGANDANI,3,MOH,-2.34879,37.99387
74,NZEVENI SUB HEALTH CENTRE,3665,EASTERN,MAKUENI,MTITO ANDEI,NZAMBANI,MUTHINGIINI,3,MOH,-2.59171,37.99668
20,MIGWANI SUB-DISTRICT HOSP,923,EASTERN,MWINGI,MIGWANI,MIGWANI,KALILUNIMWINGI,1,MOH,-1.08919,38.0062
17,KAUMA DISP,3084,EASTERN,KITUI,KABATI,KAUMA,MUSOSYAKITUI,4,MOH,-1.27073,38.0066
24,KITUI DISTRICT HOSPITAL,930,EASTERN,KITUI,CENTRAL,TOWNSHIP,TOWNSHIPKITUI,1,MOH,-1.3666,38.0163
52,N.Y.S DISP,888,EASTERN,KITUI,MUTOMO,IKANGA,ILUSYA,9,MOH,-1.633333,38.016667
34,THARAKA DISP,911,EASTERN,MWINGI,MUUMONI,THARAKA,GAKOMBE,4,MOH,-0.311694,38.0172
13,KONYU DISP,4196,EASTERN,MWINGI,MUUMONI,KATSE,KONYU,4,MOH,-0.479087,38.0282
21,KISASI HEALTH CENTRE,411,EASTERN,KITUI,CHULUNI,KISASI,MASIMBINI,3,MOH,-1.56242,38.0305
31,NZELUNI DISP,909,EASTERN,MWINGI,MIGWANI,MIGWANI,MUIVU,4,MOH,-1.11452,38.0315
33,MISEWANI DISP,3912,EASTERN,KITUI,CENTRAL,KYANGWITHYA EAST,MISEWANI,4,MOH,-1.332321,38.032332
26,NGUNGANI DISP,4581,EASTERN,MWINGI,MUUMONI,KAKUYU,MUSOSYAMWINGI,4,MOH,-0.593329,38.0364
18,TUNYAI DISP,1160,EASTERN,THARAKA,NORTH THARAKA,GATUE,GATUNGA,4,MOH,-0.17,38.04
32,NTHAMBIRO DISP,3807,EASTERN,NORTH MERU,IGEMBE EAST,NGUYUYU,NTHAMBIRO,4,MOH,0.246372,38.043906
12,KASYALA DISP,6160,EASTERN,KITUI,CENTRAL,KYANGWITHYA EAST,IVAINI,4,MOH,-1.2887,38.0455
71,NTHONGONI DISP,3523,EASTERN,MAKUENI,MTITO ANDEI,NTHONGONI,MANGELETE,4,MOH,-2.70281,38.04729
70,NGWATA SUB HEALTH CENTRE,1011,EASTERN,MAKUENI,MTITO ANDEI,NGWATA,MUKANGE,3,MOH,-2.52758,38.04904
5,KALISASI DISP,4585,EASTERN,MWINGI,CENTRAL,MWINGI,KAVUVWANI,4,MOH,-0.979063,38.0525
30,SONGA DISP,1062,EASTERN,MARSABIT,CENTRAL,SONGA,SONGA,4,MOH,2.21373,38.0581
24,MWINGI DISTRICT HOSPITAL,932,EASTERN,MWINGI,CENTRAL,MWINGI,KYANIKAMWINGI,1,MOH,-0.9334,38.0673
49,YANZUU DISP,3778,EASTERN,KITUI,CHULUNI,NZAMBANI,MALUMA/ITHUMULA,4,MOH,-1.43462,38.0683
8,KATSE DISP,882,EASTERN,MWINGI,MUUMONI,KATSE,KAMATHITU,4,MOH,-0.52534,38.0723
11,KANYUNGU DISP,0,EASTERN,MAKUENI,KIBWEZI,KIKUMBULYU,KATHYAKA,4,MOH,-2.2884,38.07515
27,SAGANTE DISP,3375,EASTERN,MARSABIT,GADAMOJI,SAGANTE,SAGANTE,4,MOH,2.328398,38.089029
0,MANYATTA JILLO DISP,4686,EASTERN,MARSABIT,GADAMOJI,QILTA,QILTA,4,MOH,2.44,38.09
8,KAMANDIU DISP,3775,EASTERN,KITUI,CENTRAL,MIAMBANI,KAMANDIO MALILI,4,MOH,-1.15647,38.1033
6,KANYONGA DISP,3796,EASTERN,MWINGI,CENTRAL,KANZANZU,MATHYAKANICENTRAL,4,MOH,-0.979063,38.1075
0,BUBISA DISP,1048,EASTERN,MARSABIT,MAIKONA,BUBISA,BUBISA,4,MOH,2.59,38.11
32,MIAMBANI HEALTH CENTRE,922,EASTERN,KITUI,CENTRAL,MIAMBANI,MUNGANGA,3,MOH,-1.26299,38.1134
7,KATALAWA DISP,3776,EASTERN,MWINGI,CENTRAL,MUMBUNI,KISOVO,4,MOH,-1.06166,38.1163
31,MBITINI DISP,893,EASTERN,KITUI,CHULUNI,MBITINI,MBITINI,4,MOH,-1.60853,38.12
28,KYATUNE DISP,890,EASTERN,KITUI,MUTOMO,KYATUNE,KYATUNE,4,MOH,-1.80088,38.1233
46,MASONGALENI HEALTH CENTRE,1026,EASTERN,MAKUENI,KIBWEZI,MASONGALENI,MASIMBANI,3,MOH,-2.36843,38.12828
14,KINA DISP,1119,EASTERN,NORTH MERU,NDOLELI,KAWIRU,BAIBARIU,4,MOH,0.290141,38.129882
7,KATHAGACHINI  DISP,759,EASTERN,THARAKA,NORTH THARAKA,KATHANGACHINI,KATHANGACHINI,4,MOH,-0.12,38.13
23,MWAKITAU DISP,719,COAST,TAITA TAVETA,MWATATE,MWAKITAU,MWAKITAU,4,MOH,-3.40801,38.136189
41,WAITA DISP,916,EASTERN,MWINGI,CENTRAL,WAITA,WAITA,4,MOH,-0.783305,38.1379
5,INYUU DISP,878,EASTERN,KITUI,CHULUNI,NZAMBANI,NGUNGICHULUNI,4,MOH,-1.43073,38.15
3,ENZIU DISP,875,EASTERN,MWINGI,CENTRAL,MWINGI,ENZIU,4,MOH,-0.91254,38.16231
18,KYUSO SUB-DISTRICT HOSP,4204,EASTERN,MWINGI,KYUSO,KIMANGAO,KIMANGAO,1,MOH,-0.53231,38.16232
57,MTITO ANDEI HEALTH CENTRE,1001,EASTERN,MAKUENI,MTITO ANDEI,MTITO-ANDEI,KATHEKANI,3,MOH,-2.671688,38.16549
33,KITHYULULU DISP,4323,EASTERN,MAKUENI,KIBWEZI,MASONGALENI,ULILINZI,4,MOH,-2.39693,38.17197
17,KULA MAWE DISP,860,EASTERN,ISIOLO,KINNA,KULAMAWE,KULAMAWE,4,MOH,0.580342,38.176
13,KINNA H C,858,EASTERN,ISIOLO,KINNA,KINNA,KINNA,3,MOH,0.372175,38.1796
2,IKUTHA HEALTH CENTRE,918,EASTERN,KITUI,IKUTHA,IKUTHA,NDILI,3,MOH,-2.07467,38.1845
16,KYUSO G. K. PRISON DISP,0,EASTERN,MWINGI,KYUSO,KYUSO,GAI,4,MOH,-0.592321,38.192324
19,USUENI DISP,4128,EASTERN,THARAKA,NORTH THARAKA,KATHANGACHINI,KATHANGACHINI,4,MOH,-0.13,38.2
37,TSEIKURU HEALTH CENTRE,928,EASTERN,MWINGI,TSEIKURU,TSEIKURU,NZIITU,3,MOH,-0.319403,38.2011
39,MUTITO HEALTH CENTRE,924,EASTERN,KITUI,MUTITU,MUTITU,KITOOMUTITU,3,MOH,-1.23648,38.2011
41,MUTOMO DISP,4140,EASTERN,KITUI,MUTOMO,MUTOMO,KANDAE,4,MOH,-1.85134,38.2011
22,MUI DISP,895,EASTERN,MWINGI,NUU,MUI,NGILUNIMWINGI,4,MOH,-1.11892,38.2066
35,THITHA DISP,4582,EASTERN,MWINGI,CENTRAL,ENDUI,KATITIKA,4,MOH,-0.832594,38.2121
21,MIVUKONI DISP,894,EASTERN,MWINGI,KYUSO,MIVUKONI,KATUKA,4,MOH,-0.407504,38.2154
40,USUENI DISP,914,EASTERN,MWINGI,TSEIKURU,MUSAVANI,USUENI,4,MOH,-0.137693,38.2176
22,KISAYANI DISP,3087,EASTERN,KITUI,MUTOMO,KIBWEA,KIBWEA,4,MOH,-1.71245,38.2212
18,MNENGWA  DISP,4008,COAST,TAITA TAVETA,MWATATE,MWAKITAU,GODOMATAVETA,4,MOH,-3.4314,38.2421
11,KITISE DISP,3093,EASTERN,MWINGI,NUU,KALITINI,KITISEMWINGI,4,MOH,-1.02311,38.243
1,ATHI KAMUYUNI DISP,0,EASTERN,MAKUENI,KIBWEZI,MASONGALENI,ULILINZI,4,MOH,-2.50334,38.2614
11,KASALA DISP,881,EASTERN,KITUI,IKUTHA,KASAALA,UYINI,4,MOH,-2.14356,38.2701
14,KOYA DISP,3376,EASTERN,MARSABIT,LAISAMIS,LAISAMIS,KOYA,4,MOH,1.59324,38.2785
25,MWANDA DISP,721,COAST,TAITA TAVETA,WUNDANYI,MWANDA,KISHAMBAWUNDANYI,4,MOH,-3.40195,38.285809
69,NGILUNI DISP,0,EASTERN,MAKUENI,MTITO ANDEI,MTITO-ANDEI,KATHEKANI,4,MOH,-2.66435,38.29079
21,MRUGUA DISP,717,COAST,TAITA TAVETA,MWATATE,BURA,MURUGUA,4,MOH,-3.43486,38.290909
6,KALIKU DISP,3094,EASTERN,KITUI,MUTITU,KALIKU,KAVUTEI,4,MOH,-1.30871,38.2979
0,NYAANI DISP,4682,EASTERN,MWINGI,NUU,MUITANGOMBE,MUANGENI,4,MOH,-1.149878,38.302053
27,NGUNI HEALTH CENTRE,925,EASTERN,MWINGI,NGUNI,NGUNI,MWASUMA,3,MOH,-0.80286,38.309
45,MWITIKA DISP,904,EASTERN,KITUI,MWITIKA,MWITIKA,KIKUU,4,MOH,-1.47205,38.309
16,MGANGE DISP,715,COAST,TAITA TAVETA,WUNDANYI,MGANGE,MGANGE NYIKA,4,MOH,-3.40141,38.313862
18,KAUMU DISP,885,EASTERN,KITUI,MWITIKA,MWITIKA,KIKUU,4,MOH,-1.52539,38.3145
1,BURA DISP,704,COAST,TAITA TAVETA,MWATATE,BURA,NYOLO,4,MOH,-3.50013,38.315701
9,KISHUSHE DISP,711,COAST,TAITA TAVETA,WUNDANYI,KISHUSHE,KISHUSHE,4,MOH,-3.2783,38.323799
16,KATYETHOKA DISP,883,EASTERN,KITUI,MUTOMO,MATHIMA,KIVYUNI,4,MOH,-1.83467,38.3268
48,VOO DISP,915,EASTERN,KITUI,MUTOMO,VOO,KASASI,4,MOH,-1.66579,38.329
19,MASYUNGWA DISP,4580,EASTERN,MWINGI,TSEIKURU,MUSYUNGWA,KATHIANIMWINGI,4,MOH,-0.379401,38.3313
3,BILIKO DISP,4302,EASTERN,ISIOLO,MERTI,BISAN BILIKU,BISAN BILIKU,4,MOH,0.912321,38.332323
30,SAGAIGU DISP,2881,COAST,TAITA TAVETA,MWATATE,BURA,SAGHAIGU,4,MOH,-3.43297,38.3335
37,WESU DISTRICT HOSPITAL,741,COAST,TAITA TAVETA,WUNDANYI,WUNDANYI,WUNDANYI,1,MOH,-3.40885,38.342159
7,KASIGAU HEALTH CENTRE,732,COAST,TAITA TAVETA,WUNDANYI,WERUGHA,MLONDO,3,MOH,-3.3842,38.3438
31,TURBI DISP,3380,EASTERN,MARSABIT,MAIKONA,TURBI,TURBI,4,MOH,2.997043,38.355247
38,WUNDANYI HEALTH CENTRE,738,COAST,TAITA TAVETA,WUNDANYI,WUNDANYI,WUNDANYI,3,MOH,-3.41828,38.359781
29,NUU HEALTH CENTRE,926,EASTERN,MWINGI,NUU,NUU,NGAANIMWINGI,3,MOH,-1.06937,38.3641
10,KANZIKO DISP,880,EASTERN,KITUI,IKUTHA,KANZIKU,KEUTUNDA,4,MOH,-1.99356,38.3657
26,MWATATE HEALTH CENTRE,735,COAST,TAITA TAVETA,MWATATE,MWACHABO,MWACHABO,3,MOH,-3.50728,38.368629
20,MPINZINYI HEALTH CENTRE,734,COAST,TAITA TAVETA,MWATATE,KISHAMBA,KAYA/ILOLE,3,MOH,-3.45746,38.37886
29,NYACHE HEALTH CENTRE,736,COAST,TAITA TAVETA,WUNDANYI,WUMINGU,NYACHE,3,MOH,-3.33836,38.380901
15,MBALE HEALTH CENTRE,733,COAST,TAITA TAVETA,WUNDANYI,MBALE,MBALE CENTRAL,3,MOH,-3.3793,38.383011
22,MSAU DISP,718,COAST,TAITA TAVETA,TAUSA,RONGE,MSAU/RAHAI,4,MOH,-3.4139,38.408401
37,MUTHA DISP,899,EASTERN,KITUI,MUTOMO,MUTHA,NGAANIKITUI,4,MOH,-1.78689,38.4201
25,NGOMENI DISP,905,EASTERN,MWINGI,NGOMENI,NGOMENI,IKIME,4,MOH,-0.643176,38.4302
24,MWAMBIRWA DISP,720,COAST,TAITA TAVETA,MWAMBIRWA,RONGE JUU,KISHAU/KIWETO,4,MOH,-3.35282,38.431301
5,GHAZI DISP,708,COAST,TAITA TAVETA,TAUSA,NGOLIA,GHAZI,4,MOH,-3.28928,38.446301
4,BUSSELA DISP - BULESA,848,EASTERN,ISIOLO,MERTI,BULESA,BULESA,4,MOH,1.010123,38.462321
32,SHELEMBA DISP,725,COAST,TAITA TAVETA,TAUSA,RONGE,RONG'E NYIKA,4,MOH,-3.43161,38.46846
13,MANYANI DISP,3313,COAST,TAITA TAVETA,TSAVO N. PARK,TSAVO N. PARK,TSAVO N. PARK,4,MOH,-3.089864,38.477242
27,NDOME DISP,723,COAST,TAITA TAVETA,TAUSA,NGOLIA,NDOME,4,MOH,-3.297,38.477959
12,KITUI ROAD N.Y.S. DISP,0,EASTERN,MWINGI,NGUNI,UKASI,UKASI,4,MOH,-0.782321,38.48241
41,MANYANI PRISON DISP,713,COAST,TAITA TAVETA,TSAVO N. PARK,TSAVO N. PARK,TSAVO N. PARK,9,MOH,-3.095698,38.495506
33,TAUSA DISP,3923,COAST,TAITA TAVETA,TAUSA,MBOLOLO,TAUSA,4,MOH,-3.34175,38.50169
42,WINGEMI DSIPENSARY,4195,EASTERN,MWINGI,NUU,WINGEMI,MALAWA,4,MOH,-1.05285,38.5073
6,ELDERA DISP,849,EASTERN,ISIOLO,GARBA TULLA,GARBA TULLA,GARBA TULLA SOUTH,4,MOH,0.526912,38.517536
19,MALKA DAKA DISP,862,EASTERN,ISIOLO,GARBA TULLA,MALKA DAKA,MALKADAKA,4,MOH,0.859105,38.5217
39,UKASI DISP,3098,EASTERN,MWINGI,NGUNI,UKASI,UKASI,4,MOH,-0.808366,38.5293
35,NDOVU DISP,727,COAST,TAITA TAVETA,VOI,VOI,MWANGEA,4,MOH,-3.394956,38.551224
19,MOI VOI DISTRICT HOSPITAL,739,COAST,TAITA TAVETA,VOI,VOI,KALOLENITAVETA,1,MOH,-3.39091,38.56205
10,URAN DISP,1063,EASTERN,MOYALE,URAN,GOLOLE,KAR BURURI,4,MOH,3.610375,38.563988
7,GAFARSA DISP,852,EASTERN,ISIOLO,GARBA TULLA,GAFARSA,GAFARSA,4,MOH,0.832321,38.572132
6,GOLOLE DISP,3379,EASTERN,MOYALE,URAN,GOLOLE,GOLOLE,4,MOH,3.572321,38.57231
31,SAGALA HEALTH CENTRE,737,COAST,TAITA TAVETA,VOI,SAGALLA,TERI,3,MOH,-3.49354,38.582191
6,KAJIRE DISP,2883,COAST,TAITA TAVETA,VOI,SAGALLA,KISHAMBAVOI,4,MOH,-3.51759,38.60778
36,WERUGHA DISP,729,COAST,TAITA TAVETA,VOI,KASIGAU,RUKANGATAVETA,4,MOH,-3.81356,38.639858
22,MERTI HEALTH CENTRE,872,EASTERN,ISIOLO,MERTI,MERTI,MERTI SOUTH,3,MOH,1.06354,38.6421
0,BUGUTA DISP,0,COAST,TAITA TAVETA,VOI,KASIGAU,BUGUTA,4,MOH,-3.67546,38.654357
12,MAKWASINJI DISP,4655,COAST,TAITA TAVETA,VOI,KASIGAU,MAKWASINYI,4,MOH,-3.81333,38.681469
0,IRESA-BORU DISP,0,EASTERN,ISIOLO,SERICHO,ERESA BORU,IRESA BORU,4,MOH,0.979586,38.731175
16,KORBESA DISP,859,EASTERN,ISIOLO,MERTI,KORBESA,MATA ARBAISIOLO,4,MOH,1.19208,38.7662
2,BENANE DISP,1189,N. EASTERN,GARISSA,BENANE,TOKOJO,TOKOJO,4,MOH,0.42712,38.831
4,DAMBALA FACHANA DISP,1049,EASTERN,MOYALE,OBBU,DAMBALA FACHANA,DAMBALA FACHANA,4,MOH,3.42123,38.83231
2,BORI DISP,3378,EASTERN,MOYALE,CENTRAL,BORI,BORI,4,MOH,3.44123,39.00012
1,ASAKO DISP,1188,COAST,TANA RIVER,BANGALE,MBALAMBALA,ASAKO,4,MOH,-0.151968,39.014671
3,BANGALE DISP,743,COAST,TANA RIVER,BANGALE,BANGALE,BANGALE,4,MOH,-0.72541,39.016659
58,WALDENA DISP,787,COAST,TANA RIVER,GALORE,WALDENA,WALDENA,4,MOH,-1.61078,39.02536
7,MOYALE DISTRICT HOSPITAL,1069,EASTERN,MOYALE,CENTRAL,BUTIYE,BUTIYE,1,MOH,3.499712,39.026077
18,MACKINON DISP,583,COAST,KWALE,SAMBURU,MACKNNON RD,MACKINNON RD,4,MOH,-3.72904,39.0402
35,MBALAMBALA DISP,765,COAST,TANA RIVER,GALORE,CHIFIRI,CHIFIRI,4,MOH,-1.134399,39.066174
24,MBALAMBALA DISP,1199,N. EASTERN,GARISSA,BALAMBALA,BALAMBALA,BALAMBALA,4,MOH,0.00824,39.0759
11,KILIMANGODO DISP,579,COAST,KWALE,MSAMBWENI,MWERENI,KILIMANGODO,4,MOH,-4.35192,39.0764
4,ARBAJAHAN DISP,3826,N. EASTERN,WAJIR,GRIFTU,ARBAJAHAN,ARBAJAHAN,4,MOH,2.0912,39.0811
16,LUNGA LUNGA DISP,581,COAST,KWALE,MSAMBWENI,LUNGA LUNGA,SEGAKWALE,4,MOH,-4.55366,39.1206
27,SERICHO DISP,870,EASTERN,ISIOLO,SERICHO,SERICHO,SERICHO,4,MOH,1.10357,39.1217
50,TARU HEALTH CENTRE,606,COAST,KWALE,SAMBURU,TARU,TARU,3,MOH,-3.75431,39.1423
25,MODOGASHE HEALTH CENTRE,1208,N. EASTERN,GARISSA,MODOGASHE,MODOGASHE,MODOGASHE,3,MOH,0.66606,39.143
54,VIGURUNGANI DISP,600,COAST,KWALE,KINANGO,VIGURUNGANI,VIGURUNGANI,4,MOH,-4.04133,39.1633
9,CHIFIRI DISP,0,COAST,TANA RIVER,GALORE,CHIFIRI,CHIFIRI,4,MOH,-1.191098,39.164769
44,NDAVAYA DISP,597,COAST,KWALE,KINANGO,NDAVAYA,NDAVAYA,4,MOH,-4.25718,39.167
0,DADACHASA DISP,4303,EASTERN,ISIOLO,MERTI,MALKAGALLA,MALKA GALLA,4,MOH,1.472029,39.180705
55,VITSANGALAWENI DISP,601,COAST,KWALE,MSAMBWENI,DZOMBO,MRIMA/MALAMBA,4,MOH,-4.48469,39.2142
53,VANGA H C,607,COAST,KWALE,MSAMBWENI,VANGA,VANGA,3,MOH,-4.660974,39.217396
13,KINANGONI DISP,4131,COAST,KWALE,SAMBURU,SAMBURU,KINAGONIKWALE,4,MOH,-3.86981,39.2324
25,MAMBA DISP,0,COAST,KWALE,MSAMBWENI,DZOMBO,MRIMA/MALAMBA,4,MOH,-4.45926,39.2438
23,MAKAMINI DISP,586,COAST,KWALE,SAMBURU,MAKAMINI,MAKAMINI,4,MOH,-3.98457,39.2454
32,MKONGANI DISP,591,COAST,KWALE,KUBO,MKONGANI,MKOMBA,4,MOH,-4.29071,39.2675
46,SAMBURU H C,604,COAST,KWALE,SAMBURU,SAMBURU,MATOPE,3,MOH,-3.79005,39.2698
22,MAJORENI DISP,585,COAST,KWALE,MSAMBWENI,PONGWE/KIDIMU,MAJORENI,4,MOH,-4.57561,39.2762
5,GODOMA DISP,1052,EASTERN,MOYALE,GOLBO,GODOMA,GODOMA DIDIGO,4,MOH,3.42103,39.277306
49,SILALONI DISP,0,COAST,KWALE,SAMBURU,CHENGONI,SILALONI,4,MOH,-3.62041,39.2822
21,MAJIMOTO DISP,3669,COAST,KWALE,MSAMBWENI,DZOMBO,MRIMA/MALAMBA,4,MOH,-4.40447,39.2944
7,KIBUYUNI DISP,577,COAST,KWALE,KUBO,MANGAWANI,MANGAWANI,4,MOH,-4.39594,39.31
12,KINANGO SUB-DISTRICT HOSPITAL,609,COAST,KWALE,KINANGO,KINANGO,KINANGO,1,MOH,-4.13986,39.3132
10,KIKONENI H C,603,COAST,KWALE,MSAMBWENI,KIKONENI,BUMBANI,3,MOH,-4.44607,39.3135
15,LUKORE DISP,580,COAST,KWALE,KUBO,LUKORE,LUKORE,4,MOH,-4.35608,39.3157
37,MTAA DISP,3964,COAST,KWALE,KINANGO,MTAA,MTAA,4,MOH,-4.00308,39.3411
4,ESHU DISP,575,COAST,KWALE,MSAMBWENI,MIVUMONI,MIVUMONI,4,MOH,-4.41492,39.3469
24,KORATI DISP,2506,COAST,TANA RIVER,BANGALE,BUWA,KORATI,4,MOH,-0.19679,39.359733
58,WASINI DISP,3783,COAST,KWALE,MSAMBWENI,PONGWE/KIDIMU,WASINI/MKWIRO,4,MOH,-4.65501,39.3629
41,MWALUVANGA DISP,0,COAST,KWALE,KUBO,MWALUVANGA,MWALUVANGA,4,MOH,-4.379162,39.363895
27,SAKA DISP,1202,N. EASTERN,GARISSA,SANKURI,SAKA,SAKA,4,MOH,-0.10131,39.366
40,MWALUPHAMBA DISP,595,COAST,KWALE,KUBO,MWALUPHAMBA,MLAFYENI,4,MOH,-4.22579,39.3663
19,MAFISINI DISP,584,COAST,KWALE,MSAMBWENI,MIVUMONI,MIVUMONI,4,MOH,-4.44518,39.375
48,SHIMONI DISP,599,COAST,KWALE,MSAMBWENI,PONGWE/KIDIMU,SHIMONI,4,MOH,-4.645082,39.378825
33,MKWIRO DISP,2897,COAST,KWALE,MSAMBWENI,PONGWE/KIDIMU,WASINI/MKWIRO,4,MOH,-4.66227,39.3968
6,KIBANDAONGO DISP,576,COAST,KWALE,KINANGO,GANDINI,KIBANDAONGO,4,MOH,-4.0449,39.3981
7,BUTE HEALTH CENTRE,1230,N. EASTERN,WAJIR,BUTE,BUTE,BUTE,3,MOH,3.378396,39.41198
47,SHIMBA HILLS H C,605,COAST,KWALE,KUBO,MAJIMBONI,SHIMBA HILLS,3,MOH,-4.35774,39.4179
2,ASSA DISP,742,COAST,TANA RIVER,GARSEN,ASSA,ASSA,4,MOH,-2.05182,39.424629
41,MULANJO DISP,769,COAST,TANA RIVER,MADOGO,SAKA,MLANJO,4,MOH,-0.296412,39.429224
26,MANDA DISP,596,COAST,KWALE,SAMBURU,MWAVUMBO,KALALANI,4,MOH,-3.88865,39.4334
1,BOFU DISP,573,COAST,KWALE,KINANGO,MTAA,BOFUKWALE,4,MOH,-3.98003,39.434
16,HADADO HEALTH CENTRE,3953,N. EASTERN,WAJIR,HADADO,HADADO NORTH,HADADO NORTH,3,MOH,1.521219,39.449424
33,TSANGATSINI DISP,556,COAST,KILIFI,KALOLENI,TSANGATSINI,TSANGATSINI,4,MOH,-3.71439,39.44978
43,MWAPALA DISP,3782,COAST,KWALE,KUBO,MAJIMBONI,MAJIMBONI,4,MOH,-4.34027,39.4527
14,KWALE SUB-DISTRICT HOSPITAL,610,COAST,KWALE,MATUGA,GOLINI,GOLINI,1,MOH,-4.17514,39.456
6,BUNA HEALTH CENTRE,1229,N. EASTERN,WAJIR,BUNA,BUNA,BUNA,3,MOH,3.019239,39.461783
36,MSAMBWENI DISTRICT HOSPITAL,611,COAST,KWALE,MSAMBWENI,MSAMBWENI,VINGUJINI,1,MOH,-4.48007,39.4708
60,TUMBE TB AND LEPROSY HOSP,608,COAST,KWALE,MSAMBWENI,MSAMBWENI,VINGUJINI,8,MOH,-4.46664,39.4709
29,SANKURI DISP,1203,N. EASTERN,GARISSA,SANKURI,SANKURI,BALICH,4,MOH,-0.16575,39.4755
34,MNYENZENI DISP,592,COAST,KWALE,SAMBURU,KASEMENI,MNYENZENI,4,MOH,-3.98765,39.4868
56,VYONGWANI DISP,2898,COAST,KWALE,MATUGA,GOLINI,GOLINI,4,MOH,-4.15284,39.4883
21,MARIAKANI HEALTH CENTRE,570,COAST,KILIFI,KALOLENI,MARIAKANI,KAWALA/KADZONZO,3,MOH,-3.85673,39.49386
29,MAZUMAALUME DISP,3299,COAST,KWALE,MATUGA,TSIMBA,MAZUMALUME,4,MOH,-4.24406,39.495
70,KAFUDINI DISP,3779,COAST,KWALE,SAMBURU,MWATATE,MWATATEKWALE,4,MOH,-3.90842,39.4982
17,LUTSANGANI DISP,582,COAST,KWALE,SAMBURU,KASEMENI,CHIGATO,4,MOH,-3.95,39.5
15,HABASWEIN HEALTH CENTRE,1222,N. EASTERN,WAJIR,HABASWEIN,HABASWEIN,HABASWEIN,3,MOH,0.969016,39.504103
39,MUHAKA DISP,594,COAST,KWALE,MSAMBWENI,KINONDO,KINONDO,4,MOH,-4.34114,39.5141
2,BAMBA HEALTH CENTRE,559,COAST,KILIFI,BAMBA,BAMBA,PAZIANIKILIFI,3,MOH,-3.54541,39.523701
30,MBUANI DISP,589,COAST,KWALE,MSAMBWENI,DIANI,BONGWE,4,MOH,-4.29503,39.53
11,GOTANI DISP,531,COAST,KILIFI,KALOLENI,KAYAFUNGO,MBALAMWENI,4,MOH,-3.78647,39.540619
28,MAZERAS DISP,588,COAST,KWALE,SAMBURU,KASEMENI,MAZERAS,4,MOH,-3.96716,39.54152
14,GURAR DISP,1221,N. EASTERN,WAJIR,GURAR,GURAR,GURAR,4,MOH,3.298583,39.548819
20,MAGODZONI DISP,4132,COAST,KWALE,MATUGA,TIWI,SIMKUMBE,4,MOH,-4.21096,39.5563
28,RABAI HEALTH CENTRE,571,COAST,KILIFI,KALOLENI,RABAI,BUNI/CHISIMANI,3,MOH,-3.93892,39.566319
3,DIANI DISP,574,COAST,KWALE,MSAMBWENI,DIANI,GOMBATO,4,MOH,-4.27433,39.5681
27,MATUGA DISP,587,COAST,KWALE,MATUGA,WAA,MATUGA,4,MOH,-4.16819,39.571
25,MURYACHWAKE DISP,547,COAST,KILIFI,VITENGENI,MRIMA WA NDEGE,MILORE,4,MOH,-3.28851,39.576759
17,KINARANI DISP,3762,COAST,KILIFI,KALOLENI,MWANAMWINGA,KIBWABWANI,4,MOH,-3.729553,39.579223
59,WAYU DISP,788,COAST,TANA RIVER,GALORE,WAYU,WAYU,4,MOH,-1.53075,39.583912
51,TIWI RURAL H T C,613,COAST,KWALE,MATUGA,TIWI,MKOYO,3,MOH,-4.24935,39.5869
19,KOMBENI DISP,540,COAST,KILIFI,KALOLENI,MWAWESA,MWAMUTSUNGA,4,MOH,-3.91277,39.58707
3,AJAWA DISP,1216,N. EASTERN,WAJIR,GURAR,AJAWA,AJAWA,4,MOH,3.070257,39.594792
62,WATAMU DISP,558,COAST,MOMBASA,LIKONI,MTONGWE,MTONGWE,4,MOH,-4.06546,39.6
57,WAA DISP,602,COAST,KWALE,MATUGA,WAA,KITIVO,4,MOH,-4.1736,39.6026
49,PORT REITZ DISTRICT HOSPITAL,700,COAST,MOMBASA,CHANGAMWE,PORT REITZ,PORT REITZ,1,MOH,-4.039267,39.602867
83,PORT HEALTH SERVICES,0,COAST,MOMBASA,CHANGAMWE,PORT REITZ,PORT REITZ,9,MOH,-4.01305,39.6036
25,MADOGO HEALTH CENTRE,794,COAST,TANA RIVER,MADOGO,MADOGO,MADOGO,3,MOH,-0.47267,39.607311
30,SHANTABAK DISP.,3480,N. EASTERN,GARISSA,SHANT-ABAK,GOREALE,GOREALE,4,MOH,0.24409,39.6306
29,RIBE DISP,551,COAST,KILIFI,KALOLENI,RIBE,CHAURINGO,4,MOH,-3.8854,39.63147
45,NG'OMBENI DISP,598,COAST,KWALE,MATUGA,NGOMBENI,NGOMBENIKWALE,4,MOH,-4.128266,39.631603
40,MORORO HEALTH CENTRE,3818,COAST,TANA RIVER,MADOGO,MORORO,MORORO,3,MOH,-0.474663,39.632476
4,CHAKAMA DISP,518,COAST,MALINDI,MALINDI,CHAKAMA,MAKONGENIMALINDI,4,MOH,-3.122,39.633499
53,SHIKA ADABU DISP,674,COAST,MOMBASA,LIKONI,SHIKA ADABU,VIJIWENI,4,MOH,-4.11276,39.637669
12,ELDAS DISP,1219,N. EASTERN,WAJIR,ELDAS,ELDAS,ELDAS,4,MOH,2.407958,39.638052
41,MTONGWE HEALTH CENTRE,692,COAST,MOMBASA,LIKONI,MTONGWE,MTONGWE,3,MOH,-4.081243,39.639063
4,BWAGAMOYO DISP,514,COAST,KILIFI,KALOLENI,RIBE,CHAURINGO,4,MOH,-3.92021,39.64452
10,GARISSA DISP MCH/FP,1200,N. EASTERN,GARISSA,CENTRAL,TOWNSHIP,TOWNSHIPGARISSA,4,MOH,-0.448781,39.649818
19,KILINDINI PORT DISP,651,COAST,MOMBASA,LIKONI,LIKONI,BOFUMOMBASA,4,MOH,-4.08,39.65
81,NYS DISP,666,COAST,MOMBASA,ISLAND,RAILWAY,SHIMANZI,9,MOH,-4.0492,39.6539
24,LIKONI HEALTH CENTRE,687,COAST,MOMBASA,LIKONI,LIKONI,TIMBWANI,3,MOH,-4.085214,39.655484
80,NYALI BARRACKS M.R.I. DISP,665,COAST,MOMBASA,ISLAND,TUDOR,TUDOR FOUR,9,MOH,-4.03841,39.66118
58,TUDOR HEALTH CENTRE,678,COAST,MOMBASA,ISLAND,TUDOR,TUDOR,3,MOH,-4.029273,39.661421
20,LENGA DISP,541,COAST,KILIFI,KALOLENI,KAMBE,PANGANI/MAERENI,4,MOH,-3.8669,39.661819
23,MGAMBONI DISP,546,COAST,KILIFI,KALOLENI,JIBANA,KWALEKILIFI,4,MOH,-3.84524,39.663441
55,STATE HOUSE DISP,676,COAST,MOMBASA,ISLAND,GANJONI,KIZINGOMOMBASA,4,MOH,-4.071958,39.667547
67,DETENTION CAMP DISP,646,COAST,MOMBASA,ISLAND,TUDOR,TUDOR FOUR,9,MOH,-4.03376,39.6682
47,NGOMEN DISP,2370,COAST,MOMBASA,ISLAND,MAJENGO,MWEMBE TAYARI,4,MOH,-4.06,39.67
9,GANZE DISP,525,COAST,KILIFI,GANZE,GANZE,GANZE/TSANGALAWENI,4,MOH,-3.54244,39.671959
18,KIZINGO H C,3300,COAST,KILIFI,CHONYI,MWARAKAYA,KIZINGOKILIFI,3,MOH,-3.782055,39.676958
7,COAST PROVINCIAL GENERAL HOSP.,696,COAST,MOMBASA,ISLAND,OLD TOWN,OLD T.MAKADARA WARD,2,MOH,-4.059355,39.677362
21,KONGOWEA HEALTH CENTRE,683,COAST,MOMBASA,KISAUNI,KONGOWEA,KONGOWEA,3,MOH,-4.041348,39.684077
13,JIBANA HEALTH CENTRE,560,COAST,KILIFI,KALOLENI,JIBANA,TSAGWA,3,MOH,-3.83107,39.686451
20,KISAUNI DISP,653,COAST,MOMBASA,KISAUNI,KONGOWEA,MAWENI,4,MOH,-4.030596,39.692579
5,CHASIMBA/MWELE DISP,519,COAST,KILIFI,CHONYI,CHASIMBA,CHASIMBA,4,MOH,-3.73492,39.699951
37,VITENGENI DISP,563,COAST,KILIFI,VITENGENI,VITENGENI,VITENGENI,4,MOH,-3.35909,39.707989
3,ANNEXE DISP,4517,COAST,MOMBASA,KISAUNI,KISAUNI,KISAUNI,4,MOH,-4.005339,39.714984
1,ABAKORE DISP,0,N. EASTERN,WAJIR,HABASWEIN,ABAKORE,ABAKORE,4,MOH,0.602452,39.716838
5,BULLAMEDINA DISP,0,N. EASTERN,GARISSA,CENTRAL,TOWNSHIP,MEDINA,4,MOH,-0.349028,39.724797
9,DANABA DISP,0,N. EASTERN,WAJIR,GURAR,DANABA,DANABA,4,MOH,3.280454,39.731182
24,MTWAPA DISP,545,COAST,KILIFI,KIKAMBALA,MTWAPA,KIDUTANI/MAWAMBA,4,MOH,-3.91792,39.738239
54,SHIMO LA TEWA DISP,675,COAST,MOMBASA,KISAUNI,BAMBURI,SHANZU,4,MOH,-3.956292,39.742418
12,JARIBUNI DISP,532,COAST,KILIFI,GANZE,KAUMA,VINAGONI,4,MOH,-3.63261,39.742729
3,BOMANI DISP,0,COAST,KILIFI,KIKAMBALA,MTWAPA,KIDUTANI/MAWAMBA,4,MOH,-3.88427,39.749401
14,JUNJU DISP,534,COAST,KILIFI,KIKAMBALA,JUNJU,VIPINGO,4,MOH,-3.82987,39.761131
22,TULATULA DISP,0,N. EASTERN,WAJIR,GRIFTU,TULATULA,TULA TULA,4,MOH,1.880258,39.764579
27,PINGILIKANI DISP,550,COAST,KILIFI,CHONYI,BANDA RA SALAMA,PINGILIKANI,4,MOH,-3.77444,39.773449
11,GARISSA PROVINCIAL GENERAL HOSPITAL,1209,N. EASTERN,GARISSA,CENTRAL,WABERI,WABERI,2,MOH,-0.334012,39.7739
13,GRIFTU HEALTH CENTRE,1220,N. EASTERN,WAJIR,GRIFTU,GRIFTU,GRIFTU,3,MOH,2.04256,39.7807
3,BARICHO DISP,516,COAST,MALINDI,MARAFA,BUNGALE,BARICHOMALINDI,4,MOH,-3.10371,39.784611
19,KORA KORA DISP,1197,N. EASTERN,GARISSA,CENTRAL,KORAKORA,KORAKORA,4,MOH,-0.5653,39.7849
36,NEP GIRLS SEC SCH. DISP,0,N. EASTERN,GARISSA,CENTRAL,TOWNSHIP,MEDINA,9,MOH,-0.260903,39.8013
8,DIDA DISP,523,COAST,KILIFI,VITENGENI,SOKOKE,DIDA,4,MOH,-3.42881,39.805408
35,VIPINGO HEALTH CENTRE,572,COAST,KILIFI,KIKAMBALA,JUNJU,VIPINGO,3,MOH,-3.81929,39.809422
6,BURA NYS DISP,745,COAST,TANA RIVER,BURA,BURA,METI,4,MOH,-1.18688,39.82103
25,SOSONI DISP,553,COAST,MALINDI,MARAFA,BUNGALE,DAKACHA,4,MOH,-3.02801,39.822899
5,BURA HEALTH CENTRE,791,COAST,TANA RIVER,BURA,BURA,METI,3,MOH,-1.18281,39.838829
42,NANIGHI DISP,771,COAST,TANA RIVER,BURA,NANIGHI,NANIGHITRIVER,4,MOH,-0.85945,39.851012
26,NANIGHI DISP,1201,N. EASTERN,GARISSA,BURA,KAMUTHE,KAMUTHE,4,MOH,-0.68774,39.8558
16,KILIFI DISTRICT HOSPITAL,565,COAST,KILIFI,BAHARI,KILIFI TOWNSHIP,HOSPITALKILIFI,1,MOH,-3.63205,39.85722
32,TAKAUNGU DISP,554,COAST,KILIFI,KIKAMBALA,TAKAUNGU MAVUENI,TAKAUNGU,4,MOH,-3.68278,39.8592
6,DANDU DISP,4376,N. EASTERN,MANDERA,DANDU,DANDU,DANDU,4,MOH,3.42234,39.862221
26,NGERENYA DISP,548,COAST,KILIFI,BAHARI,NGERENYA,NGERENYA,4,MOH,-3.51353,39.862282
11,KAKONENI DISP,535,COAST,MALINDI,MALINDI,JILORE,KAKONENI,4,MOH,-3.16443,39.86591
43,NANIGHI NYS DISP,770,COAST,TANA RIVER,BURA,NANIGHI,NANIGHITRIVER,4,MOH,-0.98261,39.888416
7,GARASHI DISP,526,COAST,MALINDI,MARAFA,GARASHI,MIKUYUNIMALINDI,4,MOH,-3.13094,39.891178
10,JILORE HEALTH CENTRE,533,COAST,MALINDI,MALINDI,JILORE,JILORE/ZIAN,3,MOH,-3.18922,39.905842
22,MATSANGONI DISP,544,COAST,KILIFI,BAHARI,MATSANGONI,MATSANGONI,4,MOH,-3.3904,39.928551
23,WAGALLA DISP,1226,N. EASTERN,WAJIR,GRIFTU,WAGALLA,WAGALLA,4,MOH,1.785442,39.931893
5,DAGAMRA DISP,521,COAST,MALINDI,MARAFA,DAGAMRA,BATE,4,MOH,-3.18239,39.936409
8,CHEWELE DISP,749,COAST,TANA RIVER,BURA,CHEWELE,CHEWELE,4,MOH,-1.158,39.951618
17,MARAFA HEALTH CENTRE MAGARINI,561,COAST,MALINDI,MARAFA,MARAFA,MADINA,3,MOH,-3.02833,39.959728
6,BURA DISP,1190,N. EASTERN,GARISSA,BURA,BURA,BURAGARISSA,4,MOH,-1.0164,39.9782
1,ADU DISP,512,COAST,MALINDI,MARAFA,ADU,ADU,4,MOH,-2.8398,39.979912
8,DAMBAS DISP,0,N. EASTERN,WAJIR,TARBAJ,DAMBAS,DAMBAS,4,MOH,2.38608,39.9967
27,MAKERE DISP,760,COAST,TANA RIVER,GALORE,MAKERE,BUBU,4,MOH,-1.3372,40.000669
12,KAKUYUNI DISP,536,COAST,MALINDI,MALINDI,GOSHI,KAKUYUNIMALINDI,4,MOH,-3.22065,40.001911
33,MAUMAU SEC SUB-HEALTH CENTRE,761,COAST,TANA RIVER,GALORE,KIARIKUNGU,KIARIKUNGU,3,MOH,-1.50592,40.00832
7,CHEWANI DISP,748,COAST,TANA RIVER,GALORE,CHEWANI,CHEWANI,4,MOH,-1.43728,40.02169
15,HOLA DISTRICT HOSPITAL,795,COAST,TANA RIVER,GALORE,KIARIKUNGU,KIARIKUNGU,1,MOH,-1.4988,40.030251
26,WAJIR DISTRICT HOSPITAL,1231,N. EASTERN,WAJIR,GRIFTU,KUKALA,KUKALA,1,MOH,1.6909,40.0396
22,MASABUBU DISP,1198,N. EASTERN,GARISSA,BURA,MANSABUBU,MANSABUBU,4,MOH,-1.23551,40.0427
8,GEDE DISP,527,COAST,MALINDI,MALINDI,WATAMU,CHEMBE KIBABA MUCHE,4,MOH,-3.284649,40.050652
47,PUMWANI DISP,775,COAST,TANA RIVER,WENJE,NDURA,HANDAMPIA,4,MOH,-1.6107,40.068272
29,MAREMBO DISP,0,COAST,TANA RIVER,GARSEN,MWINA,SERA,4,MOH,-2.12,40.07
0,FUNDISA DISP,2937,COAST,MALINDI,MAGARINI,FUNDISA,FUNDISA,4,MOH,-2.917646,40.093725
21,TARBAJ HEALTH CENTRE,1225,N. EASTERN,WAJIR,TARBAJ,TARBAJ,TARBAJ,3,MOH,2.152085,40.09833
14,GARSEN HEALTH CENTRE,792,COAST,TANA RIVER,GARSEN,BILISA,CHIRA,3,MOH,-2.27091,40.10762
62,WENJE DISP,790,COAST,TANA RIVER,WENJE,GWANO,WENJE,4,MOH,-1.78983,40.109058
19,MARIKEBUNI DISP,543,COAST,MALINDI,MAGARINI,MAGARINI,MARIKEBUNI,4,MOH,-3.09027,40.112049
26,MAJENGO DISP,758,COAST,TANA RIVER,WENJE,GWANO,HARATRIVER,4,MOH,-1.903,40.1135
15,MALINDI DISTRICT HOSPITAL,566,COAST,MALINDI,MALINDI,MALINDI,BARANI,1,MOH,-3.2165,40.1182
18,IDSOWE DISP,754,COAST,TANA RIVER,GARSEN,BILISA,GARSEN,4,MOH,-2.29391,40.122978
9,GONGONI DISP,530,COAST,MALINDI,MAGARINI,GONGONI,GONGONI,4,MOH,-3.03614,40.133381
34,MAZIWA DISP,797,COAST,TANA RIVER,GARSEN,MWINA,SERA,4,MOH,-2.18453,40.135109
16,MAMBRUI DISP,542,COAST,MALINDI,MAGARINI,MAGARINI,MAMBRUI,4,MOH,-3.11815,40.136879
18,MARERENI DISP,3765,COAST,MALINDI,MAGARINI,FUNDISA,MARERENI,4,MOH,-2.863,40.144611
39,MNAZINI DISP,768,COAST,TANA RIVER,GARSEN,NDERA,BAOMO,4,MOH,-1.97791,40.149052
18,MANSA DISP,4457,N. EASTERN,WAJIR,TARBAJ,MANZA,BURMAYO,4,MOH,2.992912,40.153837
23,NGOMENI DISP,549,COAST,MALINDI,MAGARINI,GONGONI,NGOMENI,4,MOH,-3.01,40.18
45,ODA DISP,772,COAST,TANA RIVER,GARSEN,NGAO,GOLBANTI,4,MOH,-2.46857,40.193821
44,NGAO SUB-DISTRICT HOSPITAL,796,COAST,TANA RIVER,GARSEN,KIPAO,KIPAO,1,MOH,-2.41221,40.201099
13,HORA DISP,0,N. EASTERN,GARISSA,MASALANI,HARA,HARAGARISSA,4,MOH,-1.83404,40.2083
7,DAADAB SUB- HEALTH CENTRE,1191,N. EASTERN,GARISSA,JARAJILA,YUMBIS,YUMBIS,3,MOH,-0.08411,40.212
15,TAKABA HEALTH CENTRE,1214,N. EASTERN,MANDERA,TAKABA,TAKABA,TAKABA,3,MOH,3.372873,40.215075
21,KIPAO DISP,0,COAST,TANA RIVER,GARSEN,KIPAO,KIPAO,4,MOH,-2.422858,40.216583
11,ELBEN DISP,1218,N. EASTERN,WAJIR,TARBAJ,ELBEN,ELBEN,4,MOH,2.532,40.2461
20,KOTILE DISP,0,N. EASTERN,GARISSA,MASALANI,KOTILE,BULLA WARADE,4,MOH,-1.91216,40.2489
23,MASALANI HEALTH CENTRE,1207,N. EASTERN,GARISSA,MASALANI,MASALANI,MUHUMED DAHIR,3,MOH,-1.6501,40.2964
50,SEMIKARO DISP,777,COAST,TANA RIVER,KIPINI,CHARA,SEMIKARO,4,MOH,-2.579019,40.297727
19,SABULI DISP,1224,N. EASTERN,WAJIR,SEBULE,SEBULE,SEBULE,4,MOH,0.233169,40.309499
5,BANISA DISP,1211,N. EASTERN,MANDERA,BANISA,BANISA,BANISA,4,MOH,3.911244,40.35221
46,OZI DISP,773,COAST,TANA RIVER,KIPINI,KONE MANSA,ODOLE,4,MOH,-2.509831,40.42429
29,WITU HEALTH CENTRE,630,COAST,LAMU,WITU,WITU,WITU,3,MOH,-2.39067,40.435958
19,KAU DISP,755,COAST,TANA RIVER,KIPINI,KILELENGWANI,KAU,4,MOH,-2.473381,40.453161
24,PANDA NGUO DISP,3787,COAST,LAMU,WITU,WITU,PANDANGUO,4,MOH,-2.203467,40.481233
3,BODHAI DISP,0,N. EASTERN,GARISSA,IJARA,BODHAI,BODHAI,4,MOH,-1.84772,40.526
17,KHOROF HARAR H C,1223,N. EASTERN,WAJIR,WAJIR-BOR,KHOROF-HARAR,KHOROF-HARAR,3,MOH,2.075658,40.532626
23,KIPINI HEALTH CENTRE,793,COAST,TANA RIVER,KIPINI,KIPINI,KIPINI,3,MOH,-2.5308,40.541761
20,SARIF DISP,0,N. EASTERN,WAJIR,SEBULE,SARIF,SARIF,4,MOH,0.682761,40.546779
1,ALIJUGUR DISP,1187,N. EASTERN,GARISSA,JARAJILA,FAFI,FAFI,4,MOH,-0.41064,40.5711
17,IJARA DISP,1195,N. EASTERN,GARISSA,IJARA,SANGOLE,BULLA-WACHA,4,MOH,-1.54577,40.6083
16,MKUNUBI DISP,620,COAST,LAMU,MPEKETONI,MKUNUMBI,MKUNUMBI,4,MOH,-2.29477,40.6761
20,MPEKETONI HEALTH CENTRE,629,COAST,LAMU,MPEKETONI,MPEKETONI,CENTRALLAMU,3,MOH,-2.38934,40.6976
17,MLANGUMU DISP,0,COAST,LAMU,MPEKETONI,BAHARINI,BAHARI,4,MOH,-2.42249,40.7218
9,KUTULO DISP,3395,N. EASTERN,MANDERA,KOTULO,KOTULO,KOTULOMANDERA,4,MOH,2.37357,40.7295
11,MALKA MARI DISP,0,N. EASTERN,MANDERA,MALKAMARI,MALKAMARI,MALKAMARI,4,MOH,4.277132,40.766331
22,N.Y.S DISP BARGONI,614,COAST,LAMU,HINDI,HINDI MAGOGONI,BARGONI,4,MOH,-2.01823,40.780399
2,BARGONI HEALTH CENTRE,3606,COAST,LAMU,HINDI,HINDI MAGOGONI,BARGONI,3,MOH,-2.057423,40.795232
5,BIYAMATHOW DISP,0,N. EASTERN,WAJIR,SEBULE,SARIF,SARIF,4,MOH,0.397138,40.801336
25,WAJIR BOR DISP,1227,N. EASTERN,WAJIR,WAJIR-BOR,KHOROF-HARAR,KONTON,4,MOH,1.954284,40.805737
4,HINDI MAGOGONI DISP,0,COAST,LAMU,HINDI,HINDI MAGOGONI,HINDI MAGOGONI,4,MOH,-2.17357,40.810619
9,GALMAGALLA DISP,1192,N. EASTERN,GARISSA,HULUGHO,GALMAGALA,KORANHINDI,4,MOH,-1.23551,40.816
5,HINDI PRISON DISP,615,COAST,LAMU,HINDI,HINDI MAGOGONI,HINDI MAGOGONI,4,MOH,-2.18,40.82
28,SANGAILU DISP,2500,N. EASTERN,GARISSA,SANGAILU,SANGAILU,MATTA-ARBA,4,MOH,-1.39017,40.8289
19,MOKOWE HEALTH CENTRE,628,COAST,LAMU,HINDI,MOKOWE,KILIMANI,3,MOH,-2.226905,40.830624
21,LIBOI HEALTH CENTRE,1205,N. EASTERN,GARISSA,LIBOI,LIBOI,LIBOI,3,MOH,0.34724,40.8309
14,MATONDONI DISP,619,COAST,LAMU,AMU,MATONDONI,KIPUNGANI,4,MOH,-2.29451,40.858402
21,MUKOWE HOSPITAL,0,COAST,LAMU,HINDI,MOKOWE,MOKOWE,1,MOH,-2.234325,40.860674
16,WARGADUD DISP,0,N. EASTERN,MANDERA,WARGADUD,WARGADUD,WARGADUDMAND,4,MOH,3.140544,40.865514
4,AS-HABITO DISP,4375,N. EASTERN,MANDERA,ASHABITO,ASHABITO,ASHABITO,4,MOH,3.33798,40.867
12,LAMU DISTRICT HOSPITAL,631,COAST,LAMU,AMU,SHELLA MANDA,SHELLALAMU,1,MOH,-2.27857,40.906769
7,ELWAK HEALTH CENTRE,1212,N. EASTERN,MANDERA,ELWAK,ELWAK SOUTH,ELWAK SOUTH,3,MOH,2.784906,40.935457
27,SHELLA DISP,623,COAST,LAMU,AMU,SHELLA MANDA,MANDALAMU,4,MOH,-2.277881,40.949199
10,DIFF DISP,1217,N. EASTERN,WAJIR,DIFF,DIFF,DIFF,4,MOH,0.986078,40.984295
25,PATTE DISP,622,COAST,LAMU,FAZA,PATTE,PATTE,4,MOH,-2.119562,41.011852
28,SIYU DISP,624,COAST,LAMU,FAZA,SIYU,SIYU,4,MOH,-2.109339,41.08097
3,FAZA HEALTH CENTRE,626,COAST,LAMU,FAZA,TCHUNDWA,TCHUNDWA,3,MOH,-2.071384,41.106066
7,ICHUNDWA DISP,625,COAST,LAMU,KIZINGITINI,MBWAJUMWALI,MYABOGI,4,MOH,-2.080138,41.123971
10,KIZINGITINI DISP,617,COAST,LAMU,KIZINGITINI,MBWAJUMWALI,MYABOGI,4,MOH,-2.07302,41.1464
13,MANGAI DISP,2508,COAST,LAMU,KIUNGA,BASUBA,MANGAI,4,MOH,-1.746,41.181
13,RHAMU HEALTH CENTRE,1213,N. EASTERN,MANDERA,RHAMU,RHAMU,RHAMU,3,MOH,3.935952,41.203319
23,NDAU DISP,621,COAST,LAMU,KIZINGITINI,NDAU,NDAU,4,MOH,-2.011428,41.209608
9,KIWAYU DISP,618,COAST,LAMU,KIZINGITINI,NDAU,KIWAYUU,4,MOH,-2.002129,41.276085
15,MKOKONI DISP,3786,COAST,LAMU,KIUNGA,KIUNGA,MKOKONI,4,MOH,-1.896091,41.299752
8,KIUNGA HEALTH CENTRE,627,COAST,LAMU,KIUNGA,KIUNGA,RUBU/MWAMBORE,3,MOH,-1.741314,41.489472
10,LIBEHIA DISP,3955,N. EASTERN,MANDERA,LIBEHIA,LIBEHIA,LIBEHIA,4,MOH,3.801036,41.490197
14,HULUGHO SUB HEALTH CENTRE,1194,N. EASTERN,GARISSA,HULUGHO,HADI,HADI,3,MOH,-1.57508,41.5061
3,ARABIA DISP,1210,N. EASTERN,MANDERA,FINO,ARABIA,ARABIA,4,MOH,3.537979,41.582429
8,KALALIYO DISP,2532,N. EASTERN,MANDERA,KHALALIO,KHALALIO,KHALALIO,4,MOH,3.950161,41.619151
17,MANDERA ARMY CAMP DISP,0,N. EASTERN,MANDERA,CENTRAL,BULLA JAMHURIA,BULLA NGUVU,9,MOH,3.947474,41.845235
12,MANDERA DISTRICT HOSPITAL,1215,N. EASTERN,MANDERA,CENTRAL,BULLA JAMHURIA,BULLA POWER,1,MOH,3.954424,41.861814
